{"type":"Feature","properties":{"slug":"adrogue-burzaco","name":"Adrogué y Burzaco","region":"sur","sort":5},"geometry":{"type":"Polygon","coordinates":[[[-58.42,-34.84],[-58.375,-34.84],[-58.375,-34.79],[-58.39405253501042,-34.79],[-58.405239,-34.796054],[-58.409954,-34.798587],[-58.40987246,-34.79874317],[-58.40950915,-34.79943899],[-58.40914305,-34.80014015],[-58.409093,-34.800236],[-58.40843575,-34.80107182],[-58.40840037,-34.80111681],[-58.40839,-34.80113],[-58.407838,-34.801038],[-58.40782573,-34.80104771],[-58.40775451,-34.80110403],[-58.407728,-34.801125],[-58.405102,-34.804573],[-58.4051567,-34.80460022],[-58.41670357,-34.81034707],[-58.418128,-34.811056],[-58.42,-34.81199443659353],[-58.42,-34.84]]]}}