{"type":"Feature","properties":{"slug":"almagro-boedo","name":"Almagro y Boedo","region":"caba","sort":16},"geometry":{"type":"Polygon","coordinates":[[[-58.43333687771966,-34.60267859363733],[-58.43233297017933,-34.60393329183726],[-58.431532337717904,-34.60494887570594],[-58.430671988778066,-34.60594640975917],[-58.430608699695775,-34.607052112479245],[-58.43056277026247,-34.60775865946521],[-58.43055231352328,-34.60792387095663],[-58.43051571134714,-34.60851872793139],[-58.4304767890353,-34.60873027019978],[-58.43041679013364,-34.60947040550568],[-58.43037349831735,-34.6101768825378],[-58.430333086825236,-34.61092040233685],[-58.430321504749486,-34.61113357170924],[-58.430257457400636,-34.61176475984214],[-58.430235682679296,-34.61190229091034],[-58.43013009070171,-34.613333056490355],[-58.430088676347964,-34.614020167365204],[-58.43003137426665,-34.61545404367607],[-58.429255350056906,-34.61511051469348],[-58.42922189746147,-34.615262198147285],[-58.428795879070336,-34.6171918212994],[-58.42859114078659,-34.618118958247585],[-58.42859020775102,-34.618123476799404],[-58.428553841141245,-34.618299583132455],[-58.42832039020718,-34.61943002375544],[-58.42828684462788,-34.61959241027265],[-58.42828038348047,-34.61962532285101],[-58.42807163094397,-34.6206886294172],[-58.42794451483298,-34.62133606501756],[-58.42784582504237,-34.62183850729086],[-58.42779818792835,-34.622079200302956],[-58.42749434796352,-34.62361222879752],[-58.42746489399811,-34.6237610245822],[-58.42724028754673,-34.624857167527544],[-58.42717899955627,-34.62513947734698],[-58.427043457126864,-34.62573627454654],[-58.427014730977305,-34.625867843375296],[-58.42697448515107,-34.62605217330092],[-58.42682220956969,-34.62672466990907],[-58.426758704696695,-34.62700303506082],[-58.426504937653384,-34.62811550552684],[-58.4264586717886,-34.62832084635757],[-58.426355179152914,-34.628780209319814],[-58.42631959308536,-34.62893816215205],[-58.42625363246733,-34.629230934460466],[-58.42621564556708,-34.62939930511143],[-58.426018284140234,-34.63027390255916],[-58.42598259091656,-34.630456428774856],[-58.425935454702106,-34.63069761394279],[-58.425856953084235,-34.631054876751385],[-58.42585418624352,-34.631067471413246],[-58.42580560577983,-34.631288566164734],[-58.42575576109357,-34.63148798951523],[-58.425689186649244,-34.63175466155628],[-58.425531633742956,-34.632369689814034],[-58.42545934301278,-34.632651783175085],[-58.42522565921716,-34.633553127971204],[-58.425185972136575,-34.63370551101121],[-58.42486269629172,-34.634880773041196],[-58.42467668336456,-34.63565903213808],[-58.42452850934023,-34.63622828590793],[-58.42452273278346,-34.6362511719518],[-58.42438877632778,-34.636781838551954],[-58.424318329061464,-34.63703735153587],[-58.424280385065195,-34.63717497675189],[-58.42404633329755,-34.638078712652245],[-58.423762511712404,-34.63917285610452],[-58.42349481677904,-34.64020460971672],[-58.42230902765351,-34.639993370204564],[-58.42092081392704,-34.63974606263493],[-58.420920356995346,-34.63974598134865],[-58.41995261592489,-34.639573566301095],[-58.41975957356704,-34.63953917241165],[-58.41953720869348,-34.639500852929395],[-58.419298401085655,-34.639459710183466],[-58.41918086598994,-34.63944253810225],[-58.41862576013449,-34.639361436593845],[-58.41851968030723,-34.63934595462124],[-58.41848305244248,-34.63934060928782],[-58.418468131873816,-34.63933817800781],[-58.41846775788279,-34.639338117224284],[-58.41846155161493,-34.63933710569141],[-58.41845969988974,-34.639336823768645],[-58.418453030238595,-34.639335717080954],[-58.418452939724716,-34.63933570262499],[-58.418451252719244,-34.63933542780798],[-58.41844260815465,-34.6393340191483],[-58.417261154870445,-34.6391414909472],[-58.41708999376769,-34.63911255293963],[-58.41613903072944,-34.63895183501225],[-58.41609330350788,-34.63894381003736],[-58.415921210369056,-34.638913607143415],[-58.415847064556885,-34.63890059431161],[-58.41455660486835,-34.638674097526405],[-58.41319535614147,-34.63843516354038],[-58.41207471222103,-34.63823838747219],[-58.41188318730597,-34.63820475614839],[-58.411629220316996,-34.63816331074593],[-58.41126390426369,-34.638103577189355],[-58.41100565490151,-34.63728571224938],[-58.410930826220046,-34.637047438371724],[-58.41070949083322,-34.636338463456],[-58.41051545634473,-34.63571372558299],[-58.41049206922788,-34.63524181008535],[-58.41056884083991,-34.635098883950484],[-58.41088376935537,-34.63451281727809],[-58.410990442838944,-34.634237648665376],[-58.41148112715898,-34.63297193008598],[-58.411524050933046,-34.63286110190784],[-58.411524156291684,-34.632860028364306],[-58.41163799768043,-34.63170226524605],[-58.41164227981809,-34.631658625815795],[-58.411654373885746,-34.631535369289146],[-58.41178276811417,-34.63036105019175],[-58.411782811125846,-34.63036027048347],[-58.41178935716201,-34.63024072180069],[-58.411845798928844,-34.62921000302793],[-58.411877679472084,-34.6286283908767],[-58.41193454750088,-34.627590727441046],[-58.4119659416147,-34.62701783973439],[-58.41197519014426,-34.62684907016171],[-58.41199382601388,-34.62650905035494],[-58.412068696783834,-34.62514265841067],[-58.41209759566923,-34.62497379516741],[-58.41213016976793,-34.62478268013098],[-58.41222325275101,-34.62399714621592],[-58.41233697069864,-34.62303746480651],[-58.4120454070184,-34.622979384112405],[-58.412359916674454,-34.62187316459169],[-58.41244032418157,-34.62188798772624],[-58.41254739310853,-34.62064696103565],[-58.412638844488875,-34.61958776094854],[-58.412645603703076,-34.6193992399821],[-58.41268580750058,-34.618282059770266],[-58.41269112892961,-34.618074594829125],[-58.412757593806994,-34.616634322097866],[-58.412819897803075,-34.61544820627127],[-58.412873597839415,-34.614121027871846],[-58.413119844989794,-34.6134212612445],[-58.413317540373455,-34.612859574479046],[-58.41343889221667,-34.61261926847279],[-58.41356476245129,-34.61236994997255],[-58.414017790772796,-34.611555334311454],[-58.41447055478863,-34.61074128013696],[-58.41458650658843,-34.609381307705945],[-58.414625570387905,-34.60885117504709],[-58.414663514494634,-34.608194983540926],[-58.41410247688072,-34.607911937702106],[-58.41394055373985,-34.607351019713896],[-58.413911824862225,-34.60725128835602],[-58.41364846424978,-34.60612179871024],[-58.413415948173025,-34.605124083507015],[-58.4132324395128,-34.60433676974184],[-58.41322556735862,-34.60430730485336],[-58.413187089766375,-34.60414256684925],[-58.4129763305343,-34.603239579934666],[-58.41280762356229,-34.602516752814715],[-58.41259525892396,-34.601606932460776],[-58.412303652383585,-34.600357213455844],[-58.412282592406584,-34.60024861210603],[-58.41225771747433,-34.60011979746261],[-58.412127747539294,-34.59930127940675],[-58.41192253140976,-34.5980082151563],[-58.411990889482446,-34.59800446785923],[-58.41204977659872,-34.598001240273035],[-58.41209465132787,-34.59799878019979],[-58.412987517019374,-34.59796379871216],[-58.41325621165685,-34.59795390972126],[-58.41392436104433,-34.59792923887129],[-58.41395769315606,-34.5979280080151],[-58.41463144635392,-34.5979031263447],[-58.415666108332346,-34.59786494291618],[-58.415666827788684,-34.59786493226281],[-58.415694281690406,-34.59786452573498],[-58.41569500223619,-34.59786451505361],[-58.41600403600113,-34.597859933549024],[-58.41600475655537,-34.597859923268764],[-58.41616261013123,-34.59785767104057],[-58.41616333069258,-34.59785765352726],[-58.41724385864067,-34.59783138638638],[-58.41726641596561,-34.59783083792598],[-58.41726713649288,-34.59783082037807],[-58.417267837448584,-34.597830803306756],[-58.417403078898175,-34.59782751808431],[-58.417408448702155,-34.59782738759479],[-58.417469104811424,-34.597825914029805],[-58.41885324690783,-34.59779642579564],[-58.41894422049919,-34.59779448748676],[-58.41911977428877,-34.59779073635297],[-58.42016606016313,-34.59776837590226],[-58.42043602768668,-34.59776262530665],[-58.42063850283121,-34.59775923930643],[-58.42178083855531,-34.59774013195552],[-58.422747238904925,-34.597719991045835],[-58.42284263479575,-34.59771800262326],[-58.42284450312962,-34.59771812673761],[-58.42337046439579,-34.59775309579909],[-58.42375620668038,-34.597832538504306],[-58.424957256162664,-34.59785701864381],[-58.42630587453738,-34.597887222471456],[-58.426442469081785,-34.59790487129709],[-58.426567906269064,-34.59792103647548],[-58.42678829291573,-34.5979494812089],[-58.42777627037006,-34.598334144887495],[-58.42785554506763,-34.598369241395936],[-58.42799058800827,-34.598429140422475],[-58.42854164969183,-34.5986735949965],[-58.42855102818961,-34.59867775593027],[-58.42916476831594,-34.598964341781674],[-58.429223088323745,-34.59900449933255],[-58.42943185651599,-34.59913138941789],[-58.429649543422755,-34.599325890999886],[-58.430153110471274,-34.5997757539374],[-58.43019090952997,-34.599809567542955],[-58.43027799996006,-34.599887407339935],[-58.431041082723894,-34.60075445801703],[-58.43115719704175,-34.60088639198752],[-58.43187551720937,-34.601702577183666],[-58.43220130894098,-34.6020775963931],[-58.432243441632785,-34.60213894439448],[-58.43314460422121,-34.6025837563302],[-58.43333687771966,-34.60267859363733]]]}}