{"type":"Feature","properties":{"slug":"avellaneda","name":"Avellaneda","region":"sur","sort":0},"geometry":{"type":"MultiPolygon","coordinates":[[[[-58.33838053,-34.63357597],[-58.33837289,-34.63358136],[-58.33835302,-34.6335799],[-58.33813982,-34.6335643],[-58.33792977,-34.63354892],[-58.33745864,-34.63343471],[-58.33694468,-34.63332049],[-58.33618801,-34.63306351],[-58.33606191,-34.63302148],[-58.33601669,-34.6330064],[-58.33593103,-34.63307779],[-58.3359632,-34.63403229],[-58.33597386,-34.63434842],[-58.33580254,-34.63446263],[-58.33564549,-34.63447691],[-58.335517,-34.63451974],[-58.33481917,-34.63430167],[-58.33460329,-34.6342342],[-58.33436058,-34.63430559],[-58.33418926,-34.63446263],[-58.33331838,-34.63494804],[-58.3331185,-34.63506226],[-58.33314706,-34.63519075],[-58.33331838,-34.6354049],[-58.33333266,-34.63553339],[-58.33308995,-34.63586176],[-58.3328758,-34.63609019],[-58.33290435,-34.63633289],[-58.33301857,-34.63653277],[-58.3330614,-34.63694679],[-58.3330614,-34.63714667],[-58.33297574,-34.63741792],[-58.3328758,-34.63767491],[-58.33273303,-34.63793189],[-58.3325046,-34.63811749],[-58.33229045,-34.63838874],[-58.33223334,-34.63870283],[-58.33211913,-34.63890271],[-58.33200492,-34.63904548],[-58.33184787,-34.63931673],[-58.33176221,-34.63953089],[-58.33173366,-34.63978787],[-58.33179076,-34.63994491],[-58.33187643,-34.64021617],[-58.33201919,-34.64030183],[-58.33230473,-34.64050171],[-58.33227617,-34.64067303],[-58.3320763,-34.64075869],[-58.33197636,-34.64080152],[-58.33191925,-34.64094429],[-58.33184787,-34.64108705],[-58.33180504,-34.64117271],[-58.33179076,-34.64141542],[-58.33181932,-34.6414868],[-58.33181932,-34.64162957],[-58.33196209,-34.64170095],[-58.33214768,-34.64177234],[-58.33217624,-34.64192938],[-58.33220479,-34.64207215],[-58.33234756,-34.64225775],[-58.33241894,-34.64241479],[-58.3324475,-34.64254328],[-58.33246177,-34.6427146],[-58.33246177,-34.64287165],[-58.33246177,-34.64295731],[-58.33254743,-34.64310008],[-58.33268681,-34.64322679],[-58.33270448,-34.64324285],[-58.33276158,-34.64341417],[-58.33286152,-34.64359976],[-58.33291863,-34.64382819],[-58.33290435,-34.64404234],[-58.33289008,-34.64422794],[-58.33290435,-34.64434216],[-58.33291863,-34.6444992],[-58.33284725,-34.64472763],[-58.33046303,-34.64644084],[-58.32987983,-34.64681102],[-58.32807881,-34.64795418],[-58.32838482,-34.64821362],[-58.32873554,-34.64851097],[-58.32760767,-34.64949607],[-58.32682245,-34.65006714],[-58.32104036,-34.654393],[-58.31884174,-34.65609193],[-58.31779692,-34.65693491],[-58.31758538,-34.65710559],[-58.31705714,-34.65753389],[-58.31681444,-34.65773376],[-58.31658601,-34.65784798],[-58.31641469,-34.65800502],[-58.31562947,-34.65839049],[-58.31537248,-34.65850471],[-58.31514406,-34.65856182],[-58.31494418,-34.65859037],[-58.31475858,-34.65876169],[-58.31454443,-34.6588759],[-58.31430173,-34.65897584],[-58.31404474,-34.65904723],[-58.31380204,-34.65909006],[-58.31355933,-34.65916144],[-58.31341657,-34.65931848],[-58.3132738,-34.65940414],[-58.31304537,-34.65946125],[-58.31288833,-34.65954691],[-58.31268845,-34.6596183],[-58.31244575,-34.65971823],[-58.31231726,-34.65980389],[-58.3122316,-34.65987528],[-58.31206027,-34.65998949],[-58.31203172,-34.6600466],[-58.31200317,-34.66016081],[-58.31184612,-34.6602322],[-58.31170336,-34.66027503],[-58.31153203,-34.66037496],[-58.31138927,-34.66043207],[-58.31128933,-34.66051773],[-58.31111801,-34.66061767],[-58.31093241,-34.66071761],[-58.31083247,-34.66076044],[-58.31066115,-34.6608461],[-58.31057549,-34.66088893],[-58.31043272,-34.66097459],[-58.31034706,-34.66110308],[-58.3102614,-34.66116019],[-58.3100758,-34.66124585],[-58.30996159,-34.66137434],[-58.30979027,-34.66147427],[-58.30960467,-34.66157421],[-58.30947618,-34.66160277],[-58.30930486,-34.66181692],[-58.30914781,-34.66194541],[-58.30893366,-34.66205962],[-58.30881945,-34.66220239],[-58.30861957,-34.66230233],[-58.30833404,-34.66248793],[-58.30807706,-34.66265925],[-58.30789146,-34.66271635],[-58.3076202,-34.66283057],[-58.30733466,-34.66290195],[-58.30702058,-34.66304472],[-58.30684925,-34.66320176],[-58.30674932,-34.66331598],[-58.30647806,-34.66350158],[-58.30623535,-34.66371573],[-58.3060212,-34.66388705],[-58.3057785,-34.66398699],[-58.30560718,-34.66412975],[-58.30530736,-34.66435818],[-58.30509321,-34.66454378],[-58.30493617,-34.66474365],[-58.30477912,-34.66487214],[-58.30457925,-34.66504347],[-58.3044222,-34.6651434],[-58.30427944,-34.66528617],[-58.30416522,-34.66545749],[-58.30406529,-34.66561454],[-58.30393679,-34.66567164],[-58.3037512,-34.66572875],[-58.3035656,-34.66578586],[-58.30338,-34.66581441],[-58.30325151,-34.66577158],[-58.30303736,-34.66577158],[-58.30275182,-34.66587152],[-58.30255195,-34.66597146],[-58.30230924,-34.66614278],[-58.30210937,-34.66628555],[-58.30203798,-34.66641404],[-58.30192377,-34.66652825],[-58.30186666,-34.66657108],[-58.30168107,-34.66661391],[-58.30152402,-34.66661391],[-58.30139553,-34.66662819],[-58.30118138,-34.66662819],[-58.30105289,-34.66668529],[-58.30088157,-34.66685662],[-58.30076735,-34.666928],[-58.30066741,-34.666928],[-58.30052465,-34.66687089],[-58.3003105,-34.66681379],[-58.30022484,-34.66672813],[-58.30009634,-34.66665674],[-58.2999393,-34.66662819],[-58.29981081,-34.66667102],[-58.29966804,-34.66675668],[-58.29962521,-34.66682806],[-58.29962521,-34.666928],[-58.29962521,-34.66698511],[-58.29963949,-34.66712787],[-58.29973943,-34.66728492],[-58.29983936,-34.66734203],[-58.29989647,-34.66739913],[-58.29989647,-34.66751335],[-58.29969659,-34.66767039],[-58.299511,-34.66771322],[-58.29931112,-34.6677275],[-58.29919691,-34.66775605],[-58.29896848,-34.66795593],[-58.29879716,-34.66801303],[-58.29866867,-34.66798448],[-58.29849735,-34.66805586],[-58.29828319,-34.66818436],[-58.29808332,-34.66827002],[-58.29785489,-34.66838423],[-58.29765502,-34.66854127],[-58.2974837,-34.66861266],[-58.29722671,-34.66872687],[-58.29699829,-34.66894102],[-58.2967413,-34.66909807],[-58.29658426,-34.66919801],[-58.29641294,-34.6693265],[-58.29622734,-34.66945499],[-58.29602746,-34.66958348],[-58.29585614,-34.66965486],[-58.29568482,-34.66971197],[-58.29554206,-34.66984046],[-58.29539929,-34.66992612],[-58.29529935,-34.66996895],[-58.29515658,-34.67004034],[-58.29502809,-34.67015455],[-58.29488532,-34.67024021],[-58.29475683,-34.67029732],[-58.2946569,-34.67038298],[-58.29457124,-34.67049719],[-58.29442847,-34.6706114],[-58.2942857,-34.6706114],[-58.2941001,-34.67069707],[-58.29397161,-34.67078273],[-58.29378601,-34.67086839],[-58.29364325,-34.67095405],[-58.29345765,-34.67106826],[-58.29335771,-34.67112537],[-58.29322922,-34.67125386],[-58.29307218,-34.67138235],[-58.29290085,-34.67145374],[-58.29271526,-34.67158222],[-58.29257249,-34.67166789],[-58.29240117,-34.67173927],[-58.29222985,-34.67192487],[-58.29202997,-34.67198198],[-58.2918301,-34.67202481],[-58.29155884,-34.67219613],[-58.29128758,-34.67231034],[-58.29114481,-34.67248166],[-58.29095921,-34.67259588],[-58.29063085,-34.67278147],[-58.29038814,-34.67293852],[-58.29005978,-34.67310984],[-58.28977424,-34.67323833],[-58.28950298,-34.67339537],[-58.28920317,-34.67355242],[-58.28890336,-34.67372374],[-58.28866065,-34.67379512],[-58.28826091,-34.67390934],[-58.28791826,-34.67406638],[-58.28754707,-34.67428053],[-58.28726153,-34.67450896],[-58.28696172,-34.67469456],[-58.28669046,-34.67482305],[-58.28640493,-34.6749801],[-58.2861765,-34.67509431],[-58.28596235,-34.6752228],[-58.28567681,-34.67536557],[-58.28549121,-34.67549406],[-58.28524851,-34.67566538],[-58.28490587,-34.67582242],[-58.28462033,-34.67596519],[-58.28433479,-34.67612224],[-58.28409209,-34.67636494],[-58.28384938,-34.67656482],[-58.28367806,-34.6766362],[-58.28343536,-34.67666475],[-58.28317838,-34.67673614],[-58.2829785,-34.67686463],[-58.28283573,-34.67699312],[-58.28266072,-34.67708063],[-58.28266441,-34.67709306],[-58.28252165,-34.67717872],[-58.28233605,-34.67729293],[-58.28197913,-34.67747853],[-58.2817507,-34.67766413],[-58.28158685,-34.67778116],[-58.28155083,-34.67780689],[-58.2813795,-34.67789256],[-58.28109397,-34.6780496],[-58.28086554,-34.67810671],[-58.28058001,-34.67824947],[-58.28020881,-34.67836369],[-58.27998038,-34.67850646],[-58.27973768,-34.67860639],[-58.27963924,-34.67864155],[-58.283356,-34.68172],[-58.285017,-34.683214],[-58.28524236,-34.68340511],[-58.28553017,-34.68364919],[-58.287307,-34.685156],[-58.28908,-34.686746],[-58.290922,-34.688367],[-58.29160365,-34.68901703],[-58.29297,-34.69032],[-58.293907,-34.691167],[-58.2982,-34.694635],[-58.298344,-34.69476],[-58.29917888,-34.69548463],[-58.29998307,-34.69618262],[-58.30132,-34.697343],[-58.3016,-34.697581],[-58.301666,-34.697637],[-58.301884,-34.697822],[-58.302061,-34.697958],[-58.30226,-34.698126],[-58.302372,-34.698221],[-58.30262,-34.698431],[-58.302893,-34.698683],[-58.303196,-34.698966],[-58.303482,-34.699232],[-58.304762,-34.700453],[-58.30765917,-34.70312247],[-58.30792306,-34.70336563],[-58.30856026,-34.70395275],[-58.30856,-34.703953],[-58.308594,-34.703985],[-58.308729,-34.704109],[-58.30888349,-34.70424978],[-58.30906735,-34.70441732],[-58.3091208,-34.70446602],[-58.309619,-34.70492],[-58.309753,-34.705053],[-58.310075,-34.705361],[-58.310131,-34.705415],[-58.310193,-34.705474],[-58.310258,-34.705536],[-58.31048336,-34.70575148],[-58.3106,-34.705863],[-58.31065548,-34.70590917],[-58.31067444,-34.70592494],[-58.310737,-34.705977],[-58.31089412,-34.7061278],[-58.311085,-34.706311],[-58.31111261,-34.70633725],[-58.31118923,-34.70641074],[-58.31121662,-34.70643701],[-58.311593,-34.706798],[-58.311714,-34.706903],[-58.31235004,-34.70747715],[-58.312865,-34.707942],[-58.31288186,-34.70795557],[-58.31295484,-34.70802176],[-58.313094,-34.708155],[-58.313244,-34.708295],[-58.31433048,-34.70929485],[-58.314586,-34.70953],[-58.314708,-34.709645],[-58.315434,-34.710316],[-58.315528,-34.710399],[-58.315636,-34.710509],[-58.316541,-34.711326],[-58.316609,-34.711387],[-58.31662275,-34.71137617],[-58.316924,-34.711139],[-58.3186,-34.712842],[-58.320125,-34.714414],[-58.320667,-34.714952],[-58.32058547,-34.71500666],[-58.320579,-34.715011],[-58.321005,-34.715432],[-58.322011,-34.716408],[-58.322493,-34.716852],[-58.324988,-34.719147],[-58.32664111,-34.72066812],[-58.33199413,-34.72559376],[-58.33237065,-34.72594022],[-58.33310361,-34.72661465],[-58.333505,-34.726984],[-58.33350627,-34.72698289],[-58.33856396,-34.72259911],[-58.33979523,-34.72153191],[-58.34254666,-34.71914709],[-58.34269061,-34.71902232],[-58.345498,-34.716589],[-58.34663596,-34.7156047],[-58.34685012,-34.71541946],[-58.350793,-34.712009],[-58.35172801,-34.71119154],[-58.35886455,-34.70495223],[-58.359606,-34.704304],[-58.3603168,-34.70371947],[-58.361109,-34.703068],[-58.36328421,-34.70118565],[-58.363976,-34.700587],[-58.36460451,-34.70000822],[-58.364709,-34.699912],[-58.365909,-34.698853],[-58.36684654,-34.69806762],[-58.368084,-34.697031],[-58.37041448,-34.69501017],[-58.372276,-34.693396],[-58.37654579,-34.6896826],[-58.37814544,-34.6882914],[-58.378162,-34.688277],[-58.37963316,-34.68947739],[-58.379667,-34.689505],[-58.38005,-34.689232],[-58.382589,-34.687439],[-58.38440901,-34.68591116],[-58.384464,-34.685865],[-58.38457317,-34.68578858],[-58.384964,-34.685515],[-58.385915,-34.68479],[-58.386318,-34.684529],[-58.387667,-34.683391],[-58.38944496,-34.68195238],[-58.389527,-34.681886],[-58.39034245,-34.68120919],[-58.390921,-34.680729],[-58.39162205,-34.68009833],[-58.391937,-34.679815],[-58.397016,-34.674647],[-58.39712344,-34.6745531],[-58.397143,-34.674536],[-58.39684831,-34.67430424],[-58.39572575,-34.67342139],[-58.395607,-34.673328],[-58.39510686,-34.672791],[-58.39482,-34.672483],[-58.39482803,-34.67247683],[-58.39672297,-34.67102214],[-58.39688534,-34.67089749],[-58.39728731,-34.67058891],[-58.40052494,-34.66810348],[-58.40129295,-34.6675139],[-58.40283407,-34.66633082],[-58.403209,-34.666043],[-58.40348802,-34.66582874],[-58.40429147,-34.66521177],[-58.4055619,-34.66423621],[-58.406505,-34.663512],[-58.40635663,-34.66337679],[-58.40593015,-34.66298816],[-58.40590665,-34.66296675],[-58.40561665,-34.66270248],[-58.404995,-34.662136],[-58.40457265,-34.66171576],[-58.40417754,-34.66132262],[-58.403593,-34.660741],[-58.40349828,-34.66064677],[-58.40310913,-34.66025965],[-58.402825,-34.659977],[-58.40273457,-34.65997852],[-58.402646,-34.65998],[-58.40253898,-34.65998679],[-58.40240874,-34.65997284],[-58.40228503,-34.65991278],[-58.40196477,-34.65995995],[-58.40074072,-34.66065714],[-58.4004297,-34.66085523],[-58.40042964,-34.66085527],[-58.40017029,-34.66102046],[-58.39998843,-34.66104012],[-58.3988987,-34.66115794],[-58.39797175,-34.66169801],[-58.39762117,-34.6620601],[-58.39749639,-34.66218898],[-58.39646348,-34.66227558],[-58.39597861,-34.66225085],[-58.39553554,-34.66222826],[-58.39381338,-34.66260365],[-58.39375557,-34.66260701],[-58.39359262,-34.66261647],[-58.39297225,-34.66265251],[-58.39273047,-34.66266655],[-58.39176831,-34.662405],[-58.3908889,-34.6618453],[-58.39048484,-34.66129541],[-58.39010032,-34.66120404],[-58.38969093,-34.66110676],[-58.38874618,-34.66088227],[-58.38874487,-34.66088196],[-58.38842088,-34.66079399],[-58.3879892,-34.66067678],[-58.38746923,-34.66037511],[-58.3874692,-34.66037509],[-58.38743066,-34.66035273],[-58.38730344,-34.66020845],[-58.38723319,-34.66012878],[-58.38682457,-34.65966536],[-58.38618284,-34.65889942],[-58.38573688,-34.6585668],[-58.38524732,-34.65820165],[-58.38455473,-34.65798618],[-58.38381964,-34.65784473],[-58.38239197,-34.65784473],[-58.38126772,-34.65784473],[-58.38126769,-34.65784473],[-58.38072634,-34.65784473],[-58.38046469,-34.65782154],[-58.37875113,-34.65766968],[-58.37779504,-34.65746481],[-58.37708551,-34.65731277],[-58.37650637,-34.65726241],[-58.37650329,-34.65726214],[-58.37627723,-34.65724248],[-58.37571732,-34.65719379],[-58.3740517,-34.65719379],[-58.37358493,-34.65681454],[-58.37309991,-34.65642047],[-58.37214813,-34.6554092],[-58.37107813,-34.65482206],[-58.37102827,-34.65479469],[-58.37073261,-34.65463246],[-58.36986116,-34.65414832],[-58.36966185,-34.65403759],[-58.36964993,-34.65401673],[-58.36952678,-34.65380122],[-58.36918596,-34.65320478],[-58.36918596,-34.65189608],[-58.36840048,-34.65106668],[-58.3683575,-34.65104578],[-58.36782507,-34.65078688],[-58.36692547,-34.65034943],[-58.36668856,-34.65024008],[-58.36537882,-34.64963559],[-58.36500812,-34.64938613],[-58.36443152,-34.6489981],[-58.36439897,-34.64897619],[-58.36405796,-34.64874671],[-58.36314747,-34.64865566],[-58.36286823,-34.64862773],[-58.36279043,-34.6486018],[-58.36161901,-34.64821133],[-58.36042928,-34.64708108],[-58.35926441,-34.6463045],[-58.35900161,-34.6461293],[-58.35807784,-34.64570294],[-58.35750711,-34.64543953],[-58.35745496,-34.64541546],[-58.35740324,-34.64536005],[-58.35730698,-34.64525691],[-58.35662215,-34.64452316],[-58.35681276,-34.64333002],[-58.35689781,-34.64314573],[-58.35703527,-34.64284792],[-58.35710115,-34.64270518],[-58.3575266,-34.64178337],[-58.35761073,-34.64068961],[-58.35762452,-34.64051036],[-58.35764557,-34.64023672],[-58.35722817,-34.63965235],[-58.35711515,-34.63949413],[-58.35705071,-34.63940391],[-58.35587154,-34.63816039],[-58.35425532,-34.63718798],[-58.35205384,-34.6354778],[-58.35110273,-34.63495469],[-58.3503107,-34.63451907],[-58.350227,-34.63447303],[-58.35012205,-34.63441531],[-58.34967438,-34.63416909],[-58.34797289,-34.63345267],[-58.34741463,-34.63321762],[-58.3453452,-34.63234628],[-58.34532986,-34.63233982],[-58.3451534,-34.63226552],[-58.34310134,-34.63023847],[-58.3418874,-34.63109672],[-58.33972673,-34.63262424],[-58.33838053,-34.63357597]]]]}}