{"type":"Feature","properties":{"slug":"belgrano","name":"Belgrano","region":"caba","sort":7},"geometry":{"type":"Polygon","coordinates":[[[-58.45167104969051,-34.53564508276152],[-58.45167656916144,-34.535639830972734],[-58.452021306279356,-34.5356585867995],[-58.45202523685556,-34.535662852051715],[-58.452026247470954,-34.5356623245219],[-58.45279228812979,-34.535711575869904],[-58.452864134349625,-34.53571884937576],[-58.45293474788809,-34.535732011790294],[-58.45297919934124,-34.53574425699408],[-58.45300342510745,-34.53575093054585],[-58.453069481981586,-34.53577541899188],[-58.453132261720896,-34.535805232789805],[-58.453191140217385,-34.535840074420356],[-58.45321345046669,-34.53585628675911],[-58.45324552931171,-34.535879597690794],[-58.453246615199745,-34.53588056141102],[-58.45329488877462,-34.53592340953842],[-58.453295986656805,-34.53592428131309],[-58.45407181828169,-34.53653976624227],[-58.4541744831319,-34.53664695847085],[-58.45428162816952,-34.536758828069985],[-58.45445309001213,-34.536965146820776],[-58.45478035047857,-34.53730940888419],[-58.45480322347376,-34.53734081546093],[-58.45482037092798,-34.53737462755736],[-58.454831432352115,-34.53741013572392],[-58.45483302396357,-34.5374223718758],[-58.45483617470599,-34.537446594462054],[-58.454836101652006,-34.53744819292834],[-58.454834500022756,-34.53748323754863],[-58.454826442139925,-34.537519296064424],[-58.454682792235666,-34.53795731874727],[-58.4546295261159,-34.53811973945052],[-58.454233174814924,-34.53867661785094],[-58.45408617314288,-34.53879108866282],[-58.452901330372875,-34.539374893106775],[-58.45278913137589,-34.539430175507206],[-58.452414432818934,-34.53956728286368],[-58.45235755763741,-34.5395810282165],[-58.45232401667007,-34.53958718018057],[-58.45228971377618,-34.5395887564006],[-58.45225555419171,-34.53958571549187],[-58.45222244095776,-34.53957813866528],[-58.45217041798593,-34.53956419510006],[-58.45215382677161,-34.53954115138529],[-58.45213102895696,-34.539509487232536],[-58.45197363345519,-34.53929088190466],[-58.45196193428165,-34.53927463252795],[-58.451957777088786,-34.53926885846074],[-58.451929680224694,-34.53922983467979],[-58.45191080051476,-34.5392036120799],[-58.45191167423538,-34.539194952108616],[-58.45191236391052,-34.53915393523484],[-58.45192274559991,-34.539110051810376],[-58.45193312727852,-34.53906616748329],[-58.45194466143886,-34.53902228416361],[-58.45193198381143,-34.538991754201184],[-58.451874319308246,-34.53894882805668],[-58.45183359148586,-34.53890581153009],[-58.45182823938642,-34.538900159051416],[-58.45178382827017,-34.53885992037395],[-58.45167877537816,-34.53874051914081],[-58.451627162343385,-34.538681856532214],[-58.451522774895295,-34.53857706941873],[-58.45141553559419,-34.538469419165175],[-58.45137988403293,-34.53842899098806],[-58.45135683080382,-34.53840036828062],[-58.451333776291015,-34.538388440082905],[-58.451310237584536,-34.53838085767841],[-58.45129523630593,-34.538376025389304],[-58.451280873404116,-34.53834867093416],[-58.45127140168889,-34.53831989449994],[-58.451267017144566,-34.538290291953324],[-58.45128046825242,-34.53824208110615],[-58.45119607259723,-34.538150164598484],[-58.45119491811977,-34.5381489078883],[-58.45110340233864,-34.538121193279395],[-58.45110336966108,-34.53812118336039],[-58.451076724054005,-34.538115222232754],[-58.45106399722155,-34.53811140700072],[-58.451012077987656,-34.53809584307644],[-58.450982104055974,-34.53809345486846],[-58.45093776364659,-34.538081635322634],[-58.45093772334407,-34.53808162450136],[-58.45083570292777,-34.538021888871974],[-58.45067893088139,-34.5379283789767],[-58.45064319483475,-34.53791024928902],[-58.45046336665105,-34.537812920963056],[-58.4502420423846,-34.53767933505968],[-58.45020515675411,-34.53764403194358],[-58.449952121098185,-34.53743326422083],[-58.44988036768503,-34.53736273283993],[-58.449880080157484,-34.53736245066019],[-58.44988460480686,-34.53722829196106],[-58.449880133378215,-34.53703078054125],[-58.44988015669943,-34.53688544178202],[-58.44991003973315,-34.53673148860791],[-58.449938748533796,-34.536583592015205],[-58.44995724935719,-34.53649183908444],[-58.45003224195555,-34.536120734024166],[-58.44967458770848,-34.53591751096809],[-58.44966294446757,-34.535910894960274],[-58.44949756038568,-34.53580467687002],[-58.449457276409824,-34.535781773232316],[-58.449159355822786,-34.53561238345381],[-58.449125496392305,-34.535590317880086],[-58.449108269473676,-34.5355816031998],[-58.44909955988297,-34.53557719722747],[-58.44906714077152,-34.53555990218353],[-58.449046204465645,-34.5355569376359],[-58.44902764187895,-34.53555277806325],[-58.44902347878894,-34.535552393182655],[-58.44900532423114,-34.535550714779255],[-58.4489829014906,-34.535551713643684],[-58.44896563387879,-34.5355548918705],[-58.44896098147073,-34.53555574768477],[-58.44894776187565,-34.53555717580322],[-58.448934940677645,-34.53556020130466],[-58.44892279891824,-34.53556475931932],[-58.44891160239572,-34.53557074801685],[-58.448901596217134,-34.53557803852159],[-58.448892997174255,-34.53558647040449],[-58.44886466816663,-34.53561413741808],[-58.44885830121761,-34.53562146620945],[-58.44877987892303,-34.535711733528494],[-58.44880149165776,-34.535727477804194],[-58.44879082030144,-34.53577016835859],[-58.448800336686844,-34.535817431570734],[-58.448804902458825,-34.53582632203551],[-58.448810983519714,-34.53583456725453],[-58.44881845136618,-34.53584199143309],[-58.448827144813535,-34.53584843680126],[-58.4488334383694,-34.53585188130534],[-58.44883688088806,-34.53585376541799],[-58.44884745155836,-34.53585786367801],[-58.44929943929458,-34.536131085386565],[-58.44932781646191,-34.53615438163911],[-58.44935041737272,-34.53617674244033],[-58.44936815420814,-34.5362019295732],[-58.449380521660835,-34.53622922544237],[-58.44938933668689,-34.53626489611002],[-58.44939182726421,-34.53630124663783],[-58.449395178824744,-34.53632177623105],[-58.44938499799092,-34.53635719684036],[-58.44936873597213,-34.53639102753051],[-58.44934673600342,-34.536422557108516],[-58.449202919831706,-34.53660869890657],[-58.44889491073407,-34.53699211045603],[-58.44887591277233,-34.53701575908137],[-58.448827273474585,-34.537068875607524],[-58.44881507441877,-34.53708219732397],[-58.448800887783676,-34.537099642853875],[-58.44876124884887,-34.537148389378224],[-58.448726657132994,-34.537187499284016],[-58.448699271632336,-34.537223176487664],[-58.44869408143196,-34.537234147193814],[-58.44870445183454,-34.53726324575153],[-58.44871062369143,-34.53728231447632],[-58.44871366988345,-34.53729172488698],[-58.44871424251567,-34.5373123794626],[-58.44870753002565,-34.53733272938532],[-58.44869436367218,-34.53735200132489],[-58.448677709742505,-34.53736932845706],[-58.4486579778846,-34.537384279945094],[-58.448613781189344,-34.53739549385829],[-58.448567984279904,-34.53740071123808],[-58.44854489464877,-34.53740025322745],[-58.448522219535114,-34.53739980412992],[-58.44852176907131,-34.53739979520811],[-58.448521014212865,-34.53739967883208],[-58.448476327254035,-34.537392771152646],[-58.448432828704526,-34.53737981950127],[-58.44839239534153,-34.53736127302141],[-58.44837225063751,-34.53734815204325],[-58.44835661847498,-34.53733797024227],[-58.448356069536416,-34.53733761230665],[-58.44799259455685,-34.537006884230486],[-58.44799130287842,-34.53700570860143],[-58.44798033602904,-34.536999294439916],[-58.447972069538594,-34.53699278867033],[-58.44797060465986,-34.53699163645656],[-58.44796791729117,-34.536988803541576],[-58.447962312438044,-34.53698289513206],[-58.4479556347051,-34.536973252578],[-58.44794994874161,-34.53696078866645],[-58.44794695451948,-34.53694769859791],[-58.447946743465025,-34.53693437721121],[-58.44794932203898,-34.53692122564437],[-58.44795461173829,-34.53690864322165],[-58.447964726739954,-34.53688542450852],[-58.44797049022732,-34.536861208264696],[-58.44797177247738,-34.53683654975647],[-58.44796854289068,-34.53681201327654],[-58.44796087435003,-34.536788161327195],[-58.447948944311904,-34.53676554019763],[-58.447933026094034,-34.53674466824437],[-58.447901093789845,-34.53671173242376],[-58.44786694969501,-34.5366765152658],[-58.447835306881586,-34.53664845960328],[-58.44779580948337,-34.536613440275374],[-58.447794905528504,-34.53661263878765],[-58.4477172943859,-34.536553395817634],[-58.44763455191621,-34.53649911632533],[-58.44754713991159,-34.53645010504393],[-58.44745554848741,-34.53640663516102],[-58.447360287367474,-34.53636895102193],[-58.447142079770884,-34.53629078171691],[-58.44713223665586,-34.5362872558152],[-58.44678062004653,-34.53616129493808],[-58.44671816702263,-34.53613640064144],[-58.446717811947046,-34.536136259068414],[-58.446717767290174,-34.53613624193514],[-58.44670570392336,-34.53613445726408],[-58.446611006945226,-34.53610053338986],[-58.446539270281356,-34.53606402728837],[-58.446463487977326,-34.53603363049299],[-58.446414966318386,-34.53601891283002],[-58.44638441809379,-34.53600964688377],[-58.446302849200556,-34.53599231544376],[-58.44621959710987,-34.535981809356976],[-58.446142000480926,-34.53597851079225],[-58.44613549398482,-34.53597823420454],[-58.44613549398482,-34.535978234204535],[-58.44594354827871,-34.53598092940048],[-58.445901633755916,-34.53598278940061],[-58.44575184969564,-34.535989434059545],[-58.445560656356136,-34.53600373560029],[-58.44537022202538,-34.536023816033634],[-58.445180802649794,-34.53604964745673],[-58.44469083939848,-34.53612410597932],[-58.44448153601551,-34.536188404599734],[-58.44418644576077,-34.536279056349294],[-58.44418644400905,-34.53627905653832],[-58.44413653491717,-34.536284442420246],[-58.44401486748701,-34.536297571931826],[-58.44400839114611,-34.53629827081045],[-58.44366476906802,-34.53633535144399],[-58.44366433994528,-34.536335397750456],[-58.44364618871658,-34.53631475654609],[-58.443886066960346,-34.53617029717368],[-58.44386510849986,-34.53614646256449],[-58.44386368717487,-34.53614484618917],[-58.443863687174854,-34.53614484618917],[-58.443863626012956,-34.53614488302217],[-58.44362330018373,-34.53628961190343],[-58.443623116173264,-34.536289722717754],[-58.443623116087146,-34.536289722769595],[-58.44362311499211,-34.536289721676845],[-58.443618072829594,-34.536284690163725],[-58.44361651879635,-34.53628313945028],[-58.44345581883547,-34.53639342167136],[-58.44329944584632,-34.5364822385891],[-58.443179104471845,-34.53654542272049],[-58.443113686288775,-34.53657400264085],[-58.44305111118861,-34.53660665206114],[-58.44299174738939,-34.53664317904186],[-58.44281706565485,-34.536759539149216],[-58.44272803092993,-34.53686134812577],[-58.442723552711065,-34.53686646840576],[-58.44266023651946,-34.53693886884155],[-58.442288622886885,-34.53730122794152],[-58.44219549376326,-34.53726373201038],[-58.44219341561767,-34.53726289529989],[-58.44219341552695,-34.53726289526333],[-58.442320633545975,-34.5370465050605],[-58.44232098329775,-34.53704591015202],[-58.442314590064385,-34.53704333623105],[-58.442289587779264,-34.5370332702859],[-58.442289587779264,-34.53703327028592],[-58.442289587779236,-34.5370332702859],[-58.44216136609122,-34.53725136851997],[-58.442158630678406,-34.53725026728796],[-58.442151760624625,-34.537247501517335],[-58.44176501110901,-34.53790533038178],[-58.44176501012537,-34.537905330213874],[-58.44156430050652,-34.53787107106671],[-58.441562299555464,-34.53787072996937],[-58.44156230222173,-34.53787071927208],[-58.441621319169805,-34.53763393704756],[-58.44162159064978,-34.53763284741261],[-58.44162159068662,-34.53763284726477],[-58.441596857616396,-34.53762862567137],[-58.44158426112903,-34.537626475622886],[-58.441584261129016,-34.537626475622886],[-58.44152509529708,-34.53786385262873],[-58.441512930563334,-34.53786177626472],[-58.44137193825758,-34.538427438169414],[-58.441370426890515,-34.53843350363148],[-58.44133948962631,-34.538557625207],[-58.44132724413364,-34.53857648365801],[-58.44112315316272,-34.53858295870786],[-58.44112149304502,-34.53858301159086],[-58.44112149303842,-34.53858301144877],[-58.44111027692858,-34.53834091925544],[-58.44111020818666,-34.53833943550271],[-58.44111020818664,-34.53833943550271],[-58.4410779699716,-34.53834045817414],[-58.4410779699716,-34.53834045817415],[-58.44107822274234,-34.53834591410145],[-58.44108895905069,-34.53857765117415],[-58.44107261822126,-34.53857817012989],[-58.441087778330804,-34.538905411485274],[-58.441095663327424,-34.539075600492005],[-58.441098608290304,-34.5391391825993],[-58.441098778340525,-34.53914284424513],[-58.44109446135371,-34.53914297506919],[-58.4408462525591,-34.539150511624456],[-58.440836795055546,-34.53915079834326],[-58.44083679505553,-34.53915079834328],[-58.44087782646877,-34.54005192274547],[-58.440888304029635,-34.540208860266794],[-58.440784519721525,-34.540304720119714],[-58.440738643438024,-34.54028149168228],[-58.440689519598685,-34.54026337374207],[-58.44063797491412,-34.540250672033906],[-58.440601994054425,-34.540247896154284],[-58.440565938911064,-34.54024990594935],[-58.4405307332425,-34.540256650209656],[-58.44050956471264,-34.540263196962556],[-58.440489294407286,-34.540271461106364],[-58.44048274995385,-34.54027459416056],[-58.44045052338782,-34.54029002604831],[-58.44042482269977,-34.54030250696246],[-58.440335705449385,-34.54023223988756],[-58.440334053304305,-34.54023093791665],[-58.44033405329583,-34.540230937909946],[-58.44032121710047,-34.54020947962583],[-58.44031430406713,-34.53997227026097],[-58.44031410658324,-34.53996549416394],[-58.4402953456314,-34.539321767956785],[-58.44029534467562,-34.539321735161295],[-58.44030976130803,-34.53929967624165],[-58.44031460472109,-34.539290610555284],[-58.44031765199432,-34.53928102350332],[-58.44031882463068,-34.53927115845757],[-58.440318095329786,-34.5392612633066],[-58.440315480362955,-34.53925158955293],[-58.44031104720144,-34.53924238059557],[-58.440304907981286,-34.5392338690248],[-58.44030490798127,-34.53923386902478],[-58.440297920832826,-34.539226965447796],[-58.44029721623733,-34.539226269409944],[-58.44028816690426,-34.53921977379241],[-58.4402785713905,-34.53921485918211],[-58.44026814436064,-34.539211287547204],[-58.44025715920719,-34.539209149983634],[-58.44024590240387,-34.539208503335466],[-58.44023466479241,-34.5392093647849],[-58.44022374267244,-34.53921171095058],[-58.44021341819285,-34.53921548058864],[-58.44020396153023,-34.53922057639573],[-58.44019561999574,-34.53922686500693],[-58.44018860931878,-34.53923418330423],[-58.44018311255776,-34.53924233841617],[-58.44017927356068,-34.53925112033661],[-58.44017719260881,-34.539260298318275],[-58.44017686520563,-34.53927037806341],[-58.44017842778763,-34.539280377939],[-58.44018184338554,-34.53929005635431],[-58.440187029275954,-34.53929918162561],[-58.44019386024959,-34.53930753107545],[-58.44020217078581,-34.53931490455442],[-58.44020259989952,-34.53931518317795],[-58.44021176158915,-34.539321123541164],[-58.44021176158921,-34.53932112355004],[-58.44021176323589,-34.53932143453706],[-58.44021354438901,-34.53965781246221],[-58.4402135444398,-34.539657822056085],[-58.440214254671375,-34.53979200296467],[-58.440214499676,-34.53983841889395],[-58.44021450104488,-34.53983867822916],[-58.440148917360816,-34.539857951938735],[-58.43952889780123,-34.540040157239325],[-58.439279015544834,-34.54012605171202],[-58.43923700376901,-34.54013637384451],[-58.439193550244795,-34.540141074351894],[-58.439149744341904,-34.54014003536051],[-58.439106686281825,-34.54013328413096],[-58.439091390276985,-34.540128721952804],[-58.43906545881577,-34.54012098764364],[-58.43905317153272,-34.540115810424105],[-58.43904293102069,-34.5401114956056],[-58.439021544238514,-34.54010034064934],[-58.43899278250776,-34.540089921592404],[-58.438882122292895,-34.54005597775111],[-58.438847459270086,-34.54004718852627],[-58.438769284131084,-34.54002736624002],[-58.43865464052462,-34.54000418087718],[-58.438538572693204,-34.53998650015944],[-58.43851835612137,-34.539984408095805],[-58.438421468397394,-34.53997438185333],[-58.43828295665138,-34.539958864260626],[-58.43819908473052,-34.53994946765607],[-58.437933923513626,-34.53994941286518],[-58.43792093379953,-34.53995034484402],[-58.43767006571899,-34.53996834371387],[-58.43765885792967,-34.53996914781968],[-58.43756269089707,-34.53997604730587],[-58.43756268871568,-34.53997604763827],[-58.437405981890635,-34.53999992541195],[-58.43740215276143,-34.54000050886235],[-58.43743825608926,-34.539965873603556],[-58.437482800839426,-34.53992313928584],[-58.43748280306328,-34.53992313715239],[-58.43748806017025,-34.53992304721911],[-58.43754279355826,-34.53992211497712],[-58.437572519196095,-34.53992160832878],[-58.43757252165417,-34.539921605749534],[-58.43762566811139,-34.53986583984028],[-58.43763331294031,-34.53985781756133],[-58.43763861803387,-34.53985225093003],[-58.43763881830286,-34.539852040787906],[-58.43756043932938,-34.5398024158173],[-58.43743624836433,-34.53992392957522],[-58.43734983434896,-34.540008480832235],[-58.43723756640569,-34.5400255868243],[-58.43700467102437,-34.54007323794216],[-58.436980890300546,-34.540081002351315],[-58.43696789812435,-34.540085244295824],[-58.436794276380326,-34.540141932008105],[-58.436656952476014,-34.540183124581],[-58.436522693928886,-34.540230737665546],[-58.43646278384131,-34.54025542373318],[-58.43645411381703,-34.54025899600283],[-58.43639193976266,-34.54028461632217],[-58.43626511593947,-34.540344584877104],[-58.43626507998808,-34.540344595686356],[-58.43622659290374,-34.54036469899442],[-58.4361728024731,-34.540392798193345],[-58.43614782184614,-34.54041146656271],[-58.43602385687311,-34.54050410710838],[-58.43590730549292,-34.54059734353963],[-58.435888548156896,-34.54061234862643],[-58.4357576126659,-34.540724211127],[-58.43563119096438,-34.540839575666844],[-58.435509418175236,-34.54095831518873],[-58.43541938515764,-34.54105407443973],[-58.43533550436236,-34.54115358588709],[-58.43525800465213,-34.54125658006791],[-58.4351870974679,-34.54136277579635],[-58.435122973558876,-34.541471885571205],[-58.43507982775611,-34.541556209901884],[-58.43504030027203,-34.54164172944986],[-58.43501575689378,-34.541697651259746],[-58.4349729552483,-34.541813695187464],[-58.434944154182155,-34.54190938533122],[-58.43450505900109,-34.54191227082503],[-58.434394162683816,-34.54191361209598],[-58.4343924927805,-34.54191363243268],[-58.434392492702834,-34.54191363243362],[-58.43439043100807,-34.54186271279915],[-58.434390371333244,-34.54186123895273],[-58.43420302443965,-34.54186596482963],[-58.43420585115423,-34.54202606146862],[-58.434205851154246,-34.542026061468626],[-58.43420585115454,-34.542026061468626],[-58.43420755490238,-34.54202605556454],[-58.43439089084736,-34.542025389678436],[-58.434396083386375,-34.54201394273284],[-58.434920928280626,-34.5420020722926],[-58.43492092826191,-34.542002072372355],[-58.43492058108414,-34.542003550513755],[-58.43490954819665,-34.542050524026074],[-58.434909547715336,-34.54205052607527],[-58.43488919681257,-34.54213279044936],[-58.43486174158706,-34.54221362800216],[-58.43482732268879,-34.542292620497726],[-58.43478612107331,-34.54236935782135],[-58.4347383492863,-34.542443440682035],[-58.43468425473056,-34.54251448512057],[-58.434624119666594,-34.54258212160814],[-58.434573340797805,-34.54263137107446],[-58.434567455404704,-34.542637445350266],[-58.43455825576388,-34.54264600135558],[-58.434472581825894,-34.54272226385637],[-58.434381489687674,-34.54279409988841],[-58.43428531387597,-34.54286124449853],[-58.43418440525512,-34.542923452569305],[-58.43407913429594,-34.54298049611579],[-58.434079123202515,-34.54298050060467],[-58.43369993749311,-34.54313393438492],[-58.43353718799186,-34.543199788840035],[-58.43339371158569,-34.54326136208092],[-58.43325390959712,-34.54332847354665],[-58.43311809470994,-34.54340097459083],[-58.43298656981215,-34.543478703044215],[-58.432746646389624,-34.54362596860078],[-58.43270465580868,-34.54365174171351],[-58.43261476120617,-34.543706919175705],[-58.43223988526135,-34.54393167369439],[-58.43214274683538,-34.54399255411906],[-58.43204969185843,-34.54405765510838],[-58.431960988382755,-34.544126791045606],[-58.43187689030702,-34.54419976188775],[-58.43179764064242,-34.54427635857496],[-58.43172346715622,-34.54435636032491],[-58.43165458346031,-34.54443953643587],[-58.43158807432255,-34.54452026844338],[-58.43151689047071,-34.544598222790384],[-58.43144120191312,-34.54467321562128],[-58.43138777290132,-34.5447276174342],[-58.431339457278604,-34.54478520080904],[-58.431296531880584,-34.54484563680223],[-58.43125923869092,-34.544908581136305],[-58.43123707518017,-34.54494219178829],[-58.431170499797425,-34.54504315223084],[-58.431053686376636,-34.545247042170416],[-58.43099318423307,-34.54538644684114],[-58.43096233938964,-34.54545045106417],[-58.430951121584854,-34.54547372753721],[-58.430946727788175,-34.54548284524469],[-58.43090633083983,-34.54558109497209],[-58.430831535363936,-34.54578480922415],[-58.430823694629886,-34.54580943112217],[-58.43081971066689,-34.54581457365155],[-58.43080271108962,-34.5458434308608],[-58.4307962940499,-34.54585597007994],[-58.43077268776256,-34.54589341207936],[-58.43073860262997,-34.5459618446007],[-58.43071959823783,-34.54600112100404],[-58.43070289351372,-34.54603564464716],[-58.43068194847607,-34.546068488145025],[-58.430637365698594,-34.54613997606929],[-58.430605522012705,-34.54619263170526],[-58.43057736668904,-34.54623808035824],[-58.430545241818386,-34.54628814347038],[-58.430513604720616,-34.546332776093806],[-58.43049998844495,-34.54637353963206],[-58.430454472304255,-34.54641636629693],[-58.43042870458812,-34.54645384894492],[-58.43039943028541,-34.54649318259732],[-58.43037052943704,-34.546526271510224],[-58.43034063920466,-34.546561453027444],[-58.43031167770179,-34.54659628557708],[-58.43028584822116,-34.546627351153624],[-58.43026038786833,-34.54665682470315],[-58.43024021230059,-34.546680180432865],[-58.430204946329695,-34.546719021204666],[-58.43014718948721,-34.5467762120205],[-58.430125536521324,-34.546796106269554],[-58.43009655474058,-34.54682511362259],[-58.430075563640976,-34.54684795195282],[-58.43004895936123,-34.54687689740354],[-58.43003680533183,-34.546885765150726],[-58.43001615928352,-34.546900828784715],[-58.42999380037803,-34.54691714213219],[-58.42997757650827,-34.54693055762627],[-58.429750881444235,-34.546778371840134],[-58.429533314177036,-34.54662043541108],[-58.429495996518405,-34.54665800086476],[-58.42993052725654,-34.546969462546755],[-58.42991424495424,-34.5469850804255],[-58.429898688099094,-34.5470000024525],[-58.429880556474544,-34.547020156698736],[-58.429868662180894,-34.547035057867014],[-58.429854597390225,-34.54705267822501],[-58.42984594797514,-34.547063514200495],[-58.42983641734124,-34.54707545416173],[-58.42982177392755,-34.54710235607832],[-58.429807202443186,-34.54712912583199],[-58.42979661720732,-34.54715335545216],[-58.42978186667283,-34.54718867489654],[-58.42977144490655,-34.547216360576876],[-58.42975954872197,-34.54725017791817],[-58.42975210891194,-34.547274255568915],[-58.42974388110422,-34.54730088342036],[-58.429736251042115,-34.54734183013948],[-58.42973263610229,-34.54737369177895],[-58.429730579460355,-34.54740189746817],[-58.42972923640717,-34.54742031667825],[-58.429728679606136,-34.54744564548156],[-58.42972803568556,-34.54747493732256],[-58.42972758436577,-34.547495467771846],[-58.42972889790869,-34.54751386678409],[-58.429730013142795,-34.54752948804592],[-58.42973112425194,-34.54754505152249],[-58.42973242274401,-34.54756323969351],[-58.4297367075873,-34.5475898980931],[-58.42974271987973,-34.54762730388812],[-58.42974536534258,-34.54764376276444],[-58.42975661986216,-34.5476734805917],[-58.429766090413814,-34.54769848779184],[-58.42977765193952,-34.54772511622025],[-58.42979147186342,-34.547753139052205],[-58.42979867240776,-34.5477677396776],[-58.42980786051522,-34.54778637049919],[-58.42981828374901,-34.54780750578844],[-58.42984055074257,-34.547840168726985],[-58.42985204550212,-34.54785703011262],[-58.42986196095708,-34.54787157484805],[-58.429875015909396,-34.5478907248255],[-58.429896168641555,-34.54791199218345],[-58.42992041007803,-34.547936364965295],[-58.42994758373688,-34.54795939992405],[-58.42997265771055,-34.547980654974694],[-58.42998850570184,-34.54799408920954],[-58.430013998025395,-34.548016475555954],[-58.43004200882397,-34.54804107350716],[-58.43000306941898,-34.54807729667336],[-58.42998272870909,-34.54809815249509],[-58.429962505964326,-34.548118887350626],[-58.42992714880214,-34.54815849665055],[-58.42989693170382,-34.54819260225791],[-58.42986028164949,-34.548234270690145],[-58.42982718460911,-34.54827773338961],[-58.42978869956073,-34.54833453354012],[-58.42976424586978,-34.5483756305507],[-58.42974889939304,-34.548401005734995],[-58.42973045222221,-34.548431507850424],[-58.429707816504454,-34.54846737687296],[-58.42969150224942,-34.54849322875422],[-58.429671285000154,-34.54853804550424],[-58.42966491032981,-34.548552176595315],[-58.42965090299828,-34.54858495961346],[-58.42963204866005,-34.54863059155689],[-58.42961846048695,-34.54863478875028],[-58.429592506803395,-34.54864350453418],[-58.42957632509333,-34.54864219829786],[-58.429534120820286,-34.54863879143159],[-58.429517605175946,-34.548633797266426],[-58.42948303767097,-34.54862334439053],[-58.429444812659014,-34.548608646894586],[-58.42941492910109,-34.54859715667115],[-58.42938249440251,-34.548589766711686],[-58.4293297916083,-34.548568951189765],[-58.42927875832483,-34.54854734327726],[-58.42921749386315,-34.54851950230456],[-58.42917137305051,-34.54849854316699],[-58.42908670405418,-34.54846006612372],[-58.429044032413024,-34.54844067435483],[-58.428996330847994,-34.54841899675091],[-58.428938726746516,-34.54839509874068],[-58.42888206598116,-34.54837368634339],[-58.42882967043812,-34.54835388576252],[-58.42876573046935,-34.5483297224327],[-58.428728613836775,-34.54831569579419],[-58.42867798131062,-34.54829656137783],[-58.42864449485483,-34.54828390657539],[-58.428603964535526,-34.54826858982253],[-58.4285590308905,-34.54825101613346],[-58.428510733244316,-34.54823131579468],[-58.42845108731201,-34.54820698651446],[-58.42840091958445,-34.548186523313326],[-58.428349802648114,-34.54816567290248],[-58.42830580587482,-34.548150469823575],[-58.42824935282458,-34.54813538386466],[-58.428208546725266,-34.54812447922364],[-58.428166672234106,-34.548113289058406],[-58.428127244739905,-34.54810275279089],[-58.42807022934368,-34.548088497614174],[-58.42799941892379,-34.54807296638941],[-58.42793680405238,-34.548061421486295],[-58.42787639560314,-34.54805340609937],[-58.427824958714915,-34.54804658109289],[-58.427758841974764,-34.5480384216547],[-58.42770015325089,-34.54803320139912],[-58.427640425601176,-34.54802788870333],[-58.42758830700786,-34.54802514974882],[-58.427550553665256,-34.548023165707946],[-58.427481053608105,-34.54802314534017],[-58.42743032609168,-34.548023130448904],[-58.427383104326,-34.54802311656784],[-58.42730849623883,-34.54801923618831],[-58.42726201371835,-34.54801681860115],[-58.427240267869855,-34.54801896512598],[-58.42720537467139,-34.54802240941264],[-58.42715132213691,-34.548027744885594],[-58.42706028990311,-34.548040483749205],[-58.427002429097115,-34.54805400774876],[-58.42696011494929,-34.548066093433356],[-58.42692234219967,-34.54807688199726],[-58.426868268625014,-34.54809525991144],[-58.426810169051684,-34.5481158422888],[-58.426746800611895,-34.54813829117365],[-58.426701011400446,-34.54815903327458],[-58.42665339026124,-34.5481828117766],[-58.4266032708247,-34.548208177317996],[-58.426555225840715,-34.54823265688841],[-58.42653425691922,-34.54824449257506],[-58.426507502474635,-34.54825959382914],[-58.42646906954714,-34.54828128685545],[-58.42642359582531,-34.548308364565194],[-58.42634228938562,-34.548356558655826],[-58.4262948376023,-34.548383221247555],[-58.426242172314545,-34.548414570406635],[-58.42618475736227,-34.54845040600625],[-58.42611962832676,-34.54849083640308],[-58.426053654191314,-34.548530383979646],[-58.42599407443963,-34.54856282240569],[-58.42596261828468,-34.54858570971467],[-58.425946756671955,-34.54859725052076],[-58.425942964084854,-34.548616036222796],[-58.42594678259401,-34.54863384132218],[-58.42594747737877,-34.548637080991945],[-58.42577755237648,-34.54873254202404],[-58.42577215583262,-34.54872633354578],[-58.425755251934575,-34.54870688637248],[-58.42573179598438,-34.548679901339355],[-58.42570923461501,-34.548653945461055],[-58.425701146249146,-34.548638967711625],[-58.425695022940516,-34.54861301361659],[-58.42569465938054,-34.54858858359851],[-58.42570124653233,-34.548571528152245],[-58.42570823541796,-34.54855587511816],[-58.42571921588152,-34.54854017426638],[-58.425734295724574,-34.548527023129814],[-58.42577433679762,-34.548502779059675],[-58.425817647197384,-34.548478476409315],[-58.42585717775846,-34.548456294704],[-58.42589509254574,-34.54843501963148],[-58.42591402076695,-34.54842439845619],[-58.42593032327415,-34.54841525064089],[-58.42593641032651,-34.54840406923954],[-58.42592965548914,-34.54839735721389],[-58.4259228979028,-34.54839679598231],[-58.425913435681615,-34.54839958890156],[-58.425883279726854,-34.54841683013437],[-58.42585129726964,-34.54843511562774],[-58.425815204350364,-34.54845575119682],[-58.42576775693635,-34.54848287849097],[-58.42571402821785,-34.54851359697607],[-58.42569847863342,-34.54852813043173],[-58.42567886728883,-34.548558319203316],[-58.425673450942284,-34.548580684062024],[-58.42567242379951,-34.548610598976104],[-58.42567511561595,-34.54863576214897],[-58.42568220331252,-34.548653657554645],[-58.425694696670085,-34.548672952532755],[-58.42573082935103,-34.5487216108521],[-58.42567674004626,-34.5487469722149],[-58.42564025484855,-34.54876407935159],[-58.42562362534557,-34.54877418060341],[-58.42557400959328,-34.5488043186503],[-58.425530745082774,-34.5488356184127],[-58.42549694055243,-34.54886915774141],[-58.42549871598656,-34.54887188312595],[-58.42549697168673,-34.548872520843894],[-58.425408751080404,-34.548908269454294],[-58.42533959077148,-34.548945121869586],[-58.425274723013736,-34.548971933651885],[-58.425189971789145,-34.54898442809234],[-58.42519690279233,-34.54895580985218],[-58.42519546288732,-34.548934155684876],[-58.42518775530677,-34.54892388495166],[-58.42517168647739,-34.548917742372375],[-58.42514947120681,-34.54892020502903],[-58.425135280360784,-34.548930090923896],[-58.42512834884811,-34.548941456854834],[-58.42512897376835,-34.54894560618246],[-58.42512639233085,-34.54895015839807],[-58.42512998667525,-34.548971028528214],[-58.42521195332394,-34.5491339252828],[-58.42514134388749,-34.54915925280558],[-58.425104853793805,-34.54915364976516],[-58.425085938326944,-34.54913910560518],[-58.425057560790364,-34.54912679513167],[-58.42504452286047,-34.549114294350126],[-58.42503189205125,-34.54910218391143],[-58.42501298326732,-34.54907310150043],[-58.42500419826531,-34.549072539582326],[-58.42495282906074,-34.549092653333446],[-58.4249514677348,-34.5491139011052],[-58.42490953283988,-34.54919217076663],[-58.42486490652986,-34.54924471806163],[-58.424798655885034,-34.549295021870726],[-58.424743215242046,-34.54935092068855],[-58.424741854890236,-34.54936993180494],[-58.4247729199089,-34.54941635214925],[-58.4250148828468,-34.549352124498036],[-58.42502298978261,-34.549357718670855],[-58.42512707340257,-34.54933202975143],[-58.42516219413585,-34.54937677377559],[-58.42526887405787,-34.549585934051315],[-58.425387786279394,-34.549646360645085],[-58.42543371492382,-34.54970229120595],[-58.42566598169619,-34.55016087672935],[-58.42565245767978,-34.55017876577762],[-58.42567855817385,-34.550250294337296],[-58.42570376300264,-34.55030179745405],[-58.425730785916656,-34.55032193564078],[-58.4256334557154,-34.55035545543618],[-58.42565505410196,-34.55041585170364],[-58.425625310839614,-34.55043373574652],[-58.42570903159686,-34.550608220409714],[-58.42573606566734,-34.55060375542563],[-58.4257792768033,-34.55069323479173],[-58.42579819324404,-34.55070666051506],[-58.425857672863465,-34.55068654890124],[-58.425973808958915,-34.5509147229577],[-58.426068434468036,-34.550885675373394],[-58.426286888122405,-34.5513186663332],[-58.426508682453466,-34.55174020979558],[-58.42647082917234,-34.5517580915964],[-58.4265005421999,-34.55180954354172],[-58.426571983003114,-34.551819406665466],[-58.426574842020905,-34.55182500542116],[-58.42657484202401,-34.551825005427084],[-58.42661086928494,-34.55189368355335],[-58.42667233997275,-34.552010464183255],[-58.42668911384023,-34.55204233024234],[-58.42669533178922,-34.55205414353826],[-58.42675894697205,-34.552031010276195],[-58.426758946972065,-34.552031010276195],[-58.426761652944386,-34.552030002845605],[-58.4267616529444,-34.55203000284562],[-58.426761671103215,-34.552030035744636],[-58.426762743331096,-34.55202962952075],[-58.426796280023346,-34.55201711191743],[-58.42679649962212,-34.55201702995189],[-58.42679665136029,-34.55201697367589],[-58.426905080055505,-34.55197650210903],[-58.426996214963054,-34.55193684470429],[-58.42731398453808,-34.55179856662597],[-58.42848364661082,-34.551289576368916],[-58.42848404543013,-34.551289402506725],[-58.42860730330141,-34.551235912498356],[-58.42871598672347,-34.55118874717576],[-58.42878668537527,-34.551158041948675],[-58.42914757472289,-34.55101704560983],[-58.42914758003454,-34.55101704353459],[-58.42923282132203,-34.55099670616145],[-58.429401564156706,-34.550956446287785],[-58.42940156924731,-34.55095644608861],[-58.42976220444741,-34.55094233664208],[-58.430666611418616,-34.551044412622446],[-58.43098714296101,-34.551125015867285],[-58.43098714459271,-34.55112501627761],[-58.431036398109896,-34.55114591286893],[-58.431513802157816,-34.55134845758674],[-58.43160818329038,-34.55138850019014],[-58.43168355732801,-34.55142047811737],[-58.431843782040445,-34.55151571858738],[-58.43210158398133,-34.55169833956175],[-58.432335420417324,-34.551863982695856],[-58.43339426383768,-34.55246777716875],[-58.43346247476692,-34.552506673413795],[-58.43438099910244,-34.55303043655711],[-58.4344261987988,-34.55305621010804],[-58.434633385043654,-34.55331621675238],[-58.43465660855799,-34.55359987138236],[-58.43411372952909,-34.5539635506837],[-58.43518472749922,-34.55446135220265],[-58.43533842733488,-34.5545331502805],[-58.435458934949985,-34.55459303812839],[-58.4355583880604,-34.554642402297205],[-58.43557606146025,-34.55465117451356],[-58.435720120941,-34.554722677856375],[-58.43598521801039,-34.55486569871285],[-58.436246392722076,-34.555035338226084],[-58.43653963802253,-34.55526808424857],[-58.43669017584574,-34.555386500033485],[-58.43672019636378,-34.55541477719225],[-58.43687287195778,-34.5555585855704],[-58.437102038313235,-34.55575173819217],[-58.43713932296816,-34.55578013218765],[-58.43718885433552,-34.555817852271986],[-58.43732666488206,-34.55592279989391],[-58.43733384865142,-34.55592827039186],[-58.437503883431035,-34.55604091475193],[-58.43770175306095,-34.55615349440089],[-58.43798925400528,-34.556266091440136],[-58.438346045930835,-34.556371731232154],[-58.43881459168942,-34.55651119512737],[-58.43915162894918,-34.55664732213577],[-58.439542031744864,-34.556803810167544],[-58.439837958440286,-34.55693992726851],[-58.44009987432891,-34.557077645340264],[-58.44016179630621,-34.557110204081724],[-58.44044561932123,-34.557309275903],[-58.440695735091076,-34.55751636984848],[-58.440916994165654,-34.55772733052577],[-58.44106131376859,-34.55790250180212],[-58.441167158312986,-34.558077665934064],[-58.44125366733226,-34.55830458741591],[-58.44134025034915,-34.55857925751683],[-58.441378680243595,-34.558750465551526],[-58.44138828018455,-34.55882208848241],[-58.44133563762436,-34.5589628569298],[-58.44130216392256,-34.55904095157672],[-58.441262546704294,-34.559174397325286],[-58.44121682110674,-34.5593122841931],[-58.44121075059262,-34.55933058930553],[-58.44113152747517,-34.55955219925914],[-58.4410340885502,-34.559768735297205],[-58.44096101122446,-34.55991985273797],[-58.4409586645355,-34.559922891925275],[-58.44084826858688,-34.56006589140677],[-58.440656425174275,-34.56028248003852],[-58.44064836357134,-34.56028951869876],[-58.44061881887944,-34.560315317502436],[-58.440492011577994,-34.560426044269704],[-58.44033066344391,-34.560562003501744],[-58.44016923188244,-34.56069042656081],[-58.439910212138855,-34.5608855184117],[-58.43989515835192,-34.56089685729751],[-58.43983969386139,-34.5609342748559],[-58.439697290020334,-34.56103034326841],[-58.43947192321032,-34.56117382399658],[-58.43947040517112,-34.56117461154859],[-58.43946981125078,-34.56117491881969],[-58.43944417785576,-34.56118820357018],[-58.43924358388997,-34.56129216198463],[-58.43892695972631,-34.56144069421765],[-58.43868943074011,-34.561538887817086],[-58.43867868388529,-34.56154282398995],[-58.438526295726334,-34.56159864565247],[-58.438476338353766,-34.561616945313965],[-58.43846389275331,-34.5616209757724],[-58.43833985840081,-34.56166114696175],[-58.43825099008908,-34.561689928488875],[-58.43798307694817,-34.56176290332876],[-58.43766034366643,-34.56183333036137],[-58.43729427184593,-34.56187865516193],[-58.437279902598384,-34.56188043422361],[-58.4372062665511,-34.56188795354483],[-58.43710794256421,-34.56189743985218],[-58.43702792252345,-34.56190474676176],[-58.436894270532036,-34.56191612640126],[-58.436782072906446,-34.56192420141377],[-58.43668187806621,-34.56192995415765],[-58.43664572536853,-34.56193148771187],[-58.436620756590294,-34.5619325468445],[-58.43657919186999,-34.56193383490915],[-58.43655308016808,-34.56193464408221],[-58.43644760978335,-34.561935818927225],[-58.436365633069926,-34.56193523747608],[-58.43630323687483,-34.561934025696],[-58.43622032473605,-34.561931753762686],[-58.436118855848,-34.56192821023491],[-58.436028198364994,-34.56192382349888],[-58.435999361512465,-34.56192139311337],[-58.435938562894606,-34.561916268404644],[-58.43589320810606,-34.5619121287889],[-58.43582177426904,-34.56190560802608],[-58.43574660993285,-34.56189812635858],[-58.43567161688854,-34.561890010979646],[-58.43557312961732,-34.561878791110985],[-58.43549924388588,-34.56186997096079],[-58.435388755429074,-34.56185628370534],[-58.43527826608431,-34.561842103268454],[-58.43512743054709,-34.56182192704333],[-58.435030562285846,-34.56180838322875],[-58.434960847039065,-34.56179829631029],[-58.434861490176466,-34.56209525140676],[-58.43494769822199,-34.56216583615122],[-58.435405433619195,-34.562543094594],[-58.435830563870546,-34.56254945952307],[-58.436430168109744,-34.562583803062644],[-58.43671967554795,-34.56256715666779],[-58.43731926790257,-34.562532679919855],[-58.437709769947816,-34.56251481496748],[-58.438435805905556,-34.56248159593368],[-58.43874878664952,-34.56244870667276],[-58.439573039652835,-34.5623620855656],[-58.439656950758014,-34.562351538910946],[-58.44052418240242,-34.56224253002507],[-58.44116517463695,-34.56214001582999],[-58.44125313658571,-34.56224477859415],[-58.44134725860968,-34.56235687732135],[-58.44150001620857,-34.562528598797705],[-58.441971991985575,-34.563059115764695],[-58.44253792836607,-34.5636951427871],[-58.44262451863038,-34.563632269365975],[-58.44364880210122,-34.56424012711462],[-58.44461496514506,-34.564810643714125],[-58.445522493658274,-34.565346494113896],[-58.44606700023069,-34.56566798793127],[-58.44642867323815,-34.565880296703206],[-58.44732218130654,-34.56640493506377],[-58.447798178837154,-34.56668436864173],[-58.44785691346942,-34.56671888363027],[-58.44838846335784,-34.5672286077597],[-58.44904573923339,-34.56785884978229],[-58.44904676119445,-34.567859827048814],[-58.44993229373014,-34.56738731159502],[-58.45016523288596,-34.56726296784951],[-58.450782741195994,-34.566925771782955],[-58.450951527164584,-34.56683358015889],[-58.45158635296271,-34.56648682842476],[-58.4517205285052,-34.56641578349951],[-58.45228975065864,-34.56611435102797],[-58.45375189099381,-34.56693801468703],[-58.45387792259911,-34.56700901008574],[-58.45393667306297,-34.567043392343216],[-58.4547891110263,-34.567542256881076],[-58.45567851842323,-34.56806274928969],[-58.45631454548497,-34.56843500557505],[-58.456577557388435,-34.56858893993633],[-58.45747703156592,-34.56911526456009],[-58.457630023875744,-34.569004071714076],[-58.457711546291065,-34.56953246678639],[-58.457986510069745,-34.56979973865437],[-58.45879600625013,-34.57058654745734],[-58.459681284816014,-34.57144687613171],[-58.460263506506294,-34.57201429775204],[-58.460884557453895,-34.572616366352065],[-58.46138066625322,-34.57309741693001],[-58.46173207811257,-34.57343815755531],[-58.462524276217415,-34.574208109507786],[-58.46290484323376,-34.57459875344147],[-58.46335727075378,-34.575014325093214],[-58.4649932002541,-34.57400098400131],[-58.46603901654119,-34.573341867252324],[-58.46736584353383,-34.57250216497175],[-58.46808280219982,-34.57291482378605],[-58.468842080328145,-34.572017731582086],[-58.469587125687326,-34.57113739548585],[-58.47041745111707,-34.57015634415815],[-58.471177786114396,-34.56925789833996],[-58.47196278986434,-34.56833029104557],[-58.472784461957644,-34.56735929362636],[-58.473369827681005,-34.56666768335336],[-58.47298985538144,-34.56644167936269],[-58.47295884559847,-34.566423235007925],[-58.47242192061301,-34.56610387259467],[-58.47137271507473,-34.56545815834925],[-58.47065128779516,-34.56501108137426],[-58.47044066715114,-34.56487376677131],[-58.46961240766511,-34.56433366066321],[-58.468611938124866,-34.56368122957112],[-58.46765055842208,-34.563054352418995],[-58.467542102791164,-34.56297400204182],[-58.466577501847695,-34.562259861841966],[-58.46649186218607,-34.56219648199534],[-58.46691544214592,-34.562017522276804],[-58.46768555987636,-34.561693617501696],[-58.46703884337077,-34.56132137710532],[-58.46774023393548,-34.56053978731518],[-58.468466466317885,-34.559730444574726],[-58.46893154692517,-34.559212172912375],[-58.46918578969931,-34.55893483100514],[-58.46822114891659,-34.55843401740545],[-58.467759772648776,-34.55819445250813],[-58.46718280151224,-34.557892634213985],[-58.46621954550503,-34.5573887055559],[-58.46527698639074,-34.556895614915156],[-58.4643438019598,-34.556407446792775],[-58.46373416935081,-34.55608849965775],[-58.463414628108495,-34.55592131323152],[-58.4628393912865,-34.55562039014813],[-58.46253491929363,-34.55548665259607],[-58.461355776534454,-34.554868526825445],[-58.46041165667683,-34.55437356759148],[-58.45947418838436,-34.553882050995625],[-58.458756751523055,-34.55350589147198],[-58.45853604903127,-34.55339158451287],[-58.45819022984604,-34.55321241052538],[-58.45759485684104,-34.55290392670583],[-58.4574076069801,-34.5528069438283],[-58.45727985135021,-34.552740739315766],[-58.45649204616874,-34.552332167348496],[-58.45574399543923,-34.551944226462446],[-58.455640680596616,-34.551889672713905],[-58.45546014848977,-34.551794345885675],[-58.45428017372657,-34.551171291749775],[-58.45300863878128,-34.5505104719913],[-58.45339553634792,-34.550059225647416],[-58.45339854137066,-34.55005667664728],[-58.454025182677995,-34.54952510662964],[-58.45415975850297,-34.549411029992044],[-58.454163356747124,-34.54920356072899],[-58.45412346169102,-34.54899122858818],[-58.45396344180229,-34.54877039673046],[-58.45382093380409,-34.54857373065386],[-58.45366571826496,-34.548319979434915],[-58.45284954102299,-34.54726235161876],[-58.4525546144379,-34.546880130361174],[-58.45217736495556,-34.54639121479827],[-58.4521263973128,-34.54629085569269],[-58.4507517078152,-34.54453544294681],[-58.450425125247,-34.544141621620426],[-58.44996708454129,-34.54354902230885],[-58.44940842392648,-34.542764350028364],[-58.44927718554516,-34.54265892258678],[-58.450051399013425,-34.54223347138216],[-58.45170894058859,-34.541325905101395],[-58.45234615583327,-34.54106046357546],[-58.452583778398854,-34.54097886276194],[-58.452641055825836,-34.54096154406855],[-58.45285561231659,-34.540896490086205],[-58.45306259299125,-34.540842281112646],[-58.45321757368411,-34.540799405708455],[-58.45474932991871,-34.54033260908041],[-58.457496490004765,-34.53901104663837],[-58.45828635090432,-34.538604380921726],[-58.45944479730046,-34.53780552914966],[-58.45920762752341,-34.53761344094141],[-58.45887403351801,-34.537343254676294],[-58.458717967963096,-34.53721685376504],[-58.45855970876752,-34.53732575059548],[-58.458486581435274,-34.53728184388497],[-58.458483495714454,-34.537279991171445],[-58.45848241428915,-34.537279341867276],[-58.45847853443466,-34.5372770123436],[-58.45847803005501,-34.537276709506365],[-58.45847786139798,-34.537276637997785],[-58.458476303561646,-34.53727597749348],[-58.45847190755617,-34.5372741136387],[-58.45841402279111,-34.5372495711542],[-58.45840398078005,-34.537245313451],[-58.45838456793716,-34.53723708261377],[-58.45836815630199,-34.53723012425273],[-58.458347508213805,-34.53722136967529],[-58.45833416584804,-34.53721571264633],[-58.4583232788145,-34.5372110966519],[-58.45831520090427,-34.537207671696976],[-58.45830949420681,-34.53720525211257],[-58.458301262814615,-34.537201762081374],[-58.45829647312318,-34.53719973129785],[-58.45828812076393,-34.53719618997641],[-58.4582848060933,-34.537194784587115],[-58.458276747695145,-34.53719136790126],[-58.45827089618751,-34.537188886915935],[-58.45826521247407,-34.537186477073405],[-58.458259637585925,-34.5371841133714],[-58.45825605193761,-34.53718259308885],[-58.45815770452646,-34.537140894610246],[-58.45801203132989,-34.53707913017254],[-58.457881784394054,-34.53702390589064],[-58.45786174124549,-34.537015407927655],[-58.45784170968121,-34.53700691462311],[-58.45779387504175,-34.536986632903705],[-58.45775195954105,-34.536968860854806],[-58.45768060458808,-34.53693860651422],[-58.45766064298856,-34.536930142829235],[-58.45760742175002,-34.53690757708825],[-58.457520978660156,-34.53687092524682],[-58.45749472252965,-34.53685979263766],[-58.45745621381565,-34.53684346467693],[-58.457421689923436,-34.536828826739935],[-58.4573710519452,-34.53680735614758],[-58.45730956487125,-34.53678128547633],[-58.45723794204461,-34.5367509171612],[-58.45723650066405,-34.5367503060104],[-58.45689790950882,-34.53660674136659],[-58.45686882639184,-34.53659440988679],[-58.45654619264286,-34.536457609384804],[-58.45646819423756,-34.536424536916584],[-58.456435608507086,-34.5364107206446],[-58.45643427309798,-34.536410154470275],[-58.45643427264711,-34.536410154279096],[-58.45627552528715,-34.53634284334201],[-58.45627019113322,-34.536340581586174],[-58.45626558494196,-34.53633862849641],[-58.456265539885855,-34.53633860939197],[-58.45626532111882,-34.536338514366925],[-58.456265276460016,-34.53633849543429],[-58.45626520248078,-34.53633845461379],[-58.45626520132545,-34.53633845393821],[-58.45626346075151,-34.53633743611404],[-58.45624977039555,-34.53632943049132],[-58.4562303706548,-34.53631808622258],[-58.45623037010358,-34.536318085900234],[-58.45622940722997,-34.53631752244949],[-58.4561570665781,-34.53627522033943],[-58.456127628166236,-34.53625800567141],[-58.45606608990611,-34.536222019964185],[-58.4559995836078,-34.536183128856024],[-58.4559160876426,-34.536134302931615],[-58.45590047556226,-34.53612517341243],[-58.45589771734514,-34.536123560481784],[-58.45588877298076,-34.53611832995406],[-58.45574798402111,-34.53603599985385],[-58.45574743287904,-34.53603567800935],[-58.45574743287766,-34.536035678008545],[-58.45574743287763,-34.53603567800854],[-58.455747432874745,-34.53603567800715],[-58.455745974462374,-34.53603498192762],[-58.45573959325722,-34.53603193626861],[-58.45573590123444,-34.53603017405239],[-58.45572618289039,-34.53602553568827],[-58.4556936459013,-34.536010006228665],[-58.45569355073491,-34.53600996080704],[-58.45569341269195,-34.5360098946016],[-58.45565213429968,-34.535990193029676],[-58.45554152242062,-34.53593739909483],[-58.45544843518939,-34.5358929696737],[-58.455448181400385,-34.53589284886548],[-58.45517840195804,-34.53576408509227],[-58.455178077271114,-34.53576393044574],[-58.45517665593883,-34.53576325205293],[-58.45511902166492,-34.53573574363957],[-58.455074467776406,-34.53571447836641],[-58.45505227467641,-34.535703885738016],[-58.45503548773488,-34.535695873155014],[-58.45500873896946,-34.53568310639675],[-58.45499180801949,-34.535675025345206],[-58.45497824396034,-34.53566855128972],[-58.45497629856313,-34.53566762276145],[-58.454869810029194,-34.53560787575082],[-58.4545610183573,-34.535434623476256],[-58.45456100971674,-34.535434618628315],[-58.45427261046657,-34.535272806889054],[-58.45421683478046,-34.53524151275631],[-58.454137635904566,-34.535197076461415],[-58.454084067040846,-34.53517601028468],[-58.4540630115721,-34.53516773012532],[-58.45399230821708,-34.53513235436279],[-58.45392623600864,-34.53509130259637],[-58.45386651584796,-34.53504579460421],[-58.45386545717745,-34.535044987740655],[-58.45381058165915,-34.53499387408833],[-58.45376215838074,-34.534938473703576],[-58.45372067526105,-34.534879342815884],[-58.453686547230014,-34.53481707370583],[-58.45368202866519,-34.534805998524384],[-58.453660117318826,-34.53475229290196],[-58.45366590363574,-34.534675046027004],[-58.45361874885359,-34.53460744660031],[-58.45356256356956,-34.534489382455476],[-58.45355713279495,-34.53447319605817],[-58.453540957024416,-34.53442498421409],[-58.453513283549874,-34.53434051058572],[-58.45347180646244,-34.53427114294332],[-58.45342321081325,-34.534205017162485],[-58.45336786254212,-34.53414263085519],[-58.45333193214533,-34.534100513011],[-58.453235290378736,-34.53392976534159],[-58.453247737327935,-34.53392142849804],[-58.45319554492092,-34.533856618473614],[-58.453175052008035,-34.5338185238847],[-58.453137658819045,-34.533770904663996],[-58.4531117720212,-34.53373161921213],[-58.45303123362118,-34.53362447620622],[-58.452980898217234,-34.53354947658002],[-58.4529176187834,-34.53346138140012],[-58.45285433903687,-34.53337685739501],[-58.45275223067259,-34.533225667441904],[-58.452710525016684,-34.53316019166839],[-58.45264149267674,-34.533070905437825],[-58.452575339588975,-34.53296376337437],[-58.45249768019498,-34.53285066824073],[-58.4524365607959,-34.532751859364886],[-58.45241355501212,-34.532685194743685],[-58.45235603105679,-34.53259233816089],[-58.452307135435326,-34.532516147970206],[-58.45223522930813,-34.53241138600115],[-58.45222084942872,-34.53238043421571],[-58.452205037005214,-34.53230543738139],[-58.45219209807997,-34.532255439272205],[-58.452184911956614,-34.532211393700834],[-58.452173409076345,-34.53217925176738],[-58.45215040096228,-34.53213282394458],[-58.452111572469214,-34.5320721098303],[-58.45209287704085,-34.53204472884228],[-58.45206123850385,-34.531999490612634],[-58.45200515042472,-34.53193163245426],[-58.45195481405302,-34.53187805964284],[-58.45188613951973,-34.531815557073294],[-58.451853282141435,-34.53177380141738],[-58.45184819737902,-34.53176678606758],[-58.45182698772845,-34.531745841993796],[-58.45182629072335,-34.5317451541352],[-58.45180056049827,-34.53172662907721],[-58.45177252472407,-34.53171212483191],[-58.45177030523751,-34.53171052690886],[-58.45176128816803,-34.5317080307882],[-58.451749693877424,-34.53170395770171],[-58.451740248664606,-34.53170063958739],[-58.45172046800031,-34.53169656102328],[-58.45171806336518,-34.53169606521265],[-58.4517058166622,-34.531692675052696],[-58.45167183960309,-34.53169022454405],[-58.45159560287355,-34.53168934682863],[-58.451526559177616,-34.53169782181572],[-58.451461832330665,-34.531694244349055],[-58.45136365920483,-34.53171744765763],[-58.451306478371215,-34.53175226135152],[-58.45115543806272,-34.53181920660925],[-58.451104731252,-34.53184420002484],[-58.45105564246743,-34.531870086383954],[-58.45094343622369,-34.531950873702904],[-58.45090998830144,-34.53198702881229],[-58.45086466824748,-34.532059341201645],[-58.45079399183235,-34.53216245266208],[-58.45076646757215,-34.53226244370761],[-58.45074919624563,-34.53233297332134],[-58.45073192623139,-34.53239457490835],[-58.450712488517354,-34.532523136444695],[-58.45070815745895,-34.532628486673325],[-58.45070275820912,-34.53266330540702],[-58.4506941100354,-34.53278115441957],[-58.45068330988379,-34.532861505510894],[-58.45067898308176,-34.53293828606019],[-58.450650920915415,-34.53302577777959],[-58.450616384221014,-34.53312398244602],[-58.450577528950944,-34.53324361390496],[-58.45054299289735,-34.533336461733846],[-58.450508458678556,-34.533416810320844],[-58.45046313736546,-34.533490015346096],[-58.45041350127017,-34.53355964868969],[-58.4503379671892,-34.53367034816632],[-58.45029696029662,-34.53374712479329],[-58.45027105898657,-34.53380961818358],[-58.450226402734714,-34.533924491514725],[-58.45021722627561,-34.53395931383998],[-58.45020503061631,-34.53400559321481],[-58.45019550546791,-34.534041738654274],[-58.45017698238409,-34.53406993567261],[-58.450154495993424,-34.534104165859624],[-58.4501415515746,-34.534123870646994],[-58.45013145968604,-34.5341593449324],[-58.450124280883344,-34.53418457932767],[-58.450122206690054,-34.5342003523873],[-58.45011907893659,-34.534224137161424],[-58.45011465873302,-34.53425775025505],[-58.45011213125869,-34.53427674756373],[-58.45010861258465,-34.53430292400486],[-58.4501058437904,-34.534323521860024],[-58.450103437575244,-34.534341422376926],[-58.45010051863673,-34.5343631371779],[-58.45009626843947,-34.534376117543395],[-58.45009103626858,-34.53439209691124],[-58.450084455231284,-34.53441219579008],[-58.45007785999223,-34.5344323380318],[-58.45007245566921,-34.53444884313951],[-58.45005914284084,-34.53447857785177],[-58.45005087153869,-34.5344970521106],[-58.450047788022864,-34.53451591694777],[-58.45004577921029,-34.53452820678508],[-58.45004339965108,-34.53454276483115],[-58.450040072811724,-34.53456311828975],[-58.450038185146944,-34.53457139183732],[-58.45003322357229,-34.5345931381817],[-58.450029186051296,-34.53461083443459],[-58.45002187718203,-34.53464286882406],[-58.45001848126096,-34.53465775295884],[-58.45001397616646,-34.53467844995259],[-58.45001017721919,-34.53469590280544],[-58.45000606738294,-34.53471478391387],[-58.450002054108396,-34.53473322139724],[-58.44999904817036,-34.53474703104564],[-58.44999692194866,-34.53475459276758],[-58.449993321910085,-34.53476739598734],[-58.44998831165245,-34.53478521452012],[-58.44998259108597,-34.53480555919313],[-58.44997745936982,-34.534823809664914],[-58.4499699888304,-34.534861755460156],[-58.44996524305853,-34.53488586107566],[-58.44996234351266,-34.534900588986496],[-58.44996488118893,-34.53491600484801],[-58.449966838369235,-34.53492789431196],[-58.4499688102344,-34.53493987297994],[-58.44996963072744,-34.534957588098],[-58.44997048317077,-34.5349759930415],[-58.44997096049788,-34.534986298917566],[-58.44996953529973,-34.53499313429866],[-58.44996676253657,-34.53500643272169],[-58.44996342040036,-34.53502246190378],[-58.44996016392283,-34.535038080253095],[-58.449961204855065,-34.53504973052744],[-58.4499630412932,-34.535070284218975],[-58.44996447156508,-34.535086292029625],[-58.44997308891951,-34.53510106919584],[-58.449984903822525,-34.53512132955583],[-58.44999467064878,-34.53513807783702],[-58.44999988455611,-34.53514505000179],[-58.4500009607313,-34.53514501741083],[-58.45000138550106,-34.535151510910474],[-58.4500273143829,-34.53520589262467],[-58.45005622615144,-34.53526431667805],[-58.450092664155385,-34.53531978303798],[-58.45013619280387,-34.535371630901146],[-58.45024771942583,-34.53543420225941],[-58.45032100341176,-34.53548806703157],[-58.450399416564274,-34.535536733742354],[-58.4504018111599,-34.53553797814318],[-58.450482423008914,-34.5355798696974],[-58.4505321164368,-34.53560117282289],[-58.450569454183324,-34.535617179158436],[-58.45065991428315,-34.53564840785151],[-58.4507531846201,-34.53567334026318],[-58.45083017444806,-34.53568823676985],[-58.450848625799715,-34.535691806852725],[-58.45094558534764,-34.5357036813486],[-58.45104339879911,-34.535708882551695],[-58.45114139732468,-34.53570737433605],[-58.45123890990942,-34.53569916655073],[-58.451335268799966,-34.535684315921664],[-58.45142981495179,-34.53566292424931],[-58.45152189911945,-34.53563513840858],[-58.45153155148547,-34.535635781969006],[-58.45167104969051,-34.53564508276152]]]}}