{"type":"Feature","properties":{"slug":"berazategui","name":"Berazategui","region":"sur","sort":7},"geometry":{"type":"MultiPolygon","coordinates":[[[[-58.19100757,-34.73819762],[-58.1908077,-34.73831183],[-58.19069385,-34.73831183],[-58.19069349,-34.73831183],[-58.19045078,-34.73838321],[-58.19026518,-34.73846887],[-58.19005103,-34.73856881],[-58.18980833,-34.73868303],[-58.18966556,-34.73878296],[-58.18946568,-34.73892573],[-58.1893943,-34.73908278],[-58.18932965,-34.73920285],[-58.18929436,-34.73926837],[-58.18918015,-34.73939686],[-58.18909222,-34.73936169],[-58.18903738,-34.73933976],[-58.18886606,-34.73938259],[-58.18866619,-34.73948252],[-58.18858052,-34.73953963],[-58.18846631,-34.73973951],[-58.18833782,-34.73981089],[-58.1881665,-34.73983944],[-58.18800945,-34.74001077],[-58.18785241,-34.74009643],[-58.18768109,-34.74018209],[-58.18748121,-34.7402963],[-58.18733845,-34.7402963],[-58.18715285,-34.7402963],[-58.18701008,-34.7402963],[-58.18686731,-34.74033913],[-58.18643901,-34.74056756],[-58.18621058,-34.74073888],[-58.18596788,-34.74082454],[-58.18575373,-34.74095303],[-58.1855824,-34.74101014],[-58.18539681,-34.74111008],[-58.18523976,-34.74115291],[-58.18503989,-34.74116718],[-58.1849114,-34.74116718],[-58.18471152,-34.74118146],[-58.18448309,-34.74130995],[-58.18442027,-34.74135314],[-58.18425466,-34.741467],[-58.18406907,-34.74156693],[-58.18388347,-34.74160976],[-58.18371215,-34.74173825],[-58.18352655,-34.74178108],[-58.18336951,-34.74188102],[-58.18325529,-34.74202379],[-58.18309825,-34.74212373],[-58.18291265,-34.742138],[-58.18272705,-34.74226649],[-58.18258428,-34.74233788],[-58.18239869,-34.74245209],[-58.18224164,-34.74248065],[-58.1820846,-34.74255203],[-58.18187044,-34.74260914],[-58.18167057,-34.74272335],[-58.18157063,-34.74279473],[-58.18137076,-34.74290895],[-58.18119944,-34.74299461],[-58.18105667,-34.74305172],[-58.18092818,-34.74313738],[-58.18079969,-34.74323731],[-58.18062837,-34.74326587],[-58.1804856,-34.74332298],[-58.18039994,-34.74346574],[-58.18031428,-34.7435514],[-58.18015723,-34.74363706],[-58.17997163,-34.74369417],[-58.17991288,-34.74372355],[-58.17985742,-34.74375128],[-58.17962899,-34.74376555],[-58.17954333,-34.74376555],[-58.1795005,-34.74387977],[-58.17955761,-34.74400826],[-58.179549,-34.74409433],[-58.17954333,-34.74415103],[-58.17940056,-34.7443509],[-58.17935773,-34.74437945],[-58.17919437,-34.74445569],[-58.17914358,-34.74447939],[-58.17898654,-34.74452222],[-58.17872956,-34.74457933],[-58.17852968,-34.74460788],[-58.17836633,-34.74468139],[-58.17824415,-34.74473638],[-58.17807282,-34.74469354],[-58.17798716,-34.74465071],[-58.17796146,-34.74464],[-58.17781584,-34.74457933],[-58.1776588,-34.74452222],[-58.17745892,-34.7445365],[-58.17739112,-34.7445817],[-58.17724477,-34.74467927],[-58.17705917,-34.74476493],[-58.17683075,-34.74476493],[-58.17651666,-34.74477921],[-58.17617402,-34.74480776],[-58.17588848,-34.74487914],[-58.1756315,-34.74493625],[-58.17531741,-34.74509329],[-58.17511753,-34.7451504],[-58.174832,-34.74520751],[-58.17451791,-34.74520751],[-58.17431804,-34.74526462],[-58.17414671,-34.74527889],[-58.17398967,-34.74540738],[-58.17381835,-34.74546449],[-58.1736042,-34.74556443],[-58.17356137,-34.74559298],[-58.17333294,-34.7457072],[-58.17307596,-34.74579286],[-58.17279042,-34.74584996],[-58.17257627,-34.74584996],[-58.17211941,-34.74592135],[-58.17184815,-34.74603556],[-58.17161973,-34.74623544],[-58.1713913,-34.7463211],[-58.17124853,-34.74642103],[-58.17112004,-34.74649242],[-58.17090589,-34.74666374],[-58.17062035,-34.74673512],[-58.17034909,-34.74673512],[-58.17014922,-34.74673512],[-58.16990651,-34.7467494],[-58.16977802,-34.74677795],[-58.16959243,-34.74686361],[-58.16940683,-34.74680651],[-58.16926406,-34.74686361],[-58.16906418,-34.74690644],[-58.1688072,-34.74700638],[-58.16860733,-34.74704921],[-58.16840745,-34.74694927],[-58.16825041,-34.74702066],[-58.16809337,-34.74709204],[-58.16792204,-34.74707776],[-58.16772217,-34.7471777],[-58.16756513,-34.74726336],[-58.16736525,-34.74729192],[-58.16716538,-34.74737758],[-58.16697978,-34.74744896],[-58.16690839,-34.74749179],[-58.16660858,-34.747606],[-58.16640871,-34.74762028],[-58.16619456,-34.74766311],[-58.16603751,-34.7477345],[-58.16586619,-34.74777733],[-58.16559493,-34.74777733],[-58.16528084,-34.74780588],[-58.16505241,-34.74786299],[-58.16485254,-34.74786299],[-58.16458128,-34.74787726],[-58.16438141,-34.74793437],[-58.16405304,-34.74804858],[-58.16386744,-34.74803431],[-58.1637104,-34.74802003],[-58.16341059,-34.74807714],[-58.16313933,-34.74810569],[-58.16289662,-34.74810569],[-58.16261109,-34.74817708],[-58.16239694,-34.74817708],[-58.16215423,-34.74820563],[-58.16205429,-34.74824846],[-58.1619258,-34.74829129],[-58.16172593,-34.74837695],[-58.16148322,-34.74837695],[-58.16124052,-34.74839123],[-58.16108347,-34.74844833],[-58.16085505,-34.74860538],[-58.16071228,-34.74864821],[-58.16041246,-34.74857682],[-58.16025542,-34.74853399],[-58.16012693,-34.74847689],[-58.1598985,-34.74857682],[-58.15981284,-34.74850544],[-58.15959869,-34.74860538],[-58.1594702,-34.74860538],[-58.15932743,-34.74864821],[-58.15914183,-34.74864821],[-58.15895624,-34.74880525],[-58.15874208,-34.74894802],[-58.15847083,-34.74890519],[-58.15832806,-34.74886236],[-58.1582424,-34.74873387],[-58.15814246,-34.74856255],[-58.15802825,-34.74844833],[-58.15778554,-34.74849116],[-58.15754284,-34.74856255],[-58.15734296,-34.74846261],[-58.15715736,-34.74837695],[-58.15695749,-34.74830557],[-58.15671478,-34.7483484],[-58.15647208,-34.74839123],[-58.15630076,-34.74839123],[-58.15619116,-34.74833643],[-58.15612944,-34.74830557],[-58.15597239,-34.74830557],[-58.15572969,-34.74830557],[-58.1556012,-34.74829129],[-58.15540132,-34.74823418],[-58.15535849,-34.74829129],[-58.15520144,-34.7484055],[-58.15505868,-34.74844833],[-58.15487308,-34.74856255],[-58.15470176,-34.74867676],[-58.15468036,-34.74869038],[-58.15454471,-34.7487767],[-58.15435912,-34.74884808],[-58.15417352,-34.74879098],[-58.15398792,-34.74879098],[-58.15377377,-34.74880525],[-58.15354534,-34.74884808],[-58.15331691,-34.74887664],[-58.15313131,-34.74884808],[-58.15297427,-34.74873387],[-58.1527744,-34.74874815],[-58.15250314,-34.74889091],[-58.15230326,-34.74900513],[-58.15206056,-34.74904796],[-58.15190351,-34.74899085],[-58.15177502,-34.74890519],[-58.15164521,-34.74887274],[-58.15154659,-34.74884808],[-58.15134672,-34.74883381],[-58.15128961,-34.74870532],[-58.15114684,-34.74864821],[-58.15094697,-34.74864821],[-58.1508042,-34.74869104],[-58.1505615,-34.74871959],[-58.15041873,-34.7487767],[-58.15011892,-34.74891947],[-58.15004753,-34.74903368],[-58.14999879,-34.74907836],[-58.14987621,-34.74919073],[-58.14967634,-34.74927639],[-58.1492052,-34.74937632],[-58.14904816,-34.74941915],[-58.1487769,-34.74940488],[-58.1485913,-34.7493906],[-58.14833432,-34.7493906],[-58.14812017,-34.7493906],[-58.14783463,-34.74947626],[-58.14744916,-34.74960475],[-58.14719218,-34.74960475],[-58.14697803,-34.7495762],[-58.14673532,-34.74947626],[-58.14662827,-34.74936156],[-58.14653545,-34.74926211],[-58.14634985,-34.74907651],[-58.14624991,-34.74906223],[-58.14609287,-34.74921928],[-58.14586444,-34.74940488],[-58.14563873,-34.74944471],[-58.14562174,-34.74944771],[-58.14549324,-34.74949054],[-58.14537903,-34.74949054],[-58.14530765,-34.74946198],[-58.14506494,-34.74941915],[-58.14492217,-34.74943343],[-58.1447223,-34.74946198],[-58.14449387,-34.74940488],[-58.1443677,-34.74930674],[-58.14436538,-34.74930494],[-58.14422261,-34.74911934],[-58.14409412,-34.74907651],[-58.14395135,-34.74900513],[-58.1437372,-34.74897657],[-58.14336601,-34.74891947],[-58.14296626,-34.74881953],[-58.14266645,-34.74884808],[-58.14242374,-34.74884808],[-58.14225242,-34.74884808],[-58.14196688,-34.74891947],[-58.14166707,-34.74894802],[-58.1414672,-34.74889091],[-58.1412816,-34.74886236],[-58.14103889,-34.74884808],[-58.14078191,-34.74893374],[-58.1406677,-34.74903368],[-58.14041072,-34.74904796],[-58.14021084,-34.74900513],[-58.13996814,-34.7490194],[-58.13965405,-34.74903368],[-58.13942562,-34.74900513],[-58.13918291,-34.74899085],[-58.13896876,-34.74899085],[-58.13889738,-34.74910506],[-58.13885941,-34.74920949],[-58.13884027,-34.74926211],[-58.13865467,-34.74941915],[-58.1384548,-34.74947626],[-58.13825492,-34.74953337],[-58.13801222,-34.74959047],[-58.13781234,-34.74969041],[-58.13761247,-34.74971897],[-58.13744115,-34.74967614],[-58.13726983,-34.74964758],[-58.13702712,-34.74969041],[-58.13684152,-34.74977607],[-58.13662737,-34.74984746],[-58.13632756,-34.74996167],[-58.1360563,-34.7500045],[-58.13569938,-34.75011872],[-58.13551379,-34.75014727],[-58.1352568,-34.75014727],[-58.13508548,-34.75010444],[-58.13489988,-34.75003306],[-58.13475712,-34.75001878],[-58.13451441,-34.75004733],[-58.13422888,-34.75010444],[-58.13410039,-34.75003306],[-58.13397189,-34.74990456],[-58.1338434,-34.74980463],[-58.13362925,-34.74970469],[-58.13345793,-34.74967614],[-58.1332295,-34.74967614],[-58.13297252,-34.74967614],[-58.13287258,-34.74964758],[-58.13267271,-34.74961903],[-58.13243,-34.7495762],[-58.13231579,-34.74953337],[-58.13213019,-34.74949054],[-58.1320953,-34.74947808],[-58.13193032,-34.74941915],[-58.13160195,-34.74941915],[-58.13140323,-34.74946591],[-58.13135925,-34.74947626],[-58.13110226,-34.74954765],[-58.13083101,-34.74956192],[-58.13064541,-34.74959047],[-58.13051692,-34.74963331],[-58.13038843,-34.74964758],[-58.13023138,-34.74973324],[-58.13006006,-34.74983318],[-58.12977453,-34.74984746],[-58.12957465,-34.74970469],[-58.12928912,-34.74967614],[-58.12913207,-34.74974752],[-58.12890364,-34.74971897],[-58.12864666,-34.74970469],[-58.12824691,-34.74971897],[-58.12800421,-34.74979035],[-58.1275759,-34.7498189],[-58.12741886,-34.7498189],[-58.12713332,-34.74984746],[-58.12700483,-34.74989029],[-58.12670502,-34.74994739],[-58.12647659,-34.74990456],[-58.12619106,-34.74993312],[-58.12601974,-34.74996167],[-58.12574848,-34.74996167],[-58.12550577,-34.74999022],[-58.12523451,-34.75004733],[-58.12504892,-34.75007588],[-58.12467772,-34.75013299],[-58.12446357,-34.75016155],[-58.12436363,-34.75014727],[-58.12412093,-34.75013299],[-58.12390677,-34.75011872],[-58.12366407,-34.7501901],[-58.12350703,-34.7501901],[-58.12322149,-34.7501901],[-58.12296451,-34.75021865],[-58.12276463,-34.75027576],[-58.12245054,-34.75038997],[-58.12235061,-34.75036142],[-58.1222935,-34.75031859],[-58.12207935,-34.75033287],[-58.12190803,-34.75030431],[-58.12175098,-34.75023293],[-58.12173969,-34.75022882],[-58.12159394,-34.75017582],[-58.12143815,-34.75025372],[-58.12139406,-34.75027576],[-58.12132021,-34.75026345],[-58.12113708,-34.75023293],[-58.12096644,-34.75029265],[-58.12085155,-34.75033287],[-58.12068023,-34.75041853],[-58.12039469,-34.75054702],[-58.12019482,-34.7506184],[-58.12009488,-34.7506184],[-58.11979506,-34.75051847],[-58.11964348,-34.75040186],[-58.11960947,-34.7503757],[-58.11949525,-34.75027576],[-58.11933821,-34.75021865],[-58.11902412,-34.75026148],[-58.11876714,-34.75034714],[-58.11855299,-34.75041853],[-58.11833884,-34.75041853],[-58.11818179,-34.75047564],[-58.11814338,-34.75050444],[-58.11806758,-34.75056129],[-58.11783915,-34.75057557],[-58.11772493,-34.75057557],[-58.117625,-34.7506184],[-58.11748223,-34.75068979],[-58.11729663,-34.75071834],[-58.11713959,-34.75070406],[-58.11699682,-34.75070406],[-58.11679695,-34.75083255],[-58.11665418,-34.75087538],[-58.11649713,-34.75086111],[-58.11636864,-34.75087538],[-58.11614021,-34.75094677],[-58.11588323,-34.75106098],[-58.11568336,-34.75108954],[-58.11548348,-34.75116092],[-58.11531216,-34.75118947],[-58.11495524,-34.7512323],[-58.11484103,-34.75133224],[-58.11469826,-34.75133224],[-58.11449905,-34.75133224],[-58.11449839,-34.75133224],[-58.1144976,-34.75133269],[-58.11439845,-34.75138935],[-58.1142414,-34.75148929],[-58.11411291,-34.75150356],[-58.11385593,-34.75164633],[-58.11359895,-34.75161778],[-58.11346232,-34.75165193],[-58.11342763,-34.75166061],[-58.11324203,-34.75170344],[-58.11298505,-34.75170344],[-58.11285656,-34.75176054],[-58.112771,-34.75186511],[-58.11272807,-34.75191759],[-58.11252819,-34.7519747],[-58.11237115,-34.75206036],[-58.11232832,-34.75206036],[-58.11209989,-34.75213174],[-58.11194284,-34.7522174],[-58.11174297,-34.75230306],[-58.11158593,-34.75228878],[-58.11156502,-34.75228729],[-58.11138605,-34.75227451],[-58.11125756,-34.75228878],[-58.11114334,-34.75238872],[-58.11112023,-34.75245035],[-58.11110052,-34.75250293],[-58.11102913,-34.7525886],[-58.11081498,-34.75270281],[-58.11071214,-34.75259997],[-58.11070077,-34.7525886],[-58.11057228,-34.75260287],[-58.11038668,-34.75267426],[-58.11027246,-34.75273136],[-58.1101297,-34.75273136],[-58.11001548,-34.75273136],[-58.10984416,-34.75277419],[-58.10968712,-34.75284558],[-58.10957763,-34.7530159],[-58.10955862,-34.75304545],[-58.10948724,-34.75318822],[-58.10937303,-34.75321677],[-58.10925881,-34.75317394],[-58.10917315,-34.75317394],[-58.10915181,-34.753172],[-58.10901611,-34.75315967],[-58.10891617,-34.75321677],[-58.10885046,-34.75328248],[-58.10883051,-34.75330243],[-58.10881623,-34.7533881],[-58.10875913,-34.75353086],[-58.10864491,-34.75358797],[-58.10851642,-34.75350231],[-58.10843076,-34.75347376],[-58.1083558,-34.75345331],[-58.10827372,-34.75343093],[-58.10811667,-34.75343093],[-58.10800246,-34.75345948],[-58.10784541,-34.75355942],[-58.10764554,-34.75364508],[-58.10761698,-34.75368791],[-58.10751352,-34.75374309],[-58.10740283,-34.75380212],[-58.10724579,-34.75384495],[-58.10717273,-34.75386033],[-58.10697453,-34.75390206],[-58.10671755,-34.75394489],[-58.10653195,-34.75397344],[-58.10634635,-34.75411621],[-58.10633076,-34.75415],[-58.10626069,-34.75430181],[-58.10614648,-34.75438747],[-58.10600371,-34.75435892],[-58.10587522,-34.75431608],[-58.10574673,-34.75437319],[-58.10568201,-34.75437319],[-58.10557541,-34.75437319],[-58.10540409,-34.75444458],[-58.10527559,-34.75444458],[-58.10510427,-34.75454451],[-58.10486157,-34.75463017],[-58.1047188,-34.75464445],[-58.1045332,-34.754673],[-58.10441899,-34.75481577],[-58.10421911,-34.75490143],[-58.10399069,-34.75494426],[-58.10380509,-34.75494426],[-58.10354811,-34.75501565],[-58.10336251,-34.75508703],[-58.10329112,-34.75520124],[-58.10319119,-34.75532974],[-58.10307697,-34.75540112],[-58.1028771,-34.75545823],[-58.10264867,-34.75545823],[-58.10243452,-34.75555816],[-58.10224892,-34.75564382],[-58.10202049,-34.75578659],[-58.10180634,-34.75590081],[-58.10156364,-34.75595791],[-58.10133521,-34.75601502],[-58.10114961,-34.75611496],[-58.10104967,-34.75621489],[-58.10100131,-34.75625519],[-58.10087835,-34.75635766],[-58.10064992,-34.75641477],[-58.1006107,-34.75641477],[-58.10046432,-34.75641477],[-58.10025017,-34.7564576],[-58.10000747,-34.75655754],[-58.09980759,-34.7566432],[-58.09956489,-34.75687163],[-58.09939357,-34.75698584],[-58.09913659,-34.75708578],[-58.09890816,-34.75717144],[-58.09876539,-34.75724282],[-58.09856551,-34.75734276],[-58.09836564,-34.75747125],[-58.09829909,-34.75757583],[-58.0982657,-34.75762829],[-58.09818004,-34.75782817],[-58.09805155,-34.75784245],[-58.09789451,-34.757871],[-58.09780885,-34.75794238],[-58.09766608,-34.7581137],[-58.09758042,-34.75819937],[-58.09738054,-34.75825647],[-58.09720922,-34.75822792],[-58.09708073,-34.75822792],[-58.09696058,-34.75824977],[-58.09692369,-34.75825647],[-58.0966667,-34.75835641],[-58.09635262,-34.75851345],[-58.09632563,-34.75855586],[-58.09625268,-34.7586705],[-58.09625268,-34.7588561],[-58.0962384,-34.75892748],[-58.09593859,-34.75887037],[-58.09571016,-34.7589132],[-58.09539607,-34.75904169],[-58.09526758,-34.75912736],[-58.09516764,-34.75931295],[-58.09491066,-34.75941289],[-58.0946394,-34.75948427],[-58.09438242,-34.75962704],[-58.09409689,-34.75972698],[-58.09385418,-34.75984119],[-58.09362575,-34.75996968],[-58.09326883,-34.76015528],[-58.09295475,-34.76028377],[-58.09275487,-34.76041226],[-58.09249789,-34.76052648],[-58.09239795,-34.76066924],[-58.09239795,-34.76081201],[-58.09235512,-34.76095478],[-58.09221235,-34.76108327],[-58.09198393,-34.76095478],[-58.09169839,-34.76101189],[-58.09154135,-34.76101189],[-58.09137002,-34.76102617],[-58.09125581,-34.76115466],[-58.09115587,-34.76125459],[-58.09107021,-34.76138308],[-58.09097028,-34.76144019],[-58.09079895,-34.76141164],[-58.09065619,-34.76145447],[-58.09048487,-34.76156868],[-58.09031354,-34.76161151],[-58.09014222,-34.76169717],[-58.0899709,-34.76185422],[-58.08979958,-34.76193988],[-58.08962826,-34.76199698],[-58.08947121,-34.76203982],[-58.08924279,-34.76213975],[-58.08911429,-34.76219686],[-58.08904291,-34.76225397],[-58.08890014,-34.7623539],[-58.08864316,-34.76243956],[-58.08851467,-34.76252523],[-58.08840046,-34.76251095],[-58.08839298,-34.76251308],[-58.08830052,-34.7625395],[-58.08811492,-34.76262516],[-58.08804546,-34.76269],[-58.08790077,-34.76282504],[-58.08774373,-34.7629107],[-58.08761524,-34.7629107],[-58.08760096,-34.76291628],[-58.08726807,-34.76304631],[-58.08705844,-34.76316768],[-58.08694799,-34.76324868],[-58.08684429,-34.76332472],[-58.0867158,-34.76342466],[-58.08655875,-34.7635246],[-58.08638743,-34.76361026],[-58.08618756,-34.76372447],[-58.08603051,-34.76381013],[-58.08578781,-34.76388152],[-58.08560221,-34.76393862],[-58.08547591,-34.76399806],[-58.08535951,-34.76405284],[-58.08510252,-34.76410995],[-58.08483127,-34.76423844],[-58.08465994,-34.76433837],[-58.0845029,-34.76443831],[-58.08448712,-34.76450142],[-58.08447435,-34.76455253],[-58.08454573,-34.76469529],[-58.08448862,-34.76490944],[-58.08437441,-34.76485234],[-58.08421736,-34.76478095],[-58.08403177,-34.76480951],[-58.0838983,-34.76480117],[-58.08380334,-34.76479523],[-58.08381417,-34.76484399],[-58.08383189,-34.76492372],[-58.08387472,-34.76500938],[-58.08373195,-34.7651236],[-58.08358919,-34.76523781],[-58.08333221,-34.76523781],[-58.08321683,-34.76514808],[-58.08320371,-34.76513787],[-58.08304667,-34.76509504],[-58.0828468,-34.7651236],[-58.0826612,-34.76522353],[-58.08258981,-34.76532347],[-58.08246132,-34.76548052],[-58.08230428,-34.76553762],[-58.08216151,-34.76562328],[-58.08194736,-34.76572322],[-58.08177604,-34.76583744],[-58.08171221,-34.76591403],[-58.08170465,-34.76592309],[-58.08156189,-34.76606586],[-58.08147623,-34.76612297],[-58.08117641,-34.76632285],[-58.08103365,-34.76642278],[-58.08081949,-34.76652272],[-58.08060534,-34.76662266],[-58.08034836,-34.76666549],[-58.08024842,-34.76679398],[-58.08004855,-34.76692247],[-58.0798915,-34.76695102],[-58.07970591,-34.76702241],[-58.07953459,-34.76712234],[-58.07930616,-34.76723656],[-58.07913484,-34.76735077],[-58.07893496,-34.76750782],[-58.0788493,-34.7675792],[-58.07867798,-34.76772197],[-58.07843527,-34.76779335],[-58.07819257,-34.76787901],[-58.07802125,-34.76793612],[-58.07784993,-34.76803606],[-58.07769288,-34.76812172],[-58.07750728,-34.7681931],[-58.0774359,-34.76820738],[-58.0771932,-34.76826449],[-58.0770076,-34.76836442],[-58.07685055,-34.76847864],[-58.07667923,-34.76859285],[-58.07647936,-34.76869279],[-58.07632231,-34.76873562],[-58.07607961,-34.76886411],[-58.07589401,-34.76890694],[-58.0758369,-34.76896405],[-58.07550064,-34.76906012],[-58.07543715,-34.76907826],[-58.07529161,-34.76915588],[-58.075223,-34.76919248],[-58.07517659,-34.76922342],[-58.07509451,-34.76927814],[-58.07485181,-34.76940663],[-58.07440923,-34.76972072],[-58.07412369,-34.76986348],[-58.07392382,-34.76993487],[-58.07376677,-34.76993487],[-58.07349551,-34.76999197],[-58.07338485,-34.77003501],[-58.07323853,-34.77009191],[-58.07316391,-34.77013389],[-58.0730101,-34.7702204],[-58.07290082,-34.77025163],[-58.07271029,-34.77030606],[-58.07251042,-34.77037745],[-58.07225344,-34.77046311],[-58.07198218,-34.77056304],[-58.07176803,-34.77066298],[-58.07149677,-34.77076292],[-58.07119695,-34.77090569],[-58.07099696,-34.77100569],[-58.07093997,-34.77103418],[-58.07071154,-34.77116267],[-58.07064016,-34.77127688],[-58.07052595,-34.77141965],[-58.07038318,-34.77147676],[-58.07016903,-34.7715767],[-58.07002626,-34.7715767],[-58.06986922,-34.77164808],[-58.06971217,-34.77171946],[-58.06961223,-34.77176229],[-58.06952657,-34.77177657],[-58.06939808,-34.77174802],[-58.06929814,-34.77173374],[-58.06912682,-34.77184795],[-58.06905544,-34.77199072],[-58.06896978,-34.77206211],[-58.0688984,-34.77190506],[-58.06886984,-34.77184795],[-58.06875563,-34.77187651],[-58.06855575,-34.77203355],[-58.06842726,-34.77211921],[-58.06819883,-34.77223343],[-58.06787047,-34.77230481],[-58.06761349,-34.77239047],[-58.06739933,-34.77247613],[-58.06718518,-34.77254752],[-58.06687109,-34.77266173],[-58.06669977,-34.77273311],[-58.06639996,-34.77284733],[-58.06611443,-34.77284733],[-58.06591455,-34.7730472],[-58.06571468,-34.77309003],[-58.06542914,-34.77309003],[-58.06518644,-34.77309003],[-58.06500084,-34.77314714],[-58.06481524,-34.77324708],[-58.06455826,-34.77331846],[-58.06432983,-34.77337557],[-58.06414423,-34.77344695],[-58.06395863,-34.77351834],[-58.06381028,-34.77350739],[-58.06369018,-34.77349853],[-58.06358312,-34.77353377],[-58.06345895,-34.77357544],[-58.06321624,-34.77363255],[-58.06308775,-34.77364683],[-58.06290215,-34.77371821],[-58.06274511,-34.77380387],[-58.06257379,-34.7738467],[-58.06241674,-34.77388953],[-58.06237193,-34.77397917],[-58.06234536,-34.7740323],[-58.06208838,-34.77411796],[-58.06187423,-34.77417507],[-58.06173146,-34.77423217],[-58.06156014,-34.77428928],[-58.06140309,-34.77431783],[-58.06135321,-34.7743133],[-58.06124605,-34.77430356],[-58.06106045,-34.77434639],[-58.06098768,-34.77441916],[-58.06093196,-34.77447488],[-58.06076064,-34.77456054],[-58.06063215,-34.77460337],[-58.06053221,-34.77460337],[-58.06024667,-34.77463192],[-58.06006108,-34.77468903],[-58.05988976,-34.77473186],[-58.05976126,-34.77480324],[-58.05960422,-34.77486035],[-58.05951853,-34.77482608],[-58.05946145,-34.77480324],[-58.05927585,-34.77481752],[-58.05912455,-34.7749352],[-58.05901887,-34.77501739],[-58.05873334,-34.77513161],[-58.05856202,-34.77514589],[-58.05821937,-34.77523155],[-58.05804805,-34.77533148],[-58.05780535,-34.77540287],[-58.05743415,-34.77551708],[-58.05717717,-34.77560274],[-58.0569773,-34.77564557],[-58.05612069,-34.77591683],[-58.05583515,-34.77594539],[-58.05550679,-34.77595966],[-58.05524981,-34.77604532],[-58.05499282,-34.77625947],[-58.05470729,-34.77628803],[-58.05445031,-34.77638797],[-58.05423616,-34.77640224],[-58.05393634,-34.77647363],[-58.05376502,-34.77660212],[-58.05337955,-34.77661639],[-58.05317968,-34.77651646],[-58.05317376,-34.77651054],[-58.05307974,-34.77641652],[-58.05290842,-34.77633086],[-58.05282276,-34.77633086],[-58.05267999,-34.77635941],[-58.05249439,-34.77644507],[-58.0523659,-34.77645935],[-58.05212319,-34.7764308],[-58.05168062,-34.7764879],[-58.05139508,-34.77647363],[-58.0511381,-34.77647363],[-58.05093822,-34.7764879],[-58.05068124,-34.7764879],[-58.05045281,-34.77647363],[-58.05025294,-34.7764879],[-58.05005306,-34.77653073],[-58.0497818,-34.77657356],[-58.0495391,-34.77657356],[-58.04931067,-34.77657356],[-58.0491679,-34.77661639],[-58.04886809,-34.7766735],[-58.04856828,-34.77668778],[-58.04838268,-34.77673061],[-58.04809715,-34.77680199],[-58.04781161,-34.77677344],[-58.0475118,-34.77675916],[-58.04715488,-34.77678771],[-58.04685507,-34.7768591],[-58.04655526,-34.77683054],[-58.0463411,-34.77684482],[-58.04611268,-34.77691621],[-58.04598419,-34.77703042],[-58.04586997,-34.77703042],[-58.04571293,-34.77700187],[-58.04552733,-34.7770447],[-58.04537028,-34.7770447],[-58.04531318,-34.77701614],[-58.04507047,-34.77700187],[-58.04472783,-34.77708753],[-58.0444994,-34.77714463],[-58.04424242,-34.77717319],[-58.04402827,-34.77717319],[-58.04384267,-34.77720174],[-58.0436428,-34.77718746],[-58.0434572,-34.77715891],[-58.04337154,-34.77713036],[-58.04324305,-34.77714463],[-58.04292896,-34.77720174],[-58.04280047,-34.77720174],[-58.04260059,-34.77718746],[-58.04240072,-34.77718746],[-58.04218657,-34.77724457],[-58.04198669,-34.77730168],[-58.04177254,-34.77725885],[-58.04161549,-34.77724457],[-58.04147273,-34.77724457],[-58.04140134,-34.77723029],[-58.04110153,-34.77721602],[-58.04088738,-34.77730168],[-58.04065895,-34.77737306],[-58.04048763,-34.77735879],[-58.04030203,-34.77731595],[-58.04000222,-34.77731595],[-58.03973096,-34.77738734],[-58.03953109,-34.77744445],[-58.03937404,-34.77741589],[-58.03920272,-34.77738734],[-58.03891719,-34.77743017],[-58.03873159,-34.77744445],[-58.03854599,-34.77740162],[-58.03824618,-34.77731595],[-58.03813196,-34.77727312],[-58.03796064,-34.77724457],[-58.03768938,-34.77725885],[-58.03736102,-34.7772874],[-58.03710404,-34.77727312],[-58.03686133,-34.77727312],[-58.03664718,-34.77724457],[-58.03643303,-34.77724457],[-58.03611894,-34.77734451],[-58.03593334,-34.77738734],[-58.03570491,-34.77743017],[-58.03550504,-34.777473],[-58.03530516,-34.77753011],[-58.03509101,-34.77755866],[-58.03490542,-34.77755866],[-58.03477692,-34.77753011],[-58.0345485,-34.77750155],[-58.03424868,-34.77754438],[-58.0339917,-34.77758721],[-58.033749,-34.77761577],[-58.03357768,-34.77761577],[-58.03340635,-34.77761577],[-58.03317793,-34.77761577],[-58.03300661,-34.77767287],[-58.0329358,-34.77768921],[-58.03282101,-34.7777157],[-58.03253547,-34.77778709],[-58.03237843,-34.77780136],[-58.03226421,-34.77780136],[-58.03206434,-34.77777281],[-58.03180736,-34.77775853],[-58.03150754,-34.77781564],[-58.03127961,-34.7778014],[-58.03127912,-34.77780136],[-58.03106497,-34.77780136],[-58.03085081,-34.77781564],[-58.03070805,-34.77780136],[-58.03056528,-34.77780136],[-58.03025119,-34.7778442],[-58.03000848,-34.7778442],[-58.0297515,-34.77788703],[-58.02946349,-34.77797103],[-58.02940886,-34.77798696],[-58.02929291,-34.77798696],[-58.02928037,-34.77798696],[-58.02910905,-34.77795841],[-58.02890917,-34.77800124],[-58.02875213,-34.77800124],[-58.02859508,-34.77800124],[-58.02840949,-34.77804407],[-58.02823816,-34.77805835],[-58.02806684,-34.7780869],[-58.02779559,-34.77811545],[-58.027723,-34.7781336],[-58.02756716,-34.77817256],[-58.02741011,-34.77820111],[-58.02725307,-34.77825822],[-58.02705319,-34.77828677],[-58.02685332,-34.77825822],[-58.02679863,-34.77821994],[-58.02671055,-34.77815828],[-58.0264964,-34.77812973],[-58.02623942,-34.77821539],[-58.02599671,-34.77822967],[-58.02575401,-34.77828677],[-58.02543992,-34.77832961],[-58.02534639,-34.77835559],[-58.02518294,-34.77840099],[-58.02492596,-34.77844382],[-58.02481174,-34.77844382],[-58.02464042,-34.7784581],[-58.02442627,-34.77852948],[-58.02421212,-34.77858659],[-58.02394086,-34.77862942],[-58.02375526,-34.7787008],[-58.02358394,-34.77878646],[-58.0232984,-34.77881502],[-58.02311281,-34.77887212],[-58.02298432,-34.77895778],[-58.02288438,-34.77895778],[-58.02265595,-34.77898634],[-58.02251318,-34.77904344],[-58.02231331,-34.7791291],[-58.02214199,-34.77915766],[-58.02192783,-34.77920049],[-58.02174224,-34.77924332],[-58.02155664,-34.77924332],[-58.02138532,-34.7793147],[-58.02109978,-34.77942892],[-58.02089991,-34.77952885],[-58.02064293,-34.77960024],[-58.02027173,-34.779743],[-58.02000047,-34.77982867],[-58.01968638,-34.78005709],[-58.01938657,-34.78015703],[-58.01904393,-34.78021414],[-58.01884405,-34.78032835],[-58.01860135,-34.7804854],[-58.01841575,-34.78047112],[-58.01824443,-34.78045684],[-58.01804455,-34.78045684],[-58.01790179,-34.78044257],[-58.01775902,-34.78035691],[-58.01768779,-34.78031806],[-58.02512356,-34.78631037],[-58.026055,-34.787061],[-58.03182513,-34.79187225],[-58.03810277,-34.79710669],[-58.04351442,-34.80161903],[-58.07286,-34.826088],[-58.07411661,-34.82714209],[-58.077371,-34.829872],[-58.081406,-34.833257],[-58.08183093,-34.83362359],[-58.082666,-34.834344],[-58.08360934,-34.83512621],[-58.083632,-34.835145],[-58.08364942,-34.83515848],[-58.08386653,-34.83532647],[-58.084242,-34.835617],[-58.08442331,-34.83576334],[-58.084605,-34.83591],[-58.08493893,-34.83617927],[-58.08506936,-34.83628444],[-58.08519571,-34.83638633],[-58.085297,-34.836468],[-58.085998,-34.837034],[-58.08626953,-34.83727406],[-58.086904,-34.837835],[-58.087776,-34.838605],[-58.087974,-34.83878],[-58.088052,-34.838889],[-58.08845709,-34.83890737],[-58.088515,-34.83891],[-58.08871255,-34.83907617],[-58.089006,-34.839323],[-58.08913621,-34.83943028],[-58.090136,-34.840254],[-58.09367221,-34.84317235],[-58.09367224,-34.84317237],[-58.09452873,-34.84387921],[-58.096443,-34.845459],[-58.110898,-34.857251],[-58.111603,-34.857827],[-58.112451,-34.858516],[-58.11638,-34.861707],[-58.11784149,-34.8629028],[-58.123267,-34.867342],[-58.12469,-34.868504],[-58.12599612,-34.8695869],[-58.126147,-34.869712],[-58.127551,-34.870841],[-58.127946,-34.871096],[-58.130389,-34.87316],[-58.13272,-34.875093],[-58.136301,-34.878026],[-58.13723323,-34.87878024],[-58.138815,-34.88006],[-58.141743,-34.882455],[-58.144107,-34.884373],[-58.147857,-34.887437],[-58.146827,-34.888226],[-58.146769,-34.888282],[-58.146739,-34.888335],[-58.146745,-34.888388],[-58.146751,-34.888447],[-58.14762,-34.889237],[-58.147673,-34.889255],[-58.15066866,-34.89188551],[-58.157567,-34.897943],[-58.16163932,-34.90151983],[-58.164405,-34.903949],[-58.16676043,-34.90601281],[-58.171255,-34.909857],[-58.17166263,-34.91021171],[-58.1735409,-34.91184613],[-58.176616,-34.914522],[-58.17811044,-34.91580582],[-58.17979433,-34.91727323],[-58.183675,-34.920655],[-58.186062,-34.922705],[-58.196553,-34.931743],[-58.19837281,-34.93337549],[-58.2009244,-34.93566443],[-58.20792605,-34.94194537],[-58.207968,-34.941983],[-58.20654659,-34.94305332],[-58.203636,-34.945245],[-58.21013702,-34.95095153],[-58.21108465,-34.95178335],[-58.211099,-34.951764],[-58.21115341,-34.95172229],[-58.21117801,-34.95170343],[-58.21269849,-34.9505378],[-58.21556611,-34.94833941],[-58.236097,-34.9326],[-58.23813432,-34.93105418],[-58.24366476,-34.92660692],[-58.24666299,-34.92419592],[-58.24671652,-34.92415288],[-58.247414,-34.923592],[-58.2397874,-34.9170786],[-58.23962405,-34.9169391],[-58.237754,-34.915342],[-58.230099,-34.908982],[-58.22361804,-34.90351653],[-58.21611551,-34.89718957],[-58.210104,-34.89212],[-58.197077,-34.881027],[-58.19253046,-34.87708738],[-58.18423777,-34.86990167],[-58.18329334,-34.86906434],[-58.181803,-34.867743],[-58.179871,-34.866004],[-58.180462,-34.864551],[-58.181437,-34.86190198],[-58.181483,-34.861777],[-58.1832599,-34.85695983],[-58.18504461,-34.85212149],[-58.1883444,-34.8431758],[-58.18846696,-34.84284354],[-58.18884892,-34.84180805],[-58.18896453,-34.8414229],[-58.18933272,-34.84019631],[-58.19050215,-34.83630046],[-58.194871,-34.821746],[-58.19534083,-34.82093389],[-58.19609635,-34.81962797],[-58.19636811,-34.81915823],[-58.197523,-34.817162],[-58.1982126,-34.81623063],[-58.19834218,-34.81605562],[-58.19845,-34.81591],[-58.19975213,-34.81400969],[-58.199915,-34.813772],[-58.201282,-34.813111],[-58.20297269,-34.81241014],[-58.203868,-34.812039],[-58.209365,-34.810997],[-58.2102479,-34.81057719],[-58.213914,-34.808834],[-58.225107,-34.806416],[-58.226908,-34.805677],[-58.229122,-34.804749],[-58.232396,-34.803378],[-58.23499564,-34.80230333],[-58.23521101,-34.80220533],[-58.238496,-34.800408],[-58.239206,-34.799718],[-58.243341,-34.796673],[-58.245759,-34.794977],[-58.246758,-34.7943],[-58.246646,-34.794233],[-58.247513,-34.793663],[-58.249607,-34.792543],[-58.251437,-34.791412],[-58.252648,-34.790348],[-58.255902,-34.786756],[-58.25667507,-34.78592597],[-58.261779,-34.780446],[-58.26682428,-34.774408],[-58.26733363,-34.77379842],[-58.267461,-34.773646],[-58.26745398,-34.77364237],[-58.26172318,-34.77067458],[-58.261388,-34.770501],[-58.26075525,-34.77020143],[-58.2579568,-34.76887655],[-58.25764023,-34.76872667],[-58.257134,-34.768487],[-58.25505293,-34.76731779],[-58.254053,-34.766756],[-58.250378,-34.764759],[-58.24627469,-34.76256622],[-58.245726,-34.762273],[-58.24430538,-34.76151793],[-58.243425,-34.76105],[-58.24331193,-34.76098922],[-58.24160095,-34.76006954],[-58.237615,-34.757927],[-58.23740621,-34.75781334],[-58.23615302,-34.75713112],[-58.23369092,-34.7557908],[-58.23340458,-34.75563492],[-58.232106,-34.754928],[-58.230056,-34.7538],[-58.225782,-34.751589],[-58.22431322,-34.75083625],[-58.22324682,-34.75028972],[-58.222662,-34.74999],[-58.20953161,-34.74332697],[-58.20851131,-34.74280922],[-58.208302,-34.742703],[-58.1952,-34.735995],[-58.194645,-34.73569491],[-58.19459104,-34.73578484],[-58.19447683,-34.73599899],[-58.19426268,-34.73607038],[-58.19399142,-34.73614176],[-58.19370588,-34.73628453],[-58.1934489,-34.73634164],[-58.19323475,-34.73639874],[-58.19309198,-34.73652723],[-58.1930206,-34.73665573],[-58.19299205,-34.73679849],[-58.19299205,-34.73693769],[-58.19299205,-34.73695554],[-58.19286355,-34.7370412],[-58.19277163,-34.73706948],[-58.19267796,-34.73709831],[-58.19258796,-34.7371793],[-58.19253519,-34.7372268],[-58.19234959,-34.73736956],[-58.19219255,-34.73744095],[-58.19207833,-34.73754088],[-58.19196412,-34.73756944],[-58.19182135,-34.73768365],[-58.19170714,-34.73776931],[-58.19157865,-34.73782642],[-58.19144449,-34.73786301],[-58.19126456,-34.73791208],[-58.19110751,-34.7380263],[-58.1910733,-34.73808495],[-58.19100757,-34.73819762]]]]}}