{"type":"Feature","properties":{"slug":"botanico-alto-palermo","name":"Botánico y Alto Palermo","region":"caba","sort":2,"particion":{"base":"Palermo","areaBaseM2":15924169.23233388}},"geometry":{"type":"Polygon","coordinates":[[[-58.44904676119445,-34.567859827048814],[-58.44864507093092,-34.56807422001779],[-58.4481355929735,-34.5683345864268],[-58.44704459763582,-34.56889213286718],[-58.446693559140755,-34.569071596712725],[-58.44649935138748,-34.56916692399704],[-58.44570744474864,-34.5695557646886],[-58.444888199884126,-34.569958046287994],[-58.444113138123555,-34.570338639179845],[-58.44383011830178,-34.570477610618795],[-58.44364228945086,-34.570569765836325],[-58.44295882822121,-34.57092121032677],[-58.4425467220178,-34.57113304656695],[-58.442206051780346,-34.5713082030005],[-58.44194652243676,-34.571451189060525],[-58.44074720899485,-34.57211211395189],[-58.441705678478996,-34.573079911899],[-58.44242303353998,-34.57380406511678],[-58.44314167900636,-34.57452962317707],[-58.443546104930284,-34.57493791639928],[-58.44397422558434,-34.575370125943124],[-58.44375678703525,-34.57550977902202],[-58.442921735548246,-34.576046095554624],[-58.442730481082044,-34.57616895308369],[-58.44256801686192,-34.57628536099367],[-58.44188079335612,-34.57677776255698],[-58.441816755510914,-34.576823667235594],[-58.44089118052464,-34.57780218157721],[-58.44022315369406,-34.578330110502804],[-58.43994155146995,-34.5785526522915],[-58.440535783125064,-34.57910559178],[-58.44154584930507,-34.580045512095516],[-58.441580372766715,-34.580077638737045],[-58.44228506905256,-34.58073340125159],[-58.442511928976494,-34.58094449983034],[-58.44342564986102,-34.58179475284818],[-58.44343418819475,-34.581802697597084],[-58.44376395414229,-34.58223342112256],[-58.443782159323064,-34.582257199123084],[-58.444451017095986,-34.583176453135245],[-58.44445103343923,-34.583176475673376],[-58.44440936622225,-34.58319439046155],[-58.444402238746825,-34.583197455104525],[-58.444402696145474,-34.583199021851996],[-58.444788089964234,-34.584519157278116],[-58.44471398167825,-34.58457559787213],[-58.4345,-34.5757],[-58.4267,-34.5793],[-58.4165,-34.5858],[-58.425790630746036,-34.596708998682445],[-58.42602719498809,-34.59661930265],[-58.42484614314645,-34.597067111935914],[-58.42453820412655,-34.597201468823854],[-58.42354244525393,-34.5976359201193],[-58.42353409146059,-34.59764161168495],[-58.42337046439579,-34.59775309579909],[-58.42284450312962,-34.59771812673761],[-58.42284263479575,-34.59771800262326],[-58.422747238904925,-34.597719991045835],[-58.42178083855531,-34.59774013195552],[-58.42063850283121,-34.59775923930643],[-58.42043602768668,-34.59776262530665],[-58.42016606016313,-34.59776837590226],[-58.41911977428877,-34.59779073635297],[-58.41894422049919,-34.59779448748676],[-58.41885324690783,-34.59779642579564],[-58.417469104811424,-34.597825914029805],[-58.417408448702155,-34.59782738759479],[-58.417403078898175,-34.59782751808431],[-58.417267837448584,-34.597830803306756],[-58.41726713649288,-34.59783082037807],[-58.41726641596561,-34.59783083792598],[-58.41724385864067,-34.59783138638638],[-58.41616333069258,-34.59785765352726],[-58.41616261013123,-34.59785767104057],[-58.41600475655537,-34.597859923268764],[-58.41600403600113,-34.597859933549024],[-58.415521392961224,-34.59671817827884],[-58.4150499882344,-34.59560318588077],[-58.41462962115761,-34.59460884749357],[-58.414397287745764,-34.59405930920153],[-58.41352670084253,-34.59307844839384],[-58.41288157567289,-34.59232500188351],[-58.412466645481246,-34.59184038489514],[-58.41239457034771,-34.591756197943305],[-58.4123307483888,-34.59168166323358],[-58.41119261417241,-34.590352145981825],[-58.41008489098123,-34.589062491173905],[-58.4095016983881,-34.58823250257817],[-58.409196988553816,-34.58779870803995],[-58.40903259988131,-34.58756467761328],[-58.4083206304079,-34.58655131309496],[-58.408140025184665,-34.586294255340455],[-58.40804219407886,-34.586154560612044],[-58.40762969172575,-34.58556591244003],[-58.407095804186426,-34.58480389277573],[-58.40640225665762,-34.58381397657757],[-58.40617642820399,-34.58346470960735],[-58.40536395189287,-34.58345841147941],[-58.40403080022168,-34.58344805218868],[-58.40204814478211,-34.583432636942796],[-58.401947330422416,-34.58343181108031],[-58.401352633934735,-34.58379669587914],[-58.40135017291804,-34.583798206319244],[-58.40121965947642,-34.58388687444914],[-58.40113089032275,-34.583947252663485],[-58.40054799256822,-34.584477245354066],[-58.39994329891968,-34.5836472706784],[-58.39927933340058,-34.58273585143911],[-58.39936593960408,-34.58272047345798],[-58.398113720474804,-34.58070759154796],[-58.39796445564295,-34.58049771854608],[-58.39692863426499,-34.57904142811668],[-58.39675709255307,-34.57880027372406],[-58.39656419598135,-34.578512233282034],[-58.39664656273887,-34.578457879965484],[-58.39681623107398,-34.57834591629735],[-58.39782165617299,-34.57768242917307],[-58.397898261910434,-34.57763187592888],[-58.39858627930136,-34.577177208383134],[-58.39861442550493,-34.57716213974652],[-58.39905064129638,-34.57692860701706],[-58.39987873474078,-34.576527437793736],[-58.399944927450534,-34.576495369692026],[-58.400512495076356,-34.57616149810312],[-58.400661627864544,-34.57606327153086],[-58.40114888534915,-34.57574233895357],[-58.401240827535084,-34.57566638200696],[-58.401656336739215,-34.575323111404266],[-58.402139048346875,-34.57474309547305],[-58.40241341039222,-34.57441342336115],[-58.402650681613316,-34.574146009020055],[-58.40251097228334,-34.57400783111582],[-58.40241289902322,-34.57390854512566],[-58.40203200094389,-34.57352293352119],[-58.40174950128075,-34.573137814765516],[-58.400666367100506,-34.571869936691655],[-58.400546129924884,-34.571748959388486],[-58.40045277944997,-34.57165503409935],[-58.4003062620523,-34.571507613196104],[-58.399922299006796,-34.57105529402667],[-58.39988983229458,-34.57101704676128],[-58.39972018078614,-34.57081264566095],[-58.39964009513058,-34.57056742848786],[-58.399634041448884,-34.57040908342116],[-58.39965580847329,-34.57020478189763],[-58.3997022573878,-34.570023478706126],[-58.39981048275632,-34.569803898801524],[-58.39991401943937,-34.569658811381096],[-58.40005258308395,-34.569464639250725],[-58.40011285883496,-34.56938017324821],[-58.400130827549326,-34.56935499307565],[-58.4001310817211,-34.56935463624212],[-58.400014578603795,-34.56943179417062],[-58.39981012716323,-34.56956719808264],[-58.39957938435263,-34.56972001327606],[-58.39943743531723,-34.56981402207583],[-58.399349486985514,-34.56987226755902],[-58.39934418719556,-34.569875777642594],[-58.399342279477466,-34.56987673939239],[-58.39930046037549,-34.569897821903346],[-58.39927504314985,-34.56991063562721],[-58.399239683202,-34.569928461577625],[-58.39923149081477,-34.56993235713472],[-58.39922185421604,-34.56993693943738],[-58.39918379292282,-34.56995663741251],[-58.399000852707964,-34.57004886231943],[-58.39882305504986,-34.57013849404819],[-58.39880175804048,-34.57014923031088],[-58.398704238673055,-34.57020481931057],[-58.39837000346693,-34.570395345116474],[-58.39521040516281,-34.57219633516644],[-58.39482489558856,-34.572315065434594],[-58.39432813944651,-34.572296123527934],[-58.39432369245147,-34.572295810023014],[-58.393536954093335,-34.57224031281104],[-58.39331562572042,-34.57222469870976],[-58.39321300395259,-34.572217459067375],[-58.39302210038703,-34.57222836652138],[-58.392844391633396,-34.572238519806525],[-58.392844035532704,-34.57223854015185],[-58.39288254571333,-34.57217018958862],[-58.392919292797735,-34.57210496817534],[-58.3929384587564,-34.57207095098485],[-58.392988738896264,-34.57198170984933],[-58.393883504468214,-34.57039357935063],[-58.39400300809586,-34.57019077846907],[-58.394130786501215,-34.569973938091486],[-58.39415209490042,-34.569937777543906],[-58.39456623872477,-34.56923495893136],[-58.39456645369645,-34.56923459487597],[-58.3945664864158,-34.56923456064019],[-58.394580228724,-34.569219961656486],[-58.39458761177462,-34.569212982458716],[-58.39459103066441,-34.56920974645787],[-58.39459584512258,-34.569205604406974],[-58.394602363996505,-34.56919999579218],[-58.394602399981984,-34.56919996516392],[-58.39460885955061,-34.56919491630143],[-58.39461433012073,-34.56919063940499],[-58.394622584081326,-34.56918469282888],[-58.39462829365,-34.569181310281685],[-58.394629412234224,-34.56918064565792],[-58.394635374739146,-34.56917711091155],[-58.3946354161672,-34.56917708749773],[-58.39464396066852,-34.56917296286727],[-58.394649499660794,-34.56917028694179],[-58.39465211470648,-34.56916926168723],[-58.394652833054586,-34.56916897904317],[-58.39465581000517,-34.56916780435518],[-58.394669404277856,-34.56916358340551],[-58.39467547604578,-34.569162341948534],[-58.3946788993823,-34.56916164526719],[-58.394686283370625,-34.56916014133066],[-58.3946916572406,-34.56915949171805],[-58.39469872031714,-34.56915864293774],[-58.39470335072557,-34.569158337251885],[-58.394705266530785,-34.56915821122724],[-58.39471044836229,-34.56915786618816],[-58.39471588938732,-34.56915771149556],[-58.394717897762646,-34.56915765222833],[-58.39472106442226,-34.56915768105022],[-58.39472256167056,-34.56915768910277],[-58.39472565750826,-34.5691577070676],[-58.394736486470336,-34.56915835045919],[-58.39474009082353,-34.56915882753555],[-58.394740607288085,-34.56915889543262],[-58.394740790338496,-34.56915891987396],[-58.39474641369931,-34.569159660399286],[-58.39475539456562,-34.569161578270325],[-58.39475978398231,-34.56916280397122],[-58.394766953299175,-34.5691652824132],[-58.3947691517,-34.56916604355025],[-58.394770399057755,-34.56916647603398],[-58.394771196495384,-34.569166752318246],[-58.394774415659086,-34.56916786828903],[-58.39480109959035,-34.569179441360625],[-58.39483050573641,-34.5691921941182],[-58.3948440989883,-34.569198520744166],[-58.39485561620592,-34.56920502649005],[-58.39485992667679,-34.56920818119654],[-58.394864322103615,-34.56921138643041],[-58.39486513864743,-34.569212153179386],[-58.39487774567289,-34.569223991395575],[-58.39489107343189,-34.569236498951405],[-58.39490334206909,-34.569247591573614],[-58.39491578167312,-34.56925883122294],[-58.39491590378287,-34.56925881165827],[-58.39491745241236,-34.56925856353371],[-58.39491749383298,-34.56925854913406],[-58.394919878835836,-34.569257663466075],[-58.394930145239556,-34.569248003216444],[-58.39493017686905,-34.56924796897992],[-58.39495103918249,-34.56922546932999],[-58.394951060994316,-34.56922544770797],[-58.394968844108774,-34.5692078843471],[-58.39502279104656,-34.56915460595116],[-58.395051535592664,-34.569124892065766],[-58.3950949021198,-34.569080071218266],[-58.39509492502495,-34.56908004508969],[-58.39518469797661,-34.56898534533457],[-58.39519097693289,-34.56897989159961],[-58.39519106198994,-34.56897981773007],[-58.39519398446559,-34.56897727643535],[-58.395194007365525,-34.56897725661673],[-58.39520058346245,-34.568972228520586],[-58.39520302482626,-34.56897036483028],[-58.39520572788237,-34.568968300267684],[-58.3952057660506,-34.56896826513332],[-58.395207045206,-34.56896711923185],[-58.39520989686036,-34.568964565277284],[-58.3952099372102,-34.56896452743985],[-58.395212081415536,-34.5689622579415],[-58.3952148456156,-34.568958707861285],[-58.39521487943308,-34.56895866280881],[-58.395216753105345,-34.56895540789989],[-58.39521726736302,-34.56895417142897],[-58.39521779581401,-34.568952901613216],[-58.3952181600976,-34.56895116837248],[-58.39521855502433,-34.56894927379338],[-58.395218556140456,-34.568949241342644],[-58.39521853836239,-34.568945650949395],[-58.39521721546104,-34.56893629520322],[-58.39521721221326,-34.56893626906003],[-58.395213418671254,-34.56888047222453],[-58.39520904758062,-34.568828700838885],[-58.3952072463392,-34.56880192294755],[-58.395207318884054,-34.56879313587841],[-58.395208838974874,-34.56877447087903],[-58.39520952624684,-34.56876952693572],[-58.39521027819238,-34.56876411518787],[-58.395214095474486,-34.5687426471305],[-58.39521626737549,-34.568730455641216],[-58.39521627721805,-34.568730412378216],[-58.39521754516495,-34.56872429600227],[-58.39522021448117,-34.568711474692826],[-58.39522634686741,-34.5686866104479],[-58.395232282207154,-34.56866685898624],[-58.395234403051724,-34.5686598155173],[-58.395234416159695,-34.56865977676324],[-58.39523944654326,-34.56864465452536],[-58.3952394563704,-34.56864463019232],[-58.39524770359259,-34.56862409487589],[-58.39525393558344,-34.56861204717307],[-58.395410626788106,-34.56837575682871],[-58.39541064860836,-34.568375724389476],[-58.39552231056546,-34.56821343763331],[-58.39552264658713,-34.56821294924644],[-58.39552306443226,-34.56821234191661],[-58.39560051186052,-34.56809978223498],[-58.39568949748652,-34.56797280786318],[-58.39571306876856,-34.567938885793325],[-58.39573633783557,-34.567905398940695],[-58.39575614418095,-34.567876898664885],[-58.395756164911255,-34.567876866224985],[-58.39579894940011,-34.5678142810886],[-58.39579926836203,-34.56781381451076],[-58.39579929236577,-34.56781377666412],[-58.39579692856102,-34.56781271804115],[-58.39575364351315,-34.56779333294763],[-58.39575158241312,-34.56779240988887],[-58.39578633424462,-34.567739070039224],[-58.3958064055501,-34.567748057549096],[-58.39580705150102,-34.56774834636291],[-58.39580734452032,-34.56774847813327],[-58.39583555175947,-34.56776110919742],[-58.39584302957761,-34.56775118501201],[-58.39584315149526,-34.5677510230878],[-58.395852566937045,-34.56773851802004],[-58.395857045273274,-34.56773211134778],[-58.395857313646076,-34.5677317274881],[-58.39587329274031,-34.56770886350429],[-58.39594002680019,-34.567610843107104],[-58.39594004643851,-34.56761081337089],[-58.395966326476184,-34.5675714787734],[-58.39601159641967,-34.56750372543058],[-58.396060772020974,-34.567431527481475],[-58.39613233739647,-34.56733336991426],[-58.39613296574557,-34.56733250849564],[-58.39617338298663,-34.567277072224755],[-58.396187431959675,-34.56725843122433],[-58.39618861007188,-34.567256866093025],[-58.39620435748303,-34.567235967949266],[-58.39620438366358,-34.567235932807996],[-58.39621978544549,-34.56721663180114],[-58.39623224466476,-34.56720192645418],[-58.39624348773633,-34.56718865460849],[-58.39625184881601,-34.56717918970867],[-58.39625192625413,-34.5671791014113],[-58.39626403051362,-34.567165396450214],[-58.3963013564196,-34.56712459310794],[-58.39632212209439,-34.56710190205967],[-58.39632215263429,-34.56710186601933],[-58.39636893059162,-34.56705123958096],[-58.39645430013249,-34.566958850407474],[-58.396454339394744,-34.566958808061884],[-58.39646856812956,-34.56694415143472],[-58.39649708011419,-34.56691478051379],[-58.39650735931372,-34.5669048821577],[-58.39651284678744,-34.56689959738801],[-58.39652140426013,-34.56689246997745],[-58.39652143806455,-34.56689243934741],[-58.3965260052854,-34.56688922465203],[-58.39653463539708,-34.56688391996606],[-58.39653467246406,-34.56688389745065],[-58.39654182486851,-34.56688008922657],[-58.396541857572444,-34.56688007211733],[-58.39656070714694,-34.56687142782136],[-58.39657257805626,-34.56686598878893],[-58.396572610758746,-34.56686597348253],[-58.39669209705547,-34.56681251018556],[-58.396692133027656,-34.56681249397946],[-58.39678308748508,-34.56677229484762],[-58.39688219899342,-34.5667281824832],[-58.396882230605385,-34.56672816807757],[-58.39689470035384,-34.56672191174496],[-58.39695525828192,-34.56668845664974],[-58.39697430768937,-34.56667917148341],[-58.39698334239346,-34.56667476841259],[-58.3970083225377,-34.56666454537257],[-58.39700836068768,-34.56666453097046],[-58.3970237000093,-34.566659037888904],[-58.39704778970264,-34.56665041439068],[-58.39709440927353,-34.56663514787119],[-58.39715494193151,-34.566616913261896],[-58.39717299931162,-34.5666122473416],[-58.39719838949651,-34.56660569329363],[-58.39720413408474,-34.566604520942946],[-58.39720424415938,-34.56660449846689],[-58.397208653683165,-34.56660359942702],[-58.39723055872441,-34.5666002660879],[-58.39723547572729,-34.56659975583687],[-58.39723650991095,-34.566599648225285],[-58.397242294364155,-34.566599047399265],[-58.39725749612134,-34.56659799103878],[-58.397268393100596,-34.566597660701184],[-58.39727711177477,-34.56659739498873],[-58.39729405799168,-34.56659784945781],[-58.397294096126636,-34.56659785398555],[-58.39730532313817,-34.56659907788371],[-58.3973054375437,-34.56659909056555],[-58.397317141791056,-34.56660036610198],[-58.397330935920905,-34.566603158967354],[-58.397331112419195,-34.5666031951198],[-58.3973340006769,-34.56660378080546],[-58.39734409160595,-34.56660582258209],[-58.39735328434594,-34.56660824427498],[-58.397353322475205,-34.5666082560141],[-58.39737081187041,-34.56661357576891],[-58.39738352485517,-34.566617996022025],[-58.39739414476758,-34.566622179871324],[-58.397411755019775,-34.56663039236553],[-58.397416526724896,-34.56663311725125],[-58.39742521948831,-34.566638077087994],[-58.39742525325249,-34.566638096937616],[-58.39744371423958,-34.56665084406537],[-58.397453163099364,-34.56665736377721],[-58.3974790121294,-34.566676958520155],[-58.397485436015586,-34.566682155106044],[-58.39749230419779,-34.56668772151629],[-58.39749233577698,-34.566687748576115],[-58.39749303596634,-34.56668834569838],[-58.39749861461552,-34.566693101030026],[-58.39749871588692,-34.566693187621645],[-58.39750168325182,-34.566695719527374],[-58.39750906192478,-34.56670200735361],[-58.39751961440504,-34.56671158619765],[-58.397530126597495,-34.56672112986342],[-58.39753698623922,-34.566727863614766],[-58.397537048303036,-34.56672792404383],[-58.39753730744442,-34.566728179287374],[-58.39755738551403,-34.566747888090035],[-58.39756584792169,-34.566756195693436],[-58.39757855402982,-34.56676939762663],[-58.39759643433837,-34.56678898895541],[-58.39760775762954,-34.566802228902574],[-58.397607787023084,-34.56680226407404],[-58.39785686513748,-34.56706336103567],[-58.39793231206069,-34.567141594859145],[-58.39799378332448,-34.567205334323184],[-58.39803755695481,-34.56724983414974],[-58.39806436033703,-34.56727708239386],[-58.39810007384597,-34.567312980077695],[-58.39818783230187,-34.56740119190246],[-58.39829057396165,-34.56750497207828],[-58.39835947286328,-34.56757456557198],[-58.39839264390265,-34.56760828667245],[-58.39839320791383,-34.56760886028001],[-58.398393546538145,-34.56760920480519],[-58.398433923454704,-34.56765025201781],[-58.398433960475295,-34.56765028899603],[-58.39865983655751,-34.567883265458384],[-58.39882671520063,-34.56805632674731],[-58.398888485061306,-34.56812038231056],[-58.39892397628805,-34.568157187368556],[-58.39892400568538,-34.56815721893398],[-58.39900150659954,-34.56823672237618],[-58.39908909027963,-34.568326568637275],[-58.39922098117165,-34.56846186911986],[-58.39922114123109,-34.56846203326359],[-58.3993705814345,-34.56861533617648],[-58.39937060212219,-34.56861535782158],[-58.39946959831547,-34.5687175304845],[-58.39951211347105,-34.568759646642626],[-58.39953165336292,-34.56877900147396],[-58.39953168385111,-34.5687790321384],[-58.399542114085634,-34.56878951937916],[-58.399565440846395,-34.568812968661156],[-58.399895289468795,-34.56915533381124],[-58.39991798775098,-34.5691786772312],[-58.39992623801226,-34.569187162138874],[-58.3999264451568,-34.56918702973666],[-58.39995434863767,-34.56916915450153],[-58.400190826728426,-34.56901765878398],[-58.400146174973834,-34.56896874319649],[-58.400019912007686,-34.568827286224995],[-58.399958893286296,-34.568758924523195],[-58.39992147747503,-34.56871700603014],[-58.399725307759184,-34.56848913325661],[-58.39941990486356,-34.5681445439659],[-58.399411432192245,-34.568134983503775],[-58.39941140714725,-34.568134960053555],[-58.39932114292136,-34.56804764652739],[-58.399266406409325,-34.56799253973245],[-58.399232666375696,-34.567956968844314],[-58.399209611934566,-34.567932665987136],[-58.39920959124846,-34.56793264253919],[-58.39919398531953,-34.56791549793498],[-58.39917257847737,-34.56789198045853],[-58.39916105481916,-34.56787915037755],[-58.399152540977475,-34.56786967132903],[-58.399113310891785,-34.56782598467833],[-58.3990896265227,-34.56780029819967],[-58.399068930044656,-34.567777852170565],[-58.39903577475112,-34.56774305135324],[-58.39903544266518,-34.56774270232612],[-58.399032172975915,-34.567739270674664],[-58.399009693938474,-34.56771647346513],[-58.39898292381764,-34.567689315590506],[-58.39894873525201,-34.56765493156543],[-58.39891369850737,-34.56761969433321],[-58.39891302509005,-34.567619017103155],[-58.398912371210024,-34.56761835952099],[-58.398912354116256,-34.567618342621635],[-58.39891233745549,-34.56761832615037],[-58.39888606238535,-34.56759223039639],[-58.398876926925645,-34.56758315902155],[-58.39887689317184,-34.567583124749525],[-58.3988174064048,-34.56753344453801],[-58.398781396772485,-34.56749526449505],[-58.39876411371449,-34.56747498316444],[-58.39872954485962,-34.56743799645565],[-58.39865464064717,-34.567364020855976],[-58.39856243604249,-34.5672924212123],[-58.398385236457784,-34.56714803295971],[-58.3982786225467,-34.567069269907115],[-58.398220991667195,-34.56702869390304],[-58.39815328903945,-34.56696426163443],[-58.398092785409425,-34.5669117590554],[-58.39802651700302,-34.56685567469761],[-58.39797465854393,-34.56680794703439],[-58.397927073468004,-34.5667565239828],[-58.39787779795281,-34.56671397906474],[-58.39782916828131,-34.56667192214504],[-58.39778163121542,-34.56662896616773],[-58.39774326576629,-34.566594610303],[-58.397728331402696,-34.56658123672322],[-58.39768943566337,-34.56654782515557],[-58.397673247025686,-34.56652703785976],[-58.397660634201934,-34.56651084214],[-58.39764937280487,-34.56649174067106],[-58.397635918552986,-34.566468919690884],[-58.39761878863156,-34.56644556650817],[-58.39760868311326,-34.56643178967089],[-58.397589120992706,-34.56639070110085],[-58.39756826186734,-34.56634724738527],[-58.3975538766806,-34.56630907861525],[-58.397533724049175,-34.566272100226065],[-58.397503476426955,-34.566241078433],[-58.397471783289866,-34.56621363361785],[-58.39743000095697,-34.56618618244937],[-58.39739333290266,-34.56615954441088],[-58.39733305367767,-34.56613192727448],[-58.39726766332692,-34.56610373493731],[-58.3972042378183,-34.56607262120145],[-58.39720251634762,-34.5660716571674],[-58.397201551894526,-34.56607111706775],[-58.39717568914295,-34.566056633432915],[-58.397131949907845,-34.5660321386019],[-58.39705034059167,-34.56600738982249],[-58.3969826329244,-34.565950112422456],[-58.39694661912953,-34.56591908735736],[-58.39687887251301,-34.56583422800322],[-58.39683429397669,-34.56577592465733],[-58.39680406468825,-34.56572105183146],[-58.39676808619632,-34.56564590456512],[-58.396750855306934,-34.565561225899714],[-58.39674801876069,-34.565503983712475],[-58.396752388115544,-34.56544674545297],[-58.396777755335286,-34.565331781307734],[-58.396806641611256,-34.5652611999514],[-58.39684012852724,-34.56520683957503],[-58.39688515098414,-34.565147715111095],[-58.396925549180814,-34.56510194456683],[-58.39703979420499,-34.56500660495255],[-58.39710785272996,-34.5649818372934],[-58.39727973689424,-34.564912287884255],[-58.39737894362132,-34.56487418046316],[-58.397428573069924,-34.56482269066978],[-58.397502424794276,-34.56476358242797],[-58.397575116063834,-34.56471401242237],[-58.397648950686836,-34.5646777994399],[-58.39777355487503,-34.5646044081531],[-58.39787624229934,-34.56453863557888],[-58.398400854489246,-34.56406534159163],[-58.398403628454005,-34.56406286504172],[-58.39850286621569,-34.563982780837335],[-58.398622853972256,-34.56391224735522],[-58.398724377104486,-34.5638579224753],[-58.398848971384886,-34.56379597730459],[-58.399073913712186,-34.563706419122894],[-58.39921117582483,-34.56366546818596],[-58.399304597049046,-34.56364929870672],[-58.399400324989024,-34.563633131264844],[-58.39947771501261,-34.56362366430994],[-58.399516808935424,-34.56361888201507],[-58.399607896388424,-34.563638009190804],[-58.399813103429786,-34.56372016132618],[-58.399876505304476,-34.56375263125604],[-58.39991968387231,-34.56377588114573],[-58.39992261397802,-34.56377745888658],[-58.40006785610464,-34.56385767202573],[-58.400094904332555,-34.5638755197825],[-58.40013586123712,-34.56390254514509],[-58.400176199757446,-34.563934048371344],[-58.40022632704739,-34.563963412145604],[-58.400273932494656,-34.56397171364112],[-58.40027613436234,-34.563972097884616],[-58.400302933756436,-34.56398976076933],[-58.40033464296819,-34.56399454748351],[-58.400472947114835,-34.56410075283177],[-58.40047417217293,-34.564101798216875],[-58.400713525195606,-34.564305989054326],[-58.40071355353978,-34.564305971040284],[-58.400847649064694,-34.56422019676068],[-58.40089375385157,-34.56425241843173],[-58.40090950061419,-34.5642315124579],[-58.400928995115265,-34.564212893515794],[-58.40095175975248,-34.56419701567931],[-58.40097723851934,-34.56418426807953],[-58.40100480682201,-34.56417496138856],[-58.4009774489697,-34.564134402111],[-58.40110581234354,-34.56404145105726],[-58.40092146339194,-34.56382193417825],[-58.400917153766926,-34.563801658867185],[-58.40091768433001,-34.56378864432517],[-58.400909892326204,-34.56378151104114],[-58.40089578782794,-34.56376859890344],[-58.400931556875406,-34.56374285888581],[-58.40094596514325,-34.5637340592972],[-58.400958091763016,-34.56372665395184],[-58.40095119205878,-34.563718079653505],[-58.40094844235654,-34.563714663211606],[-58.40094657084638,-34.56371233790303],[-58.40087576997123,-34.563633201437874],[-58.400876340649575,-34.56355775222872],[-58.40087756372467,-34.56354686360706],[-58.40088330613722,-34.56349574477315],[-58.4009433305612,-34.56341850055363],[-58.40098601963771,-34.56338990111835],[-58.40098962083337,-34.56338848230633],[-58.40099156966446,-34.563387714383126],[-58.40104174005849,-34.56336795183706],[-58.40111744027096,-34.563338177498586],[-58.401182101535554,-34.56333753074072],[-58.40122656711354,-34.56334341804708],[-58.40126166498409,-34.5633480656211],[-58.401598297684465,-34.563481798073205],[-58.401725071893416,-34.56358680359543],[-58.40181380571385,-34.563671754698376],[-58.402004224533464,-34.56378775963716],[-58.40201083239723,-34.56379178512522],[-58.4020204034147,-34.56379670361235],[-58.40216090809164,-34.563868899093315],[-58.402163243706234,-34.563871161043664],[-58.40219897024543,-34.563885193426515],[-58.40223587635304,-34.56389695569257],[-58.402349282436965,-34.56391939751964],[-58.402405273287776,-34.56393246891033],[-58.40243109153823,-34.563938496321455],[-58.40251750575809,-34.563952726046146],[-58.40253473156161,-34.56395441379013],[-58.402605003947706,-34.56396129888846],[-58.40269304566701,-34.56396416319631],[-58.40278108718146,-34.56396130157193],[-58.402832240813126,-34.56395896608077],[-58.40297746811771,-34.56395233851731],[-58.40303676827824,-34.56394603829901],[-58.403084723887055,-34.56394094333647],[-58.403185095114075,-34.56392374939279],[-58.403284185891195,-34.56390515752408],[-58.40338122284385,-34.56388023113579],[-58.40347561634985,-34.56384912228508],[-58.40349313190301,-34.5638419942641],[-58.40356678983821,-34.56381202089708],[-58.403654189598925,-34.563769151163896],[-58.40373728260105,-34.5637207760503],[-58.403815565216476,-34.56366718828357],[-58.403886830556594,-34.563605852885445],[-58.403936053308804,-34.56356643305699],[-58.40371455951786,-34.56344554825279],[-58.40363622270745,-34.56340280575331],[-58.40363619438738,-34.56340279131663],[-58.40360134080386,-34.56344643132616],[-58.40356419254642,-34.563492943052886],[-58.40356416313862,-34.563492925911326],[-58.40339897521673,-34.56340298704467],[-58.403222921766144,-34.563307131043324],[-58.4032228803758,-34.563307109388674],[-58.403239379014224,-34.563285100133],[-58.403269135872904,-34.56324540597336],[-58.40326967357491,-34.56324468870123],[-58.40328960780808,-34.56321809646609],[-58.403258140170976,-34.56321999742914],[-58.403114047017645,-34.56314241269884],[-58.4015614349261,-34.56234265139089],[-58.40075813177828,-34.5619159184678],[-58.3997422993641,-34.56138770509167],[-58.398891595803015,-34.560940622363056],[-58.398880142690885,-34.560932592708475],[-58.39883281724119,-34.56099171673532],[-58.398697668943875,-34.56092114910933],[-58.398695647466596,-34.56092009336874],[-58.39869564926135,-34.56092009106227],[-58.398705763485246,-34.56090709288972],[-58.39870603616833,-34.56090674245426],[-58.39870603620629,-34.560906742405436],[-58.39868152909343,-34.56089350138085],[-58.39867952429921,-34.56089241820391],[-58.398789758489,-34.56075319053227],[-58.398947928011026,-34.560835942179104],[-58.39894770650574,-34.56083635401498],[-58.39892624013829,-34.56087624441379],[-58.39892819191304,-34.56087726135244],[-58.39990915206769,-34.56138838858812],[-58.40027548555348,-34.561590709069506],[-58.40172360248503,-34.56233975227172],[-58.40185688178244,-34.562417333209815],[-58.402004580257675,-34.562488958296576],[-58.40248556007915,-34.56273075176882],[-58.403326152335865,-34.56316869725097],[-58.40332767642161,-34.563169491805645],[-58.403328000741425,-34.56316966088391],[-58.403360331854884,-34.563129074650845],[-58.40340052621344,-34.56307862343556],[-58.40340207093659,-34.563079473036204],[-58.40341783905092,-34.56308814552666],[-58.40351572625628,-34.56314198357468],[-58.40354490696888,-34.56315803336068],[-58.40373708540082,-34.56326373765578],[-58.403737133327084,-34.56326376201774],[-58.40366929349583,-34.5633532334679],[-58.40366929352657,-34.56335323348462],[-58.40367128565426,-34.563354317957135],[-58.40384236746448,-34.56344749004404],[-58.40388463966422,-34.56347051055441],[-58.40391075999524,-34.563484736075736],[-58.40391076000559,-34.56348473606271],[-58.40391093655322,-34.563484513443655],[-58.4039112624812,-34.56348410246232],[-58.40416428324736,-34.563165052537286],[-58.40418021452286,-34.563144963682255],[-58.40441677243544,-34.56284666843727],[-58.40443181060652,-34.56282770604172],[-58.404432050536215,-34.5628274041791],[-58.40447569227517,-34.56285037647039],[-58.40464884021522,-34.56294151841476],[-58.40466050759445,-34.562946627002624],[-58.40467301075171,-34.56295013325202],[-58.404686028308575,-34.562951949569864],[-58.404699229052184,-34.56295202802137],[-58.404712276289146,-34.56295036664207],[-58.40472483874205,-34.56294700944295],[-58.40473659382281,-34.56294204010227],[-58.40474015271931,-34.562939883233575],[-58.404747243974434,-34.5629355855788],[-58.404752308719246,-34.562931339437924],[-58.40475651667457,-34.56292781160494],[-58.4047565165923,-34.562927811285334],[-58.40475606346804,-34.562926050910875],[-58.40475504591294,-34.562922097738976],[-58.40474704638502,-34.56289101979237],[-58.40474687322924,-34.56288924581764],[-58.40474338646716,-34.56285352404651],[-58.40474559967174,-34.56281595179178],[-58.4047536463267,-34.56277892769831],[-58.40479636850909,-34.56270071956336],[-58.40482368941713,-34.562666825442975],[-58.404856091130206,-34.56263614914206],[-58.405078401118004,-34.56243254437647],[-58.405181841919216,-34.56233522322162],[-58.405232451729546,-34.562287607738895],[-58.40540496247708,-34.562127891733056],[-58.40559766478202,-34.56195149057755],[-58.40577248248081,-34.561789390856056],[-58.40583335493452,-34.561733171182865],[-58.40597845431985,-34.561599162026],[-58.406140578517295,-34.56144707337682],[-58.406335948900775,-34.56126661405437],[-58.40641982038864,-34.56118914296216],[-58.406592845437274,-34.56102859365857],[-58.40659292050858,-34.56102545974012],[-58.406649658136814,-34.56096270679889],[-58.40675821524691,-34.56084986848453],[-58.40688749065543,-34.56071525619203],[-58.406992445765276,-34.56061002215259],[-58.40706271560827,-34.56053956536012],[-58.40717673039471,-34.56040497427453],[-58.407247085538216,-34.56032274578548],[-58.407387727665956,-34.56016040877629],[-58.40749151444748,-34.560036278743496],[-58.40765234584976,-34.55986635994988],[-58.40782561642494,-34.55968464506526],[-58.408040433133806,-34.559460796258385],[-58.40814006304768,-34.559364739265405],[-58.40822066342375,-34.55928702915196],[-58.40833339479073,-34.559178046991164],[-58.40844794296772,-34.55906702827273],[-58.4085538153963,-34.55896431739122],[-58.40863308731586,-34.55888424827041],[-58.40871877737271,-34.558797696236205],[-58.40878320133662,-34.5587358204612],[-58.40885896276954,-34.5586873121349],[-58.40891968707179,-34.55868113032032],[-58.408951069841386,-34.55868227318167],[-58.40897562350599,-34.55869357297782],[-58.4090112599006,-34.558662719341804],[-58.40906592867372,-34.558614414713624],[-58.40912445611153,-34.55855971661785],[-58.409177313730495,-34.55850798760121],[-58.40921045859479,-34.558475802083706],[-58.409225487052545,-34.55844645768237],[-58.409214580580105,-34.55843177732192],[-58.40919003207678,-34.55841257536748],[-58.40918048937945,-34.558399024495216],[-58.40918051862329,-34.55835386903283],[-58.409198281174255,-34.55831662363794],[-58.409211948036514,-34.558282763086545],[-58.40922561196577,-34.55825341807971],[-58.409198327217986,-34.558245503783546],[-58.40916556769808,-34.5582307015096],[-58.40910693912703,-34.55819466334097],[-58.409087298868,-34.55817785467267],[-58.409066027072015,-34.55815964967938],[-58.409078312624196,-34.55815175292778],[-58.40912061918046,-34.55814048284031],[-58.40915609888103,-34.55813598303231],[-58.40919402187771,-34.55813530263287],[-58.409246838189425,-34.5581350354637],[-58.409252988256554,-34.558119798212836],[-58.40926324383821,-34.55808593614436],[-58.40927419187402,-34.55803626996404],[-58.409283771759476,-34.557992247611786],[-58.40928925889982,-34.55794709456095],[-58.40929887451174,-34.55784775676075],[-58.409304409775096,-34.55772809718755],[-58.409329045592386,-34.55761183271796],[-58.40937688552742,-34.55748316073431],[-58.40942061513937,-34.557380451317954],[-58.40946980473418,-34.55727435763033],[-58.40952422975303,-34.55721915385742],[-58.40952571267121,-34.55721823816359],[-58.409435791979014,-34.55713952754788],[-58.409435791979014,-34.557139527547875],[-58.409435792000195,-34.55713952753178],[-58.40943688840158,-34.55713869402967],[-58.40945005872514,-34.55712868173414],[-58.409450058979424,-34.55712868154084],[-58.40947274140295,-34.55711144811282],[-58.409482144445825,-34.557104304829586],[-58.40947912437113,-34.55710068426187],[-58.40947727030297,-34.557098460521274],[-58.40944219529247,-34.557054939397965],[-58.409414371297984,-34.55700796899271],[-58.40941025491436,-34.5569978044938],[-58.40939428597748,-34.55695837271149],[-58.40939428480862,-34.55695836982526],[-58.40938773149693,-34.55690722346906],[-58.409389792301674,-34.55685581860023],[-58.409400427346185,-34.55680514316671],[-58.40941943224174,-34.556756172422006],[-58.409446442461046,-34.55670984729313],[-58.40948093770833,-34.55666705815711],[-58.409522256094505,-34.55662862862211],[-58.4095669480299,-34.556604879424484],[-58.40961524608468,-34.556586587243366],[-58.40966618033909,-34.556574118529916],[-58.409718731921316,-34.556567723430945],[-58.40977184935302,-34.556567530387795],[-58.409771849353035,-34.556567530387795],[-58.40982446707337,-34.556573541637256],[-58.40987553267329,-34.55658563773081],[-58.409911732296415,-34.5565990296533],[-58.409924023238354,-34.556603576640356],[-58.40992402323836,-34.556603576640356],[-58.40996896713491,-34.55662699917573],[-58.41000946579501,-34.55665543710708],[-58.41000949955241,-34.55665546596755],[-58.4100246315812,-34.55666840807492],[-58.41003308291595,-34.55667563130577],[-58.41004341813214,-34.55668446891541],[-58.41005886240933,-34.55667419125],[-58.41006721184239,-34.55666863758209],[-58.41008451020586,-34.55665713387722],[-58.41017047975179,-34.556735364757614],[-58.410203340404074,-34.556719146459],[-58.4102837502589,-34.556682048036734],[-58.41046555252687,-34.55660103863503],[-58.410597681069895,-34.556538269408044],[-58.410713066399616,-34.55648423309413],[-58.41086518130568,-34.556414752856114],[-58.41097437264238,-34.556360048669596],[-58.410958699354815,-34.5563312553259],[-58.410946444656915,-34.55629061012956],[-58.410941695210994,-34.556248839263255],[-58.41094240325543,-34.55620763518065],[-58.41098741912357,-34.55622571667364],[-58.411026974698196,-34.55624774691784],[-58.411062435852735,-34.556271468728355],[-58.41108357194754,-34.55629236218451],[-58.411180473334376,-34.556252892534054],[-58.41135044065064,-34.556167724082634],[-58.411459592352415,-34.55611302934188],[-58.41159744873342,-34.55603858123457],[-58.411830848760125,-34.55591224446711],[-58.412019202431374,-34.555816368297855],[-58.412198004507424,-34.55572048783883],[-58.412308560927286,-34.55566183191741],[-58.41249173868106,-34.55556907334533],[-58.41258699454617,-34.55552083695869],[-58.41279171642261,-34.555430610825624],[-58.41295432669987,-34.555360681961226],[-58.4131390595388,-34.55527950543964],[-58.41332939995788,-34.555196658911846],[-58.41354835913428,-34.55511030440967],[-58.41373826961,-34.5550424502346],[-58.413879875574835,-34.554991021407346],[-58.41405139587492,-34.554931028274616],[-58.41404187008445,-34.55488812670459],[-58.41404053425638,-34.55483958400021],[-58.41404600996914,-34.55480910624477],[-58.414055575661855,-34.55478427457651],[-58.41409649613407,-34.55480573993829],[-58.414144230182714,-34.554841883568095],[-58.414182408561246,-34.55488592554819],[-58.414233387490555,-34.55486802403344],[-58.41429158613324,-34.554847587243536],[-58.4143994153856,-34.554813716769914],[-58.41449276781937,-34.554784393541006],[-58.414553606235366,-34.554765283343734],[-58.41465688171381,-34.554736152452286],[-58.414777410499894,-34.554702154787805],[-58.41486311178392,-34.554674284140845],[-58.414969088601154,-34.55463981964194],[-58.415171897539814,-34.554579740416514],[-58.41534511405329,-34.554530788166204],[-58.4154848022661,-34.55449104077749],[-58.41559075186426,-34.55446089336407],[-58.41566883623027,-34.55444022843244],[-58.415772737583126,-34.55441273097347],[-58.41587186701431,-34.55438649630261],[-58.41594010131777,-34.55436394503604],[-58.41594151116386,-34.554283794557605],[-58.41595928518177,-34.55421945485207],[-58.41602338581489,-34.55426802186034],[-58.416077928503086,-34.55432900290282],[-58.4162457736401,-34.55429294329839],[-58.41649003988294,-34.55423320614436],[-58.41663556130739,-34.55420092981105],[-58.41703140664205,-34.55411862361324],[-58.417462987046655,-34.55403263327155],[-58.41762910780917,-34.55400539749258],[-58.417861434583216,-34.55396730671728],[-58.41813707494871,-34.55391773792604],[-58.4184290868372,-34.55387043230528],[-58.41870472293394,-34.55382763555661],[-58.418995704218126,-34.55378774276548],[-58.419275208109404,-34.553751036786615],[-58.41947431032022,-34.55372518543263],[-58.41968171032748,-34.553709455272454],[-58.4199068567358,-34.55367327421546],[-58.420027728573395,-34.55364647393204],[-58.42016067100007,-34.55361366997504],[-58.42027256487127,-34.55359113170177],[-58.42036398140989,-34.55359003499559],[-58.42040353560577,-34.55361714220687],[-58.42067440649154,-34.55355063268995],[-58.42090911592665,-34.55349201223659],[-58.42131303344267,-34.553391680785126],[-58.421686928139565,-34.553300933313864],[-58.422024661507734,-34.553217510248246],[-58.42236171089185,-34.55313634379357],[-58.422363965851375,-34.55314098549211],[-58.422379282509866,-34.55313703792715],[-58.42232955668771,-34.55302391620012],[-58.42231795861908,-34.55298916851394],[-58.42283328328588,-34.552876050549],[-58.4228332832859,-34.55287605054901],[-58.42288697804703,-34.5530243859248],[-58.42313490929081,-34.55295571120749],[-58.42332595559947,-34.5529027923902],[-58.42342868443277,-34.55287433720419],[-58.42369244391801,-34.552801275657615],[-58.4236931750632,-34.552801073073134],[-58.424237065448274,-34.552650413002986],[-58.425704542147976,-34.55216363570151],[-58.42520250865792,-34.55120370994254],[-58.42423340599072,-34.54931898539634],[-58.42419882007931,-34.54931038820529],[-58.4241884524756,-34.54929035060375],[-58.42418071379557,-34.54927451314631],[-58.42418151669898,-34.54926067481217],[-58.424186299271994,-34.549252109597205],[-58.4242102007209,-34.54923366579608],[-58.424222944171966,-34.549232351913986],[-58.42425161247198,-34.5492389508909],[-58.42426116529037,-34.549248179673135],[-58.424269122179226,-34.54926399774989],[-58.42438543433476,-34.54919154701426],[-58.42439817593666,-34.54919418699659],[-58.424415689969855,-34.54921000810846],[-58.42472319775072,-34.54902163720871],[-58.42473594055341,-34.54902164123396],[-58.42476300381988,-34.549054598806805],[-58.42476299835172,-34.54906646045525],[-58.42475343395185,-34.549082272969784],[-58.42473112308554,-34.54910598922469],[-58.42446504456275,-34.5492614242983],[-58.42446344619714,-34.5492732854397],[-58.424323232237285,-34.549364839056665],[-58.42452245810591,-34.54976495993783],[-58.42558271285858,-34.551854466377456],[-58.425668022697465,-34.55197218736329],[-58.42602010589908,-34.55185829178647],[-58.426081008448016,-34.55196746796463],[-58.42630341778694,-34.5518850315],[-58.4265005421999,-34.55180954354172],[-58.426574842020905,-34.55182500542116],[-58.42657484202401,-34.551825005427084],[-58.426671279732936,-34.55200844741999],[-58.42675992984133,-34.55202961987682],[-58.426761606207805,-34.55203002024557],[-58.426761606207826,-34.55203002024557],[-58.426762747704004,-34.552029595267754],[-58.42677030884998,-34.552026780562706],[-58.426796279786785,-34.55201711148353],[-58.42679649962212,-34.55201702995189],[-58.42679665119699,-34.55201697337642],[-58.426905080055505,-34.55197650210903],[-58.426996214963054,-34.55193684470429],[-58.42731398453808,-34.55179856662597],[-58.42848364661082,-34.551289576368916],[-58.42848404543013,-34.551289402506725],[-58.428607303301405,-34.551235912498356],[-58.42871598672347,-34.55118874717576],[-58.42878668537527,-34.551158041948675],[-58.42903862338912,-34.55105961198231],[-58.42914757472289,-34.55101704560983],[-58.42914758003455,-34.551017043534586],[-58.42923282132203,-34.55099670616145],[-58.429401564156706,-34.55095644628778],[-58.42940156924731,-34.55095644608861],[-58.42976220444776,-34.55094233574065],[-58.43066661032947,-34.55104441172071],[-58.43098714296101,-34.551125015867285],[-58.43098714459271,-34.55112501627761],[-58.431513802157816,-34.55134845758674],[-58.43160818329038,-34.55138850019014],[-58.43168355732801,-34.55142047811737],[-58.431843782040445,-34.55151571858738],[-58.43210158398133,-34.55169833956175],[-58.432335420417324,-34.551863982695856],[-58.43339426383768,-34.55246777716875],[-58.43346247476692,-34.552506673413795],[-58.43438099910244,-34.55303043655711],[-58.4344261987988,-34.55305621010804],[-58.434633385043654,-34.55331621675238],[-58.43465660855799,-34.55359987138236],[-58.43411372952909,-34.5539635506837],[-58.43518472749922,-34.55446135220265],[-58.43533842733488,-34.5545331502805],[-58.435458934949985,-34.55459303812839],[-58.4355583880604,-34.554642402297205],[-58.43557606146025,-34.55465117451356],[-58.435720120941,-34.554722677856375],[-58.43598521801039,-34.55486569871285],[-58.436246392722076,-34.555035338226084],[-58.43653963802253,-34.55526808424857],[-58.43669017584574,-34.555386500033485],[-58.43672019636378,-34.55541477719225],[-58.43687287195778,-34.5555585855704],[-58.437102038313235,-34.55575173819217],[-58.43713932296816,-34.55578013218765],[-58.43718885433552,-34.555817852271986],[-58.43732666488206,-34.55592279989391],[-58.43733384865142,-34.55592827039186],[-58.437503883431035,-34.55604091475193],[-58.43770175306095,-34.55615349440089],[-58.43798925400528,-34.556266091440136],[-58.438346045930835,-34.556371731232154],[-58.43881459168942,-34.55651119512737],[-58.43915162894918,-34.55664732213577],[-58.439542031744864,-34.556803810167544],[-58.439837958440286,-34.55693992726851],[-58.44009987432891,-34.557077645340264],[-58.44016179630621,-34.557110204081724],[-58.44044561932123,-34.557309275903],[-58.440695735091076,-34.55751636984848],[-58.440916994165654,-34.55772733052577],[-58.44106131376859,-34.55790250180212],[-58.441167158312986,-34.558077665934064],[-58.44125366733226,-34.55830458741591],[-58.44134025034915,-34.55857925751683],[-58.441378680243595,-34.558750465551526],[-58.44138828018455,-34.55882208848241],[-58.44133563762436,-34.5589628569298],[-58.44130216392256,-34.55904095157672],[-58.441262546704294,-34.559174397325286],[-58.44121682110674,-34.5593122841931],[-58.44121075059262,-34.55933058930553],[-58.44113152747517,-34.55955219925914],[-58.4410340885502,-34.559768735297205],[-58.44096101122446,-34.55991985273797],[-58.4409586645355,-34.559922891925275],[-58.44084826858688,-34.56006589140677],[-58.440656425174275,-34.56028248003852],[-58.44064836357134,-34.56028951869876],[-58.44061881887944,-34.560315317502436],[-58.440492011577994,-34.560426044269704],[-58.44033066344391,-34.560562003501744],[-58.44016923188244,-34.56069042656081],[-58.439910212138855,-34.5608855184117],[-58.43989515835192,-34.56089685729751],[-58.43983969386139,-34.5609342748559],[-58.439697290020334,-34.56103034326841],[-58.43947192321032,-34.56117382399658],[-58.43947040517112,-34.56117461154859],[-58.43946981125078,-34.56117491881969],[-58.43944417785576,-34.56118820357018],[-58.43924358388997,-34.56129216198463],[-58.43892695972631,-34.56144069421765],[-58.43868943074011,-34.561538887817086],[-58.43867868388529,-34.56154282398995],[-58.438526295726334,-34.56159864565247],[-58.438476338353766,-34.561616945313965],[-58.43846389275331,-34.5616209757724],[-58.43833985840081,-34.56166114696175],[-58.43825099008908,-34.561689928488875],[-58.43798307694817,-34.56176290332876],[-58.43766034366643,-34.56183333036137],[-58.43729427184593,-34.56187865516193],[-58.437279902598384,-34.56188043422361],[-58.4372062665511,-34.56188795354483],[-58.43710794256421,-34.56189743985218],[-58.43702792252345,-34.56190474676176],[-58.436894270532036,-34.56191612640126],[-58.436782072906446,-34.56192420141377],[-58.43668187806621,-34.56192995415765],[-58.43664572536853,-34.56193148771187],[-58.436620756590294,-34.5619325468445],[-58.43657919186999,-34.56193383490915],[-58.43655308016808,-34.56193464408221],[-58.43644760978335,-34.561935818927225],[-58.436365633069926,-34.56193523747608],[-58.43630323687483,-34.561934025696],[-58.43622032473605,-34.561931753762686],[-58.436118855848,-34.56192821023491],[-58.436028198364994,-34.56192382349888],[-58.435999361512465,-34.56192139311337],[-58.435938562894606,-34.561916268404644],[-58.43589320810606,-34.5619121287889],[-58.43582177426904,-34.56190560802608],[-58.43574660993285,-34.56189812635858],[-58.43567161688854,-34.561890010979646],[-58.43557312961732,-34.561878791110985],[-58.43549924388588,-34.56186997096079],[-58.435388755429074,-34.56185628370534],[-58.43527826608431,-34.561842103268454],[-58.43512743054709,-34.56182192704333],[-58.435030562285846,-34.56180838322875],[-58.434960847039065,-34.56179829631029],[-58.434861490176466,-34.56209525140676],[-58.43494769822199,-34.56216583615122],[-58.435405433619195,-34.562543094594],[-58.435830563870546,-34.56254945952307],[-58.436430168109744,-34.562583803062644],[-58.43671967554795,-34.56256715666779],[-58.43731926790257,-34.562532679919855],[-58.437709769947816,-34.56251481496748],[-58.438435805905556,-34.56248159593368],[-58.43874878664952,-34.56244870667276],[-58.439573039652835,-34.5623620855656],[-58.439656950758014,-34.562351538910946],[-58.44052418240242,-34.56224253002507],[-58.44116517463695,-34.56214001582999],[-58.44125313658571,-34.56224477859415],[-58.44134725860968,-34.56235687732135],[-58.44150001620857,-34.562528598797705],[-58.441971991985575,-34.563059115764695],[-58.44253792836607,-34.5636951427871],[-58.44262451863038,-34.563632269365975],[-58.44364880210122,-34.56424012711462],[-58.44461496514506,-34.564810643714125],[-58.445522493658274,-34.565346494113896],[-58.44606700023069,-34.56566798793127],[-58.44642867323815,-34.565880296703206],[-58.44732218130654,-34.56640493506377],[-58.447798178837154,-34.56668436864173],[-58.44785691346942,-34.56671888363027],[-58.44838846335784,-34.5672286077597],[-58.44904573923339,-34.56785884978229],[-58.44904676119445,-34.567859827048814]],[[-58.4345,-34.5757],[-58.436,-34.564],[-58.418,-34.56],[-58.4222,-34.5655],[-58.4345,-34.5757]]]}}