{"type":"Feature","properties":{"slug":"caballito","name":"Caballito","region":"caba","sort":18},"geometry":{"type":"Polygon","coordinates":[[[-58.46270615195231,-34.60737818546292],[-58.46219442349297,-34.60841214011865],[-58.46164213718542,-34.60952806533945],[-58.461076378452404,-34.610671170859355],[-58.46055421761376,-34.61172610476128],[-58.46048692318775,-34.611862020351616],[-58.46003783588012,-34.612761246611036],[-58.45954546369663,-34.61374695023683],[-58.459449971836904,-34.61389068145688],[-58.459034681789504,-34.61473948113432],[-58.45850079252648,-34.615905462794885],[-58.45820023380262,-34.61656560020092],[-58.457767363434506,-34.617511015850326],[-58.45729639992256,-34.61854178068003],[-58.457226282479326,-34.6186952303991],[-58.45662469500949,-34.62001197563701],[-58.456077702193305,-34.62120921249129],[-58.45555949372928,-34.62234349066524],[-58.455050302853266,-34.62345790697096],[-58.45477636592992,-34.62405170149421],[-58.45457663154294,-34.62448464608356],[-58.45403299380904,-34.62563574572414],[-58.45401986059911,-34.62565453750267],[-58.45393977973651,-34.62576912062865],[-58.45343882133873,-34.626785783086014],[-58.4528723214883,-34.62792934030768],[-58.45267341703769,-34.62833089959655],[-58.45267290765239,-34.628331933478954],[-58.45267095846444,-34.628335876112736],[-58.452570573514926,-34.6285465035358],[-58.4521046866971,-34.629524219158256],[-58.45199705483173,-34.62975005683256],[-58.45157819570984,-34.63064368852886],[-58.45323468568408,-34.63114447587016],[-58.454379774338605,-34.631505131229225],[-58.45394338032828,-34.63239433363048],[-58.45387196904294,-34.63253890741474],[-58.45338588291533,-34.63352317452157],[-58.45332435353949,-34.63364781841996],[-58.45290097720462,-34.63450807332738],[-58.45241793622657,-34.63548980172912],[-58.45204959146391,-34.63623829701672],[-58.45200345476895,-34.6363320482445],[-58.45192542370477,-34.63649061107567],[-58.451924122275535,-34.636493254810595],[-58.45160255106433,-34.63714670126117],[-58.45144278520724,-34.63747134917929],[-58.451304511578,-34.637516542618265],[-58.45088631941001,-34.637801371949124],[-58.450548367553964,-34.63803154723218],[-58.45032421410153,-34.63818701619146],[-58.44956079009405,-34.638695318125684],[-58.449556780494206,-34.63869836265971],[-58.44940936314111,-34.638810301917836],[-58.44812873453594,-34.63978290501036],[-58.44734089719906,-34.64038126031016],[-58.44715290473593,-34.6405249691276],[-58.44620618348753,-34.64125017654648],[-58.446056053032244,-34.64136387990141],[-58.445311040905736,-34.64193254073249],[-58.44525358714735,-34.6420440121951],[-58.44424608651493,-34.642811119164534],[-58.443599432414025,-34.64223128953569],[-58.44331444743382,-34.641975751157176],[-58.44308008824637,-34.641782048649475],[-58.44295410043636,-34.64199541005236],[-58.44244158026171,-34.642660117916314],[-58.442390950323166,-34.642725814370316],[-58.441477377361174,-34.64358277390022],[-58.44074763091086,-34.64426722418482],[-58.44062745354533,-34.64437945612423],[-58.44052415312361,-34.64447598753027],[-58.44018654837931,-34.64479134924772],[-58.439872635077606,-34.64508460103525],[-58.4396547790259,-34.64528850430599],[-58.43912027559578,-34.645788967361035],[-58.43885297895502,-34.64603912722385],[-58.43787250796383,-34.64695696169176],[-58.43742459106528,-34.647356519034055],[-58.43501496003608,-34.6462809756221],[-58.43492550133184,-34.64624102483316],[-58.433538897372564,-34.6456220978338],[-58.43348403061003,-34.64559757674166],[-58.43262063815403,-34.64522017690079],[-58.432110074021494,-34.645167863527476],[-58.432177494855495,-34.644206464891745],[-58.43221870385768,-34.64360830119426],[-58.43225531807449,-34.642990417777526],[-58.43230865982956,-34.64230056676731],[-58.43234695414734,-34.64174550061151],[-58.43211631483466,-34.641698329334254],[-58.431424231206734,-34.641554980261034],[-58.43116087796235,-34.64149885386691],[-58.43099771917386,-34.64146409181002],[-58.43092623623345,-34.641448862356704],[-58.43090030228068,-34.6414444709807],[-58.430788636905774,-34.641425562901894],[-58.43012645205672,-34.64131343497982],[-58.42992503458999,-34.64128570293838],[-58.429835683847486,-34.641273358796525],[-58.42973452207424,-34.64125938338114],[-58.429525306658505,-34.641223783675436],[-58.429253648603776,-34.64117755922849],[-58.42856906005808,-34.64106123852555],[-58.42835716611258,-34.641025191653945],[-58.427999153831244,-34.64096473602097],[-58.42767984620987,-34.640910783549494],[-58.42742549948051,-34.64086780698531],[-58.426771077364116,-34.64075725952861],[-58.42616956646667,-34.64065566853302],[-58.42585271598406,-34.640602122486754],[-58.42507245050832,-34.64047025796698],[-58.42497473275975,-34.640453481685014],[-58.42492122161083,-34.64044429474785],[-58.42349481677904,-34.64020460971672],[-58.423762511712404,-34.63917285610452],[-58.42404633329755,-34.638078712652245],[-58.424280385065195,-34.63717497675189],[-58.424318329061464,-34.63703735153587],[-58.42438877632778,-34.636781838551954],[-58.42452273278346,-34.6362511719518],[-58.42452850934023,-34.63622828590793],[-58.42467668336456,-34.63565903213808],[-58.42486269629172,-34.634880773041196],[-58.425185972136575,-34.63370551101121],[-58.42522565921716,-34.633553127971204],[-58.42545934301278,-34.632651783175085],[-58.425531633742956,-34.632369689814034],[-58.425689186649244,-34.63175466155628],[-58.42575576109357,-34.63148798951523],[-58.42580560577983,-34.631288566164734],[-58.42585418624352,-34.631067471413246],[-58.425856953084235,-34.631054876751385],[-58.425935454702106,-34.63069761394279],[-58.42598259091656,-34.630456428774856],[-58.426018284140234,-34.63027390255916],[-58.42621564556708,-34.62939930511143],[-58.42625363246733,-34.629230934460466],[-58.42631959308536,-34.62893816215205],[-58.426355179152914,-34.628780209319814],[-58.4264586717886,-34.62832084635757],[-58.426504937653384,-34.62811550552684],[-58.426758704696695,-34.62700303506082],[-58.42682220956969,-34.62672466990907],[-58.42697448515107,-34.62605217330092],[-58.427014730977305,-34.625867843375296],[-58.427043457126864,-34.62573627454654],[-58.42717899955627,-34.62513947734698],[-58.42724028754673,-34.624857167527544],[-58.42746489399811,-34.6237610245822],[-58.42749434796352,-34.62361222879752],[-58.42779818792835,-34.622079200302956],[-58.42784582504237,-34.62183850729086],[-58.42794451483298,-34.62133606501756],[-58.42807163094397,-34.6206886294172],[-58.42828038348047,-34.61962532285101],[-58.42828684462788,-34.61959241027265],[-58.42832039020718,-34.61943002375544],[-58.428553841141245,-34.618299583132455],[-58.42859020775102,-34.618123476799404],[-58.42859114078659,-34.618118958247585],[-58.428795879070336,-34.6171918212994],[-58.42922189746147,-34.615262198147285],[-58.429255350056906,-34.61511051469348],[-58.43003137426665,-34.61545404367607],[-58.430088676347964,-34.614020167365204],[-58.43013009070171,-34.613333056490355],[-58.430235682679296,-34.61190229091034],[-58.430257457400636,-34.61176475984214],[-58.430321504749486,-34.61113357170924],[-58.430333086825236,-34.61092040233685],[-58.43037349831735,-34.6101768825378],[-58.43041679013364,-34.60947040550568],[-58.4304767890353,-34.60873027019978],[-58.43051571134714,-34.60851872793139],[-58.43055231352328,-34.60792387095663],[-58.43056277026247,-34.60775865946521],[-58.430608699695775,-34.607052112479245],[-58.430671988778066,-34.60594640975917],[-58.431532337717904,-34.60494887570594],[-58.43233297017933,-34.60393329183726],[-58.43333687771966,-34.60267859363733],[-58.43386848608438,-34.60294098005149],[-58.4339166817943,-34.60296479551884],[-58.43497445608414,-34.60348674183715],[-58.43515106544892,-34.60358009520448],[-58.435340700284705,-34.60368027957137],[-58.43661880106533,-34.604288534246606],[-58.436854781641294,-34.60440081894897],[-58.4370271763962,-34.60448284771761],[-58.43705489191494,-34.60449603517349],[-58.43705590888823,-34.604496519455765],[-58.437059972380325,-34.60449858548707],[-58.43717717064443,-34.60455816667247],[-58.43719170898866,-34.60456555333019],[-58.437977552944886,-34.60496481983708],[-58.438513596197446,-34.60523714484717],[-58.43920415657378,-34.605587963253505],[-58.439287874778955,-34.605610938967494],[-58.440144027191465,-34.60584568591456],[-58.44033752032873,-34.60589875131387],[-58.44146765491223,-34.606208611508784],[-58.44160213139794,-34.60624419928247],[-58.44282638298506,-34.60657659821387],[-58.442982407051204,-34.6066174704082],[-58.444169541365774,-34.60692801903239],[-58.44513371589389,-34.60718021194922],[-58.44567997102396,-34.60736254865285],[-58.44624963503948,-34.60762073177344],[-58.4470422032722,-34.6074233015752],[-58.44906368321476,-34.60691974434303],[-58.449292038131404,-34.606862798232434],[-58.4502390132356,-34.60662691383477],[-58.45065798795473,-34.606520265713854],[-58.450740778223704,-34.60649921795832],[-58.450990376393555,-34.60643568776814],[-58.4510157831852,-34.60642922082632],[-58.45105192004396,-34.60642002274811],[-58.451509562039156,-34.60630358793919],[-58.45201702965371,-34.60617243671603],[-58.45243020767137,-34.60606564134306],[-58.45296075457058,-34.605928290969594],[-58.45307113939156,-34.60589949714835],[-58.45400369994378,-34.60565696314312],[-58.454984207834606,-34.60540195951653],[-58.455526414814415,-34.605260936288666],[-58.455805182805314,-34.60518862905957],[-58.45656508622253,-34.6049914873628],[-58.45808181449781,-34.604598035153366],[-58.45847564360012,-34.604497063269704],[-58.45878411059789,-34.604720109371726],[-58.45951467636853,-34.60521422332908],[-58.45965520247785,-34.605309229345316],[-58.46051463429087,-34.60589109174179],[-58.46154203401104,-34.60658879675415],[-58.46162494978215,-34.60664510431501],[-58.46215202577252,-34.60700303514255],[-58.46251153423726,-34.607247197010274],[-58.46270615195231,-34.60737818546292]]]}}