{"type":"Feature","properties":{"slug":"chacarita-colegiales","name":"Chacarita y Colegiales","region":"caba","sort":5},"geometry":{"type":"Polygon","coordinates":[[[-58.48879415727158,-34.58482403134742],[-58.488194550577354,-34.58544402522415],[-58.48808695455612,-34.58555644395922],[-58.487444181464824,-34.586228485680365],[-58.48689461131224,-34.58680304034448],[-58.486803357316546,-34.58690291865341],[-58.48669661113699,-34.587019843094915],[-58.48654420747557,-34.587181286679105],[-58.48644114679275,-34.58729045974319],[-58.486112129662075,-34.58763897808638],[-58.485561948101946,-34.58822162512931],[-58.48549104804764,-34.588296851978534],[-58.48543502049335,-34.58835629846099],[-58.485078924771926,-34.58873432698764],[-58.48471116308242,-34.58912468077005],[-58.48470691259766,-34.5891261733726],[-58.48398914629326,-34.58937815325347],[-58.48365126182417,-34.58949676986704],[-58.48250228739399,-34.58989893529024],[-58.48201294283056,-34.590070140339684],[-58.48186240128454,-34.59012284074439],[-58.48145862581178,-34.59025149502825],[-58.481289265332336,-34.590305464925294],[-58.481183083347005,-34.59033435404132],[-58.48087177511148,-34.59041904837825],[-58.479545807937114,-34.590756914504375],[-58.47808392834421,-34.591129359561876],[-58.47782591899012,-34.59119502591785],[-58.47720435282813,-34.59135338293095],[-58.47648379766588,-34.591562370565626],[-58.475890169642184,-34.591729162392305],[-58.47587550791374,-34.59169207933152],[-58.47575956339239,-34.5913988472578],[-58.47572522993756,-34.59131314699012],[-58.47539710226839,-34.591057164777304],[-58.475034200001915,-34.590774051259814],[-58.474061118160826,-34.59001497342673],[-58.473220564967654,-34.589359258661915],[-58.47308728658204,-34.589255042262224],[-58.47289754756057,-34.58910674421888],[-58.47211866777919,-34.58849799011523],[-58.47189469828779,-34.588322932381175],[-58.471235992436924,-34.587808038371435],[-58.471117535897385,-34.58770536837725],[-58.470878681637984,-34.587502530513305],[-58.47082004258457,-34.58745393024004],[-58.470816590465546,-34.587450980992124],[-58.47080588198998,-34.58746561988161],[-58.47023214297737,-34.587939228813845],[-58.46921301103883,-34.5887421837252],[-58.46889659897058,-34.588991428004704],[-58.46819207093211,-34.58954653901901],[-58.46807814024919,-34.58963626317084],[-58.46789404532005,-34.589781765488574],[-58.46766260530228,-34.589964664801705],[-58.46711942508026,-34.590393986176835],[-58.466960750905606,-34.59051936558707],[-58.466959083287456,-34.590520683518875],[-58.4668296389597,-34.59059866771143],[-58.46659377719411,-34.590740767557264],[-58.466532126776734,-34.59077788262987],[-58.46639434041122,-34.59086782666998],[-58.46605049448005,-34.591092278626355],[-58.46588118872456,-34.59121371583278],[-58.46502958546952,-34.59194194696291],[-58.464410674738474,-34.592472807973365],[-58.464383340566116,-34.592557035439725],[-58.464455572399395,-34.592799072422395],[-58.46482822856044,-34.59404775980511],[-58.46507519321033,-34.59490666776958],[-58.46520033553486,-34.59534188744646],[-58.465456157841345,-34.596151306191196],[-58.46551330596777,-34.596344124971175],[-58.4655559126789,-34.59648772268483],[-58.46557828935549,-34.59656314162962],[-58.46562158311472,-34.59670973743522],[-58.46554169395277,-34.59665173325999],[-58.46545206488289,-34.59662434333259],[-58.46534137198109,-34.596617371826106],[-58.46527256146072,-34.5966074428819],[-58.465162873213764,-34.59658159900494],[-58.465160766112724,-34.59658122314366],[-58.46461554099933,-34.59648399914624],[-58.463865271572864,-34.5964348494285],[-58.46376937993755,-34.59643287752143],[-58.46252225947923,-34.596507228022034],[-58.462481829037735,-34.596509638162864],[-58.46232368486699,-34.596516467983754],[-58.461506478331074,-34.596552092862716],[-58.461501832476216,-34.596552373136916],[-58.461010157604186,-34.596582577896584],[-58.46077340957438,-34.59659623519158],[-58.45927712189113,-34.596682886690694],[-58.459209929503906,-34.59669908212698],[-58.4582485293387,-34.596931514990466],[-58.45803327468241,-34.59698351438907],[-58.45794094552008,-34.597005818784496],[-58.45794015411769,-34.59700600985141],[-58.457933214578524,-34.59700849567093],[-58.457831655912244,-34.597044878902366],[-58.457616105769695,-34.59712191277013],[-58.45707514440152,-34.59730787516252],[-58.45649585686465,-34.5975069315957],[-58.45623823399996,-34.597595439389124],[-58.45605947352765,-34.59765690955797],[-58.45601124279276,-34.5976723147075],[-58.45592235752644,-34.59770070418574],[-58.455485973134834,-34.597840116317954],[-58.45479671677111,-34.59735809024457],[-58.45381828341016,-34.59667385254284],[-58.45376940445988,-34.596639622604954],[-58.453657170712354,-34.596561091730344],[-58.45282206601879,-34.59599404129737],[-58.45260926858388,-34.595849513897825],[-58.45208575212018,-34.595481150819374],[-58.451888539793295,-34.595342398099305],[-58.45170657084241,-34.59521491429682],[-58.450958963583034,-34.594665960753],[-58.450633204843356,-34.59442675903553],[-58.450602703613,-34.594404361805765],[-58.438644313985044,-34.588727153330225],[-58.43858578211013,-34.588697323281174],[-58.43853889691959,-34.588673428741366],[-58.43853841959034,-34.58867318165427],[-58.43854826368863,-34.58866725228023],[-58.43861698700342,-34.58862588542126],[-58.439391686149506,-34.58811384770685],[-58.440159136113465,-34.587606662332234],[-58.44109180033733,-34.58699020545466],[-58.4414001026414,-34.58678582080942],[-58.44242770728873,-34.58610429859956],[-58.443479737138766,-34.585406573926896],[-58.444588211785494,-34.58467138375304],[-58.444788089964234,-34.584519157278116],[-58.444402696145474,-34.583199021851996],[-58.444402238746825,-34.583197455104525],[-58.44440936622225,-34.58319439046155],[-58.44445103343923,-34.583176475673376],[-58.444451017095986,-34.583176453135245],[-58.443782159323064,-34.582257199123084],[-58.44376395414229,-34.58223342112256],[-58.44343418819475,-34.581802697597084],[-58.44342564986102,-34.58179475284818],[-58.442511928976494,-34.58094449983034],[-58.44228506905256,-34.58073340125159],[-58.441580372766715,-34.580077638737045],[-58.44154584930507,-34.580045512095516],[-58.440535783125064,-34.57910559178],[-58.43994155146995,-34.5785526522915],[-58.44022315369406,-34.578330110502804],[-58.44089118052464,-34.57780218157721],[-58.441816755510914,-34.576823667235594],[-58.44188079335612,-34.57677776255698],[-58.44256801686192,-34.57628536099367],[-58.442730481082044,-34.57616895308369],[-58.442921735548246,-34.576046095554624],[-58.44375678703525,-34.57550977902202],[-58.44397422558434,-34.575370125943124],[-58.443546104930284,-34.57493791639928],[-58.44314167900636,-34.57452962317707],[-58.44242303353998,-34.57380406511678],[-58.441705678478996,-34.573079911899],[-58.44074720899485,-34.57211211395189],[-58.44194652243676,-34.571451189060525],[-58.442206051780346,-34.5713082030005],[-58.4425467220178,-34.57113304656695],[-58.44295882822121,-34.57092121032677],[-58.44364228945086,-34.570569765836325],[-58.44383011830178,-34.570477610618795],[-58.444113138123555,-34.570338639179845],[-58.444888199884126,-34.569958046287994],[-58.44570744474864,-34.5695557646886],[-58.44649935138748,-34.56916692399704],[-58.446693559140755,-34.569071596712725],[-58.44704459763582,-34.56889213286718],[-58.4481355929735,-34.5683345864268],[-58.44864507093092,-34.56807422001779],[-58.44904676119445,-34.567859827048814],[-58.44993229373014,-34.56738731159502],[-58.45016523288596,-34.56726296784951],[-58.450782741195994,-34.566925771782955],[-58.450951527164584,-34.56683358015889],[-58.45158635296271,-34.56648682842476],[-58.4517205285052,-34.56641578349951],[-58.45228975065864,-34.56611435102797],[-58.45375189099381,-34.56693801468703],[-58.45387792259911,-34.56700901008574],[-58.45393667306297,-34.567043392343216],[-58.4547891110263,-34.567542256881076],[-58.45567851842323,-34.56806274928969],[-58.45631454548497,-34.56843500557505],[-58.456577557388435,-34.56858893993633],[-58.45747703156592,-34.56911526456009],[-58.457630023875744,-34.569004071714076],[-58.457711546291065,-34.56953246678639],[-58.457986510069745,-34.56979973865437],[-58.45879600625013,-34.57058654745734],[-58.459681284816014,-34.57144687613171],[-58.460263506506294,-34.57201429775204],[-58.460884557453895,-34.572616366352065],[-58.46138066625322,-34.57309741693001],[-58.46173207811257,-34.57343815755531],[-58.462524276217415,-34.574208109507786],[-58.46290484323376,-34.57459875344147],[-58.46335727075378,-34.575014325093214],[-58.4649932002541,-34.57400098400131],[-58.46603901654119,-34.573341867252324],[-58.46736584353383,-34.57250216497175],[-58.46808280219982,-34.57291482378605],[-58.46828909648342,-34.573032494057486],[-58.469135309397274,-34.57351500095047],[-58.46992703465557,-34.573966454375565],[-58.47086641760621,-34.57450210841864],[-58.47180725446759,-34.57503853661941],[-58.47195974798884,-34.57512549910249],[-58.472743762012946,-34.5755777739102],[-58.472887998634135,-34.57566100396008],[-58.47354838925784,-34.576038703721686],[-58.473685985224606,-34.576113623132734],[-58.47373571274625,-34.57614074730842],[-58.47383030814602,-34.57619234492401],[-58.47462021709969,-34.57664207137754],[-58.474852073538685,-34.57677409503681],[-58.474979986486964,-34.57684690185487],[-58.47500806430441,-34.57686288415109],[-58.47559550246726,-34.577196213356736],[-58.47715143818359,-34.57807909155434],[-58.477334340813094,-34.578182876146194],[-58.47777423026328,-34.578432900101554],[-58.47819973186784,-34.57867475459727],[-58.47865631576918,-34.57893428064965],[-58.4789890918047,-34.579130861790425],[-58.47923365123401,-34.57927533944862],[-58.48018439069738,-34.57982571491095],[-58.48031124831265,-34.57989912200798],[-58.480484559854105,-34.579999409258136],[-58.48099463591388,-34.58029469383219],[-58.48113011794943,-34.58037361915083],[-58.4821464533331,-34.58096544961349],[-58.48301437330534,-34.58147081468129],[-58.483134956403696,-34.58154093774674],[-58.48412168521295,-34.582114445801416],[-58.48474760422742,-34.5824782174961],[-58.48509616343863,-34.58268076455401],[-58.48582505124257,-34.58310437228392],[-58.485960371156004,-34.58318280005439],[-58.48703374798335,-34.583804508939046],[-58.48810424441528,-34.58442451782898],[-58.48879415727158,-34.58482403134742]]]}}