{"type":"Feature","properties":{"slug":"devoto-villa-del-parque","name":"Villa Devoto y Villa del Parque","region":"caba","sort":19},"geometry":{"type":"Polygon","coordinates":[[[-58.53151730936994,-34.61549898106118],[-58.530801392000946,-34.62752782007833],[-58.53080139093531,-34.62752785072713],[-58.53080107130572,-34.627533085439495],[-58.53080054292354,-34.62754177540328],[-58.530788845258215,-34.62773285007567],[-58.530446366538385,-34.63332665805026],[-58.53042726075618,-34.63363870408568],[-58.530408904004716,-34.63393851655659],[-58.53039409924552,-34.63418031545038],[-58.530393685908095,-34.63418706639124],[-58.530383096136525,-34.63436663542306],[-58.53037251278425,-34.63454610619063],[-58.5303575257912,-34.63480022662671],[-58.53002750207828,-34.63481008073702],[-58.53002052482278,-34.63481028917577],[-58.529836477065274,-34.63481578470077],[-58.529793702926916,-34.63481706189931],[-58.529625176756134,-34.634822093426706],[-58.5293899096721,-34.63482911697986],[-58.529319195080866,-34.6348328862433],[-58.52909258991479,-34.634844965089684],[-58.52890239380326,-34.6348551021156],[-58.528713512810576,-34.634865169631915],[-58.528540737842114,-34.634860710017314],[-58.52820521323532,-34.634847236168326],[-58.52795469494222,-34.63482681511387],[-58.52774344605873,-34.63480959446685],[-58.52738732871696,-34.63478056357537],[-58.52707564281244,-34.63475515465111],[-58.526919333464534,-34.634687841831635],[-58.52560351580451,-34.63459063259069],[-58.524299104116515,-34.63447558603445],[-58.52423033532763,-34.63445871883596],[-58.52327328765371,-34.634224261326324],[-58.5230367319272,-34.63416634868047],[-58.52233611324916,-34.63401780182501],[-58.52108218571217,-34.63382881984214],[-58.52102669361503,-34.63382804475908],[-58.52068660950892,-34.63382592736448],[-58.52078320025454,-34.633504450876636],[-58.520813210758384,-34.63340456779643],[-58.52074658179306,-34.63322429318182],[-58.52052553028385,-34.633008809596944],[-58.520388507608594,-34.63297429543554],[-58.520339735996565,-34.63291776873121],[-58.520239890158365,-34.63280211033947],[-58.520172983538586,-34.632917155213484],[-58.520066936523634,-34.63295107627878],[-58.51989520845899,-34.632972201477486],[-58.51989130789026,-34.632972627855],[-58.51988673887144,-34.63297312845871],[-58.51974561069824,-34.63298860899282],[-58.519744702313474,-34.6329886598926],[-58.51971833189844,-34.63299014591101],[-58.51968356355888,-34.632992104543305],[-58.519424255141104,-34.63300671532789],[-58.51933137035452,-34.63301118940206],[-58.51926182126099,-34.63301453945026],[-58.51925301107606,-34.63301496355282],[-58.51908150849626,-34.6330166610549],[-58.51908034159749,-34.633016629137536],[-58.51888724636046,-34.63300203140075],[-58.518801782402356,-34.63300282661042],[-58.51871811455032,-34.63300360562001],[-58.518521532932894,-34.633005435418546],[-58.51734745965089,-34.63301625732361],[-58.51708853355127,-34.63301908324975],[-58.51660686070161,-34.63308556963442],[-58.515936609913496,-34.633104267674234],[-58.515931863963665,-34.633104400427825],[-58.515368482003474,-34.633162248221964],[-58.514863194735256,-34.63320792677432],[-58.514072760856,-34.6334063178158],[-58.51391227996486,-34.63346265279328],[-58.513342973763976,-34.633662420955446],[-58.513322146500286,-34.63366972917707],[-58.5133176556721,-34.63367162850238],[-58.513316425845595,-34.63367214822311],[-58.51262224097699,-34.63396572148216],[-58.51253220785342,-34.63400378685232],[-58.51226440082679,-34.63412253379998],[-58.51186390560133,-34.63430011358375],[-58.51148425792011,-34.63446440143014],[-58.51144593545604,-34.6344809855148],[-58.51132677038102,-34.634532581846294],[-58.51067004306652,-34.6348222783488],[-58.510177323937164,-34.634776928220504],[-58.509597231576855,-34.63472353440303],[-58.50940458487736,-34.63470578996487],[-58.50922233247434,-34.63469015513259],[-58.508762998083846,-34.63465081899877],[-58.50838775113027,-34.63460419727518],[-58.50868088925014,-34.63438359377665],[-58.509086182712544,-34.634069495776394],[-58.509203793434736,-34.63397839399356],[-58.51010413215662,-34.633286213957646],[-58.511042267739484,-34.63256499848713],[-58.51204417152173,-34.63179473476738],[-58.51290716162279,-34.63113120840802],[-58.51302255279909,-34.63104250157631],[-58.513450745587434,-34.63071324657438],[-58.51403702241431,-34.63026242768964],[-58.51490688143219,-34.62959360456583],[-58.51512615366312,-34.62942505910741],[-58.515247582504834,-34.62933106347],[-58.515558674240395,-34.629090427743286],[-58.515647207231105,-34.62902194510697],[-58.51591373501165,-34.62881570135685],[-58.51638139211022,-34.628455283944646],[-58.51554628793716,-34.62772049559606],[-58.51542175197821,-34.62761082914505],[-58.5146779561508,-34.62695620840516],[-58.51456109360589,-34.62685322815552],[-58.514438862271035,-34.6267454617084],[-58.514106860968326,-34.626452920699045],[-58.513672152373886,-34.62606992782399],[-58.51356108849314,-34.625971310676704],[-58.51293827508026,-34.625418384066464],[-58.512712392539186,-34.625217846131555],[-58.51264726023528,-34.625161806061136],[-58.51261659026081,-34.62513541861667],[-58.512488994542835,-34.62502560973675],[-58.51181037101455,-34.62442424039639],[-58.5117757550084,-34.62439356445435],[-58.511650888646365,-34.62428368328802],[-58.51121201498537,-34.624618930939626],[-58.510873651647515,-34.624877414485745],[-58.51073507420902,-34.624983276078446],[-58.510562471735504,-34.62512024603848],[-58.510183884132715,-34.625420606914176],[-58.51008212593978,-34.625501350893586],[-58.509361717896624,-34.62605332117128],[-58.509255529040274,-34.62613463041436],[-58.50831224236742,-34.62683583501401],[-58.50818050337282,-34.62693384249923],[-58.507293237509266,-34.62759931332896],[-58.50717757878083,-34.627501325746024],[-58.50596214687933,-34.626361462605075],[-58.5058690725111,-34.6262741702041],[-58.504761746709654,-34.62523376559247],[-58.50466952785903,-34.62514703535489],[-58.503491746398566,-34.62403741662014],[-58.50269700305039,-34.62364753007438],[-58.50175400007499,-34.62317627619857],[-58.50158068737439,-34.62308949882065],[-58.50026985988887,-34.622433064307145],[-58.49934375487758,-34.621969180914256],[-58.49917300341,-34.62188317365888],[-58.49820080705291,-34.62137556273236],[-58.49722091761724,-34.62056709653273],[-58.496319102527416,-34.61982289859352],[-58.495446446107714,-34.61910284155275],[-58.49471336471806,-34.61849782296854],[-58.494657906485095,-34.6184520523264],[-58.494516457525876,-34.61833229803442],[-58.49379311161424,-34.61771965705454],[-58.493634536860625,-34.61758448361211],[-58.49277844865841,-34.616854754286834],[-58.49263657824567,-34.616733449244414],[-58.49156196139503,-34.61759385404473],[-58.490616426186776,-34.61835084020251],[-58.49048902487182,-34.61845234869528],[-58.48941274346182,-34.61930935527947],[-58.48833771754475,-34.620165365841544],[-58.48820417876521,-34.62027166151881],[-58.4872645438592,-34.62102115461667],[-58.486184789838774,-34.62188242921957],[-58.48511301976787,-34.62273728363004],[-58.48497095633082,-34.62285062003602],[-58.48403875918396,-34.62359719941292],[-58.48339123341826,-34.624115766100324],[-58.4827431937344,-34.62463474854925],[-58.481920950292654,-34.62429205552861],[-58.48188688103702,-34.624277402752135],[-58.481886845049566,-34.624277387433494],[-58.481822974906386,-34.6242499191969],[-58.48178787186382,-34.62423482215012],[-58.4817337707303,-34.624211519645186],[-58.48074071341942,-34.623784266900714],[-58.479756356512794,-34.62336066643075],[-58.479376809868015,-34.62319733484265],[-58.47879986222602,-34.622915363601564],[-58.47828666699951,-34.62264070673417],[-58.47811684439744,-34.62254981034508],[-58.47800702748165,-34.62249271061835],[-58.47780801107838,-34.62238921186758],[-58.47674256526256,-34.62183510173413],[-58.47602727899363,-34.62146306176143],[-58.475746396877895,-34.62131583488245],[-58.47549880859763,-34.62118435543004],[-58.474510338892195,-34.62066770799882],[-58.47419061512207,-34.620502452691795],[-58.47293524457761,-34.61985318470717],[-58.47278982568917,-34.61977805377159],[-58.47264466747249,-34.61970124780419],[-58.47162221904028,-34.61916024381256],[-58.471400643517015,-34.619043003859474],[-58.47038792788915,-34.61849566625799],[-58.46962900450949,-34.61808542497122],[-58.46937172650312,-34.6179463498689],[-58.46934313441669,-34.61793089374112],[-58.4693409809059,-34.61792972921336],[-58.46909479347166,-34.6178028383674],[-58.46879800569916,-34.61764989196826],[-58.46863640888795,-34.61756665932689],[-58.46796200123131,-34.61727471074118],[-58.46676423152851,-34.61675622321197],[-58.46665289628781,-34.61670805623945],[-58.46567874621544,-34.61628638400265],[-58.46554398751158,-34.61622800518193],[-58.464614055757025,-34.61582485949119],[-58.46453994984254,-34.61579273275089],[-58.46453951480469,-34.61579257771106],[-58.4644672898286,-34.615766817638],[-58.464374527650605,-34.615733719243],[-58.46413619074996,-34.615648649579974],[-58.46320550680111,-34.615303366101216],[-58.46303156906291,-34.61523822380727],[-58.46186639569673,-34.614801731754405],[-58.46066895234276,-34.614353043351],[-58.460395019119154,-34.61425043025604],[-58.460130625468615,-34.614149785494654],[-58.459449971836904,-34.61389068145688],[-58.45954546369663,-34.61374695023683],[-58.46003783588012,-34.612761246611036],[-58.46048692318775,-34.611862020351616],[-58.46055421761376,-34.61172610476128],[-58.461076378452404,-34.610671170859355],[-58.46164213718542,-34.60952806533945],[-58.46219442349297,-34.60841214011865],[-58.46270615195231,-34.60737818546292],[-58.46251153423726,-34.607247197010274],[-58.46215202577252,-34.60700303514255],[-58.46162494978215,-34.60664510431501],[-58.46154203401104,-34.60658879675415],[-58.46051463429087,-34.60589109174179],[-58.45965520247785,-34.605309229345316],[-58.45951467636853,-34.60521422332908],[-58.45878411059789,-34.604720109371726],[-58.45847564360012,-34.604497063269704],[-58.45847751980515,-34.604496581984606],[-58.458936500387324,-34.60437891052652],[-58.45827927760539,-34.60391218758795],[-58.45816464561099,-34.60383436486436],[-58.457919752208056,-34.60304391989552],[-58.45753428340895,-34.60179972878879],[-58.45725312900867,-34.60089230652348],[-58.45721506885978,-34.60076871150936],[-58.45698688145962,-34.60002742057244],[-58.456901057690985,-34.59973698858051],[-58.45658390225398,-34.59871244883445],[-58.456566788551115,-34.598662869642524],[-58.45623823399996,-34.597595439389124],[-58.45649585686465,-34.5975069315957],[-58.45707514440152,-34.59730787516252],[-58.457616105769695,-34.59712191277013],[-58.457831655912244,-34.597044878902366],[-58.457933214578524,-34.59700849567093],[-58.45794015411769,-34.59700600985141],[-58.45794094552008,-34.597005818784496],[-58.45803327468241,-34.59698351438907],[-58.4582485293387,-34.596931514990466],[-58.459209929503906,-34.59669908212698],[-58.45927712189113,-34.596682886690694],[-58.46077340957438,-34.59659623519158],[-58.461010157604186,-34.596582577896584],[-58.461501832476216,-34.596552373136916],[-58.461506478331074,-34.596552092862716],[-58.46232368486699,-34.596516467983754],[-58.462481829037735,-34.596509638162864],[-58.46252225947923,-34.596507228022034],[-58.46376937993755,-34.59643287752143],[-58.463865271572864,-34.5964348494285],[-58.46461554099933,-34.59648399914624],[-58.465160766112724,-34.59658122314366],[-58.465162873213764,-34.59658159900494],[-58.46527256146072,-34.5966074428819],[-58.46534137198109,-34.596617371826106],[-58.46545206488289,-34.59662434333259],[-58.46554169395277,-34.59665173325999],[-58.46562158311472,-34.59670973743522],[-58.46557828935549,-34.59656314162962],[-58.4655559126789,-34.59648772268483],[-58.46551330596777,-34.596344124971175],[-58.465456157841345,-34.596151306191196],[-58.46520033553486,-34.59534188744646],[-58.46507519321033,-34.59490666776958],[-58.46482822856044,-34.59404775980511],[-58.464455572399395,-34.592799072422395],[-58.464383340566116,-34.592557035439725],[-58.464410674738474,-34.592472807973365],[-58.46502958546952,-34.59194194696291],[-58.46588118872456,-34.59121371583278],[-58.46605049448005,-34.591092278626355],[-58.46639434041122,-34.59086782666998],[-58.466532126776734,-34.59077788262987],[-58.46659377719411,-34.590740767557264],[-58.4668296389597,-34.59059866771143],[-58.466959083287456,-34.590520683518875],[-58.466960750905606,-34.59051936558707],[-58.46711942508026,-34.590393986176835],[-58.46766260530228,-34.589964664801705],[-58.46789404532005,-34.589781765488574],[-58.46807814024919,-34.58963626317084],[-58.46819207093211,-34.58954653901901],[-58.46889659897058,-34.588991428004704],[-58.46921301103883,-34.5887421837252],[-58.47023214297737,-34.587939228813845],[-58.47080588198998,-34.58746561988161],[-58.470816590465546,-34.587450980992124],[-58.47082004258457,-34.58745393024004],[-58.470878681637984,-34.587502530513305],[-58.471117535897385,-34.58770536837725],[-58.471235992436924,-34.587808038371435],[-58.47189469828779,-34.588322932381175],[-58.47211866777919,-34.58849799011523],[-58.47289754756057,-34.58910674421888],[-58.47308728658204,-34.589255042262224],[-58.473220564967654,-34.589359258661915],[-58.474061118160826,-34.59001497342673],[-58.475034200001915,-34.590774051259814],[-58.47539710226839,-34.591057164777304],[-58.47572522993756,-34.59131314699012],[-58.47575956339239,-34.5913988472578],[-58.47587550791374,-34.59169207933152],[-58.475890169642184,-34.591729162392305],[-58.47648379766588,-34.591562370565626],[-58.47720435282813,-34.59135338293095],[-58.47782591899012,-34.59119502591785],[-58.47808392834421,-34.591129359561876],[-58.479545807937114,-34.590756914504375],[-58.48087177511148,-34.59041904837825],[-58.481183083347005,-34.59033435404132],[-58.481289265332336,-34.590305464925294],[-58.48145862581178,-34.59025149502825],[-58.48186240128454,-34.59012284074439],[-58.48201294283056,-34.590070140339684],[-58.48250228739399,-34.58989893529024],[-58.48365126182417,-34.58949676986704],[-58.48398914629326,-34.58937815325347],[-58.48470691259766,-34.5891261733726],[-58.48471116308242,-34.58912468077005],[-58.485078924771926,-34.58873432698764],[-58.48543502049335,-34.58835629846099],[-58.48549104804764,-34.588296851978534],[-58.485561948101946,-34.58822162512931],[-58.486112129662075,-34.58763897808638],[-58.48644114679275,-34.58729045974319],[-58.48654420747557,-34.587181286679105],[-58.48669661113699,-34.587019843094915],[-58.486803357316546,-34.58690291865341],[-58.48689461131224,-34.58680304034448],[-58.487444181464824,-34.586228485680365],[-58.48808695455612,-34.58555644395922],[-58.488194550577354,-34.58544402522415],[-58.48879415727158,-34.58482403134742],[-58.48896942846867,-34.58493589747464],[-58.48956005633142,-34.58530838473017],[-58.49028619098699,-34.585766262717456],[-58.49085076827545,-34.58612226958694],[-58.49141381869284,-34.58647728801588],[-58.49197057050998,-34.58682829126204],[-58.49254052805878,-34.58718774053842],[-58.493663850802086,-34.587895999262315],[-58.49389083410405,-34.588039113989],[-58.494225645087404,-34.58824685025678],[-58.494794684452685,-34.588599950334384],[-58.49536142715018,-34.58895157000458],[-58.49559258984596,-34.589095031996926],[-58.495928175353185,-34.58930227027139],[-58.49706654034048,-34.59000521284748],[-58.49820262400738,-34.59070666523205],[-58.49948736351279,-34.59149989640506],[-58.500817103856825,-34.59232098745605],[-58.501928121766866,-34.593006919807685],[-58.50214192901985,-34.59313910789158],[-58.50331123523567,-34.59386184024049],[-58.50347172005461,-34.593959253914015],[-58.50411670285964,-34.593247267870964],[-58.5047684845378,-34.59252766981752],[-58.50528467533349,-34.59195783598251],[-58.50542212646342,-34.591805814000566],[-58.506071756477944,-34.59108754818084],[-58.50672358771209,-34.59036667202265],[-58.50750391547391,-34.589503771551314],[-58.50824371890118,-34.58868566996409],[-58.50902154692262,-34.58782550712264],[-58.50978795643326,-34.58697787876536],[-58.51049239954532,-34.586198791240726],[-58.511040252849874,-34.58559279295834],[-58.511154026321556,-34.58546732328699],[-58.51180985540731,-34.58474374233512],[-58.51235683992394,-34.58414034346849],[-58.51246762993358,-34.58401719761651],[-58.513272087981065,-34.58312340473088],[-58.51340041298845,-34.58298084856198],[-58.51381334707973,-34.58252211446923],[-58.51392056124099,-34.582404321409044],[-58.51451630813752,-34.58175028280111],[-58.51457270702747,-34.58169932950461],[-58.5145835320473,-34.58168762716306],[-58.51458323641277,-34.581687171166195],[-58.51465483932076,-34.581615671569224],[-58.51474097308135,-34.58152966187574],[-58.51485454019466,-34.5814162570426],[-58.51485553898525,-34.581415259644466],[-58.51490250172233,-34.58136836388742],[-58.5149702127839,-34.58132249506749],[-58.514999110089384,-34.581320024644],[-58.51516148793665,-34.58130614411879],[-58.515298628010505,-34.581294420425756],[-58.515459093149076,-34.58128070257597],[-58.51553576857417,-34.58127414707185],[-58.51557805305633,-34.58136285804828],[-58.515657890406374,-34.58153035909528],[-58.51697892341685,-34.58434090493277],[-58.51812403134145,-34.58677699776436],[-58.5186533596936,-34.58790303429231],[-58.51889104482823,-34.58841679754801],[-58.519513160278116,-34.58973201190644],[-58.52005228032312,-34.59087878989072],[-58.52095487538336,-34.592798649706765],[-58.521768034423886,-34.59452819313156],[-58.52262686199489,-34.59635478654781],[-58.52328506588941,-34.59775462574513],[-58.52337353795392,-34.597942780371945],[-58.52350808928363,-34.598228930161255],[-58.523676352567925,-34.598586772369565],[-58.52487006943076,-34.60112533092226],[-58.525769136167696,-34.60303717586166],[-58.52622640792447,-34.604009517384604],[-58.52623290969872,-34.60402334257166],[-58.52623565904621,-34.60402918870415],[-58.5267769015575,-34.605180053721185],[-58.52733487403914,-34.60636645627652],[-58.527780486183644,-34.6073139236483],[-58.52781838913708,-34.60739451241167],[-58.52782963947425,-34.60741843271014],[-58.52783282865431,-34.60742521349437],[-58.52946768490281,-34.61090106159128],[-58.5310727294211,-34.61450170299162],[-58.53151730936994,-34.61549898106118]]]}}