{"type":"Feature","properties":{"slug":"escobar","name":"Escobar","region":"norte","sort":7},"geometry":{"type":"MultiPolygon","coordinates":[[[[-58.712152,-34.248902],[-58.691117,-34.254358],[-58.678064,-34.257663],[-58.67788052,-34.25771378],[-58.66325,-34.261763],[-58.65978191,-34.2628899],[-58.653805,-34.264832],[-58.649515,-34.266598],[-58.6500749,-34.2677231],[-58.65015,-34.267874],[-58.65173705,-34.26931184],[-58.651788,-34.269358],[-58.65312684,-34.27062089],[-58.653304,-34.270788],[-58.654375,-34.272532],[-58.655056,-34.274637],[-58.65566682,-34.27645905],[-58.656053,-34.277611],[-58.656941,-34.280464],[-58.657628,-34.282204],[-58.658045,-34.283667],[-58.658995,-34.28614],[-58.659528,-34.287288],[-58.659878,-34.288268],[-58.660343,-34.289653],[-58.66085,-34.290938],[-58.66129556,-34.29215367],[-58.661395,-34.292425],[-58.66157891,-34.29308471],[-58.661894,-34.294215],[-58.66236,-34.295567],[-58.663063,-34.297291],[-58.663714,-34.298775],[-58.663965,-34.299912],[-58.664483,-34.301029],[-58.664994,-34.302614],[-58.665793,-34.304713],[-58.66584371,-34.30481993],[-58.666289,-34.305759],[-58.66641541,-34.30621575],[-58.666974,-34.308234],[-58.667692,-34.310288],[-58.668247,-34.31185],[-58.668628,-34.313129],[-58.66911,-34.314344],[-58.669325,-34.315177],[-58.669545,-34.315709],[-58.669875,-34.316704],[-58.670527,-34.318724],[-58.671048,-34.320402],[-58.67206,-34.323446],[-58.672846,-34.325637],[-58.67294795,-34.32593785],[-58.67333067,-34.32706718],[-58.673598,-34.327856],[-58.67377539,-34.32842454],[-58.674325,-34.330186],[-58.67447633,-34.33069069],[-58.6749085,-34.33213206],[-58.675071,-34.332674],[-58.67546,-34.334123],[-58.67561303,-34.33456681],[-58.676211,-34.336301],[-58.67638597,-34.33675546],[-58.67668515,-34.33753254],[-58.677038,-34.338449],[-58.677682,-34.340316],[-58.678184,-34.341685],[-58.67828998,-34.34222732],[-58.67837151,-34.34264451],[-58.67844,-34.342995],[-58.67914937,-34.3442429],[-58.679258,-34.344434],[-58.67950785,-34.34499706],[-58.679814,-34.345687],[-58.68025169,-34.34635558],[-58.680813,-34.347213],[-58.68175413,-34.34797902],[-58.68176688,-34.34798939],[-58.681818,-34.348031],[-58.6821223,-34.34829855],[-58.68238451,-34.3485291],[-58.683085,-34.349145],[-58.68352765,-34.34945392],[-58.684793,-34.350337],[-58.68489219,-34.35043005],[-58.68531,-34.350822],[-58.68577752,-34.35107165],[-58.686031,-34.351207],[-58.68620554,-34.35116767],[-58.68632238,-34.35114134],[-58.686457,-34.351111],[-58.687258,-34.350315],[-58.688,-34.349393],[-58.68814207,-34.34911907],[-58.689192,-34.348097],[-58.6897554,-34.34766776],[-58.690393,-34.347182],[-58.699286,-34.351799],[-58.703917,-34.354201],[-58.715874,-34.360313],[-58.716418,-34.360582],[-58.718465,-34.361596],[-58.719351,-34.362036],[-58.72044016,-34.36311314],[-58.720619,-34.36329],[-58.721021,-34.364262],[-58.72120342,-34.36460442],[-58.721257,-34.364705],[-58.719252,-34.365767],[-58.71703945,-34.36691408],[-58.709058,-34.371052],[-58.705406,-34.372934],[-58.70532886,-34.37297257],[-58.706266,-34.374559],[-58.708908,-34.378934],[-58.711182,-34.382673],[-58.714092,-34.387543],[-58.714267,-34.387796],[-58.714432,-34.388011],[-58.714621,-34.388227],[-58.714867,-34.38847],[-58.715121,-34.388693],[-58.715521,-34.388993],[-58.71577,-34.389151],[-58.716119,-34.389344],[-58.716373,-34.389469],[-58.716669,-34.389593],[-58.717056,-34.389728],[-58.717459,-34.389844],[-58.717789,-34.389919],[-58.718254,-34.389997],[-58.71869,-34.390035],[-58.719012,-34.390043],[-58.721358,-34.390084],[-58.71594912,-34.3925249],[-58.715909,-34.392543],[-58.720846,-34.39515],[-58.72153411,-34.39550484],[-58.72290284,-34.39621065],[-58.725851,-34.397795],[-58.73217147,-34.40117818],[-58.73234878,-34.40127514],[-58.73415968,-34.40226542],[-58.734254,-34.402317],[-58.73440559,-34.40237404],[-58.734634,-34.40246],[-58.731993,-34.406105],[-58.72841,-34.410489],[-58.726072,-34.413309],[-58.720686,-34.420071],[-58.71874,-34.422581],[-58.716047,-34.426075],[-58.714822,-34.427683],[-58.712647,-34.430281],[-58.71234007,-34.43066864],[-58.711392,-34.431866],[-58.711353,-34.432309],[-58.70675025,-34.43832288],[-58.706568,-34.438561],[-58.70611359,-34.43887395],[-58.705781,-34.439103],[-58.70560976,-34.43933705],[-58.70568845,-34.43938089],[-58.705685,-34.439385],[-58.70602468,-34.43957208],[-58.70662915,-34.439905],[-58.70695568,-34.44008692],[-58.70802869,-34.44068474],[-58.709209,-34.44134234],[-58.714523,-34.444303],[-58.71811376,-34.44626979],[-58.720336,-34.447487],[-58.72115115,-34.44794806],[-58.722401,-34.448655],[-58.72373804,-34.44937741],[-58.72673397,-34.45099614],[-58.72891114,-34.45217248],[-58.72912529,-34.45228819],[-58.72915481,-34.45230414],[-58.730774,-34.453179],[-58.731847,-34.453732],[-58.73529786,-34.45542943],[-58.73532615,-34.45544335],[-58.735915,-34.455733],[-58.73617462,-34.45585983],[-58.73697542,-34.45625103],[-58.73721642,-34.45636876],[-58.73727868,-34.45639894],[-58.73731318,-34.45641566],[-58.73737636,-34.45633071],[-58.7373926,-34.45630956],[-58.7393927,-34.45370448],[-58.73976377,-34.45322117],[-58.74022123,-34.45262534],[-58.740643,-34.452076],[-58.74067936,-34.45202897],[-58.74103548,-34.4515683],[-58.74311941,-34.44887255],[-58.744962,-34.446489],[-58.74812059,-34.44248294],[-58.75019801,-34.43984813],[-58.750452,-34.439526],[-58.750985,-34.438806],[-58.752624,-34.436547],[-58.755268,-34.433152],[-58.757355,-34.430571],[-58.75798796,-34.42975282],[-58.75849158,-34.42910183],[-58.75976135,-34.42746049],[-58.76212578,-34.42440417],[-58.76271,-34.423649],[-58.763059,-34.423225],[-58.76309,-34.423186],[-58.767578,-34.417435],[-58.77202175,-34.41178789],[-58.7723729,-34.41134165],[-58.772711,-34.410912],[-58.77345377,-34.40996527],[-58.77678334,-34.40572146],[-58.77746,-34.404859],[-58.77748747,-34.40482378],[-58.777569,-34.40469],[-58.777744,-34.404402],[-58.777666,-34.404272],[-58.77804336,-34.40411091],[-58.77807425,-34.40409773],[-58.77837305,-34.40397017],[-58.77912109,-34.40365085],[-58.779437,-34.403516],[-58.77986,-34.403337],[-58.78201357,-34.40242254],[-58.782142,-34.402368],[-58.78431073,-34.40141407],[-58.784345,-34.401399],[-58.7846738,-34.40125976],[-58.784933,-34.40115],[-58.785603,-34.400827],[-58.786462,-34.400455],[-58.78781408,-34.39987345],[-58.787943,-34.399818],[-58.788323,-34.399672],[-58.788418,-34.399798],[-58.78846536,-34.39984824],[-58.78855233,-34.39994047],[-58.788715,-34.400113],[-58.78881322,-34.40017512],[-58.789017,-34.400304],[-58.78914,-34.400433],[-58.789201,-34.400531],[-58.78931,-34.400687],[-58.78943,-34.400751],[-58.789632,-34.400856],[-58.789964,-34.401017],[-58.790154,-34.401245],[-58.790474,-34.401335],[-58.790762,-34.401346],[-58.791063,-34.401406],[-58.791169,-34.401494],[-58.791392,-34.402227],[-58.79154557,-34.40258533],[-58.791575,-34.402654],[-58.791636,-34.402731],[-58.791671,-34.402837],[-58.791604,-34.402969],[-58.79158396,-34.40316014],[-58.791578,-34.403217],[-58.79168358,-34.40332986],[-58.791752,-34.403403],[-58.791879,-34.403692],[-58.79188272,-34.40372705],[-58.79190234,-34.40391204],[-58.791907,-34.403956],[-58.79192139,-34.40399124],[-58.79199388,-34.40416881],[-58.792125,-34.40449],[-58.79217745,-34.40456847],[-58.79224454,-34.40466882],[-58.792248,-34.404674],[-58.79226576,-34.40468451],[-58.792723,-34.404955],[-58.792816,-34.405073],[-58.79285075,-34.40515472],[-58.79286194,-34.40518104],[-58.79287,-34.4052],[-58.792882,-34.405329],[-58.79286194,-34.40534838],[-58.792793,-34.405415],[-58.7927648,-34.40546153],[-58.7926932,-34.40557967],[-58.792693,-34.40558],[-58.79269682,-34.40562152],[-58.79270628,-34.40572423],[-58.79281413,-34.40584296],[-58.79307672,-34.40613205],[-58.793133,-34.406194],[-58.79315414,-34.40621517],[-58.793843,-34.406905],[-58.79388815,-34.40695842],[-58.794034,-34.407131],[-58.79406569,-34.40715239],[-58.794154,-34.407212],[-58.79425056,-34.40723314],[-58.794268,-34.40724],[-58.79428009,-34.40723961],[-58.79438051,-34.4072616],[-58.794428,-34.407272],[-58.794613,-34.407337],[-58.79476321,-34.40744441],[-58.794978,-34.407598],[-58.795634,-34.408074],[-58.796263,-34.408569],[-58.79662893,-34.40890518],[-58.796718,-34.408987],[-58.797388,-34.409666],[-58.797508,-34.409788],[-58.79752473,-34.40980144],[-58.797884,-34.41009],[-58.79796904,-34.41014337],[-58.798174,-34.410272],[-58.798508,-34.410423],[-58.79881732,-34.41044076],[-58.798926,-34.410447],[-58.799537,-34.410377],[-58.799902,-34.410397],[-58.800279,-34.410567],[-58.800618,-34.410681],[-58.80093876,-34.41069485],[-58.80109202,-34.4107301],[-58.80118523,-34.41078094],[-58.80126951,-34.41083952],[-58.80127989,-34.41084876],[-58.801489,-34.411035],[-58.801744,-34.411111],[-58.802498,-34.411105],[-58.80284696,-34.41115362],[-58.80286782,-34.41115877],[-58.80332,-34.411486],[-58.80372056,-34.41153597],[-58.80389232,-34.41156535],[-58.804436,-34.411706],[-58.80477073,-34.41185582],[-58.8047894,-34.41186418],[-58.80491613,-34.41196024],[-58.804929,-34.41197],[-58.80495675,-34.41197266],[-58.80516912,-34.41199304],[-58.805325,-34.412008],[-58.805715,-34.412122],[-58.80622263,-34.41234912],[-58.806238,-34.412356],[-58.806911,-34.412556],[-58.806996,-34.412699],[-58.80719,-34.412903],[-58.807371,-34.413],[-58.807559,-34.413176],[-58.807702,-34.413252],[-58.807881,-34.413359],[-58.808007,-34.413441],[-58.80819736,-34.41352296],[-58.808223,-34.413534],[-58.80834093,-34.41357313],[-58.80845402,-34.41361066],[-58.80863205,-34.41366973],[-58.808663,-34.41368],[-58.80867532,-34.4136842],[-58.809061,-34.413777],[-58.809721,-34.413814],[-58.80974208,-34.41381521],[-58.809999,-34.41383],[-58.8100799,-34.41383956],[-58.810109,-34.413843],[-58.81012972,-34.41383752],[-58.810351,-34.413779],[-58.81047,-34.413752],[-58.810723,-34.413697],[-58.810978,-34.413683],[-58.811196,-34.413676],[-58.811411,-34.41367],[-58.81145226,-34.41366156],[-58.811499,-34.413652],[-58.811722,-34.413603],[-58.811862,-34.413534],[-58.811987,-34.413493],[-58.812046,-34.413483],[-58.81213106,-34.41350393],[-58.812172,-34.413514],[-58.812289,-34.413595],[-58.81258015,-34.41385395],[-58.812732,-34.413989],[-58.81279835,-34.41401067],[-58.81281763,-34.41401696],[-58.81328059,-34.41416815],[-58.813618,-34.41427],[-58.81371116,-34.41431616],[-58.81430581,-34.41458992],[-58.814445,-34.414654],[-58.814841,-34.414797],[-58.81486803,-34.41480271],[-58.815352,-34.414905],[-58.816021,-34.414904],[-58.8160886,-34.41492409],[-58.816096,-34.414924],[-58.81610543,-34.41492909],[-58.816482,-34.415041],[-58.816674,-34.415141],[-58.816989,-34.415404],[-58.81793451,-34.4141657],[-58.81864973,-34.41318345],[-58.81894227,-34.41278169],[-58.819593,-34.411888],[-58.8209644,-34.41014725],[-58.82178962,-34.40909978],[-58.82228185,-34.40847498],[-58.8236333,-34.40670655],[-58.82419769,-34.40596802],[-58.82613433,-34.40343384],[-58.82634704,-34.40315551],[-58.826553,-34.402886],[-58.829567,-34.398919],[-58.83013956,-34.39817048],[-58.831874,-34.395903],[-58.835649,-34.390816],[-58.835466,-34.390696],[-58.836898,-34.389123],[-58.837526,-34.388401],[-58.83907531,-34.38666283],[-58.83914211,-34.38658789],[-58.83937319,-34.38632864],[-58.83974211,-34.38593621],[-58.840202,-34.385447],[-58.84050799,-34.38563672],[-58.842718,-34.387007],[-58.842992,-34.387199],[-58.84417962,-34.38563672],[-58.84854349,-34.37989622],[-58.852505,-34.374685],[-58.853757,-34.373062],[-58.8582695,-34.36713641],[-58.86033038,-34.36443018],[-58.860891,-34.363694],[-58.86693309,-34.35580825],[-58.867688,-34.354823],[-58.86865401,-34.35354374],[-58.87288107,-34.34794601],[-58.87439054,-34.34594709],[-58.875441,-34.344556],[-58.8787,-34.340234],[-58.882588,-34.335105],[-58.88281595,-34.33477575],[-58.88413851,-34.33286545],[-58.885007,-34.331611],[-58.88602434,-34.33028017],[-58.88886314,-34.3265666],[-58.89133284,-34.32333587],[-58.8937059,-34.32023157],[-58.89752254,-34.31523885],[-58.89825636,-34.3142789],[-58.89985267,-34.3121907],[-58.90042888,-34.31143693],[-58.90080985,-34.31093857],[-58.900706,-34.310756],[-58.900609,-34.3105],[-58.90061185,-34.31047081],[-58.90062285,-34.31035837],[-58.900615,-34.310345],[-58.900529,-34.310051],[-58.9003918,-34.30980631],[-58.900372,-34.309771],[-58.900168,-34.309467],[-58.90015032,-34.30941291],[-58.900292,-34.309181],[-58.900456,-34.308955],[-58.900582,-34.308737],[-58.900643,-34.308488],[-58.90055,-34.308221],[-58.9003,-34.307957],[-58.900029,-34.307758],[-58.89982344,-34.30770869],[-58.89979208,-34.30768617],[-58.899686,-34.30761],[-58.899526,-34.307566],[-58.899366,-34.30756],[-58.8993219,-34.30758667],[-58.899199,-34.307661],[-58.899084,-34.307797],[-58.89902,-34.308],[-58.8989,-34.308132],[-58.898696,-34.308193],[-58.898502,-34.30818],[-58.89847976,-34.30816426],[-58.898389,-34.3081],[-58.898372,-34.307974],[-58.898445,-34.30781],[-58.89852398,-34.30772652],[-58.898603,-34.307643],[-58.898689,-34.307467],[-58.898673,-34.307248],[-58.898564,-34.30696],[-58.898385,-34.306822],[-58.89823104,-34.30677334],[-58.898192,-34.306761],[-58.89808415,-34.30676731],[-58.898021,-34.306771],[-58.89800943,-34.30677513],[-58.8976755,-34.30689446],[-58.897646,-34.306905],[-58.897142,-34.30714],[-58.896882,-34.3072],[-58.89683252,-34.3072048],[-58.896583,-34.307229],[-58.896338,-34.307199],[-58.8958,-34.307112],[-58.89551089,-34.307112],[-58.895345,-34.307112],[-58.8952454,-34.30706846],[-58.895162,-34.307032],[-58.895154,-34.306926],[-58.89515528,-34.30682812],[-58.895156,-34.306773],[-58.89510007,-34.30664616],[-58.89510006,-34.30664612],[-58.89510004,-34.30664608],[-58.894992,-34.306579],[-58.89496755,-34.30657873],[-58.894775,-34.306675],[-58.894567,-34.306778],[-58.894438,-34.306845],[-58.894308,-34.306872],[-58.894211,-34.306805],[-58.894105,-34.306672],[-58.894011,-34.306574],[-58.893838,-34.306532],[-58.89361,-34.306485],[-58.893339,-34.306504],[-58.892987,-34.30659],[-58.892802,-34.306651],[-58.89259,-34.306676],[-58.89236,-34.30667],[-58.892159,-34.306658],[-58.891983,-34.30655],[-58.891941,-34.306385],[-58.89193,-34.306158],[-58.891965,-34.30597182],[-58.891957,-34.305942],[-58.89197072,-34.30590891],[-58.892025,-34.305778],[-58.89208373,-34.30567123],[-58.892089,-34.30566],[-58.89209079,-34.30565838],[-58.892277,-34.30549],[-58.892351,-34.305325],[-58.892413,-34.305159],[-58.89247174,-34.30509566],[-58.892541,-34.305021],[-58.892771,-34.304944],[-58.893077,-34.304902],[-58.89317867,-34.30490592],[-58.893414,-34.304915],[-58.893643,-34.304827],[-58.893765,-34.304706],[-58.89381,-34.304553],[-58.893738,-34.304396],[-58.89362,-34.304194],[-58.893475,-34.304055],[-58.89337344,-34.30400335],[-58.89332774,-34.30396869],[-58.89329092,-34.30394077],[-58.893282,-34.303934],[-58.89319364,-34.30390668],[-58.893033,-34.303857],[-58.892796,-34.303843],[-58.892493,-34.303903],[-58.892199,-34.30392],[-58.89194539,-34.30381746],[-58.89190281,-34.30374025],[-58.89181,-34.303572],[-58.891725,-34.303386],[-58.891629,-34.303278],[-58.89160083,-34.30326003],[-58.891466,-34.303174],[-58.891248,-34.30312],[-58.89117285,-34.30313394],[-58.891054,-34.303156],[-58.890886,-34.303234],[-58.890792,-34.303344],[-58.890681,-34.303538],[-58.890646,-34.30385],[-58.890578,-34.304192],[-58.890477,-34.304366],[-58.89044899,-34.30440458],[-58.89019169,-34.30454334],[-58.890054,-34.304553],[-58.889896,-34.304615],[-58.889757,-34.304799],[-58.88972431,-34.30491959],[-58.889712,-34.304965],[-58.889657,-34.30514],[-58.889531,-34.305241],[-58.889385,-34.305278],[-58.889206,-34.305245],[-58.888991,-34.305147],[-58.888818,-34.304918],[-58.88877551,-34.30479954],[-58.888752,-34.304734],[-58.88874548,-34.30471626],[-58.88872732,-34.30466684],[-58.888691,-34.304568],[-58.88867776,-34.30446493],[-58.888663,-34.30435],[-58.8887307,-34.30420949],[-58.888724,-34.304049],[-58.88874548,-34.30398456],[-58.888758,-34.303947],[-58.888855,-34.303795],[-58.888918,-34.303612],[-58.88903,-34.303417],[-58.889051,-34.303225],[-58.889035,-34.303029],[-58.88902919,-34.30301831],[-58.888947,-34.302867],[-58.888882,-34.302796],[-58.88874548,-34.3027794],[-58.88866,-34.302769],[-58.88834,-34.302649],[-58.888181,-34.30251],[-58.888103,-34.302361],[-58.888119,-34.302176],[-58.88814678,-34.30213664],[-58.888191,-34.302074],[-58.888415,-34.301967],[-58.8886048,-34.30195574],[-58.888631,-34.301949],[-58.888969,-34.301973],[-58.889212,-34.301965],[-58.88941679,-34.30197475],[-58.889639,-34.301953],[-58.889797,-34.301814],[-58.889808,-34.301669],[-58.88979016,-34.30162677],[-58.889748,-34.301527],[-58.889623,-34.301397],[-58.889248,-34.301141],[-58.889094,-34.300991],[-58.889015,-34.300838],[-58.888949,-34.30052],[-58.88881,-34.300291],[-58.888692,-34.300251],[-58.888527,-34.300226],[-58.888275,-34.300361],[-58.88827303,-34.30036227],[-58.887899,-34.300604],[-58.887557,-34.300695],[-58.887008,-34.300796],[-58.886828,-34.300814],[-58.886629,-34.300867],[-58.886415,-34.300971],[-58.885859,-34.301189],[-58.885516,-34.301211],[-58.885097,-34.301089],[-58.884872,-34.300926],[-58.884718,-34.300815],[-58.884645,-34.30066],[-58.884637,-34.300519],[-58.88463872,-34.30051315],[-58.884711,-34.300268],[-58.884786,-34.299967],[-58.8848202,-34.29991547],[-58.884863,-34.299677],[-58.88487366,-34.29965948],[-58.885009,-34.299437],[-58.88516377,-34.29932959],[-58.885241,-34.299276],[-58.88533715,-34.29921895],[-58.88533796,-34.29921847],[-58.885294,-34.299069],[-58.88525284,-34.29905326],[-58.885158,-34.299017],[-58.884897,-34.299109],[-58.884714,-34.29921895],[-58.884654,-34.299255],[-58.884382,-34.299449],[-58.884136,-34.299486],[-58.883933,-34.299433],[-58.883821,-34.299342],[-58.88377367,-34.29921895],[-58.883771,-34.299212],[-58.88377111,-34.29921096],[-58.8837842,-34.29908884],[-58.88375348,-34.29904458],[-58.883751,-34.299041],[-58.88375188,-34.2990238],[-58.883762,-34.298827],[-58.88385547,-34.29864566],[-58.88380387,-34.29856336],[-58.883798,-34.298554],[-58.883641,-34.298525],[-58.883261,-34.298678],[-58.882929,-34.298816],[-58.882318,-34.298858],[-58.881389,-34.298363],[-58.88131882,-34.29831424],[-58.88114741,-34.29819517],[-58.880901,-34.298024],[-58.880793,-34.297921],[-58.880696,-34.297799],[-58.880553,-34.297504],[-58.880503,-34.297354],[-58.880482,-34.29719],[-58.880528,-34.296977],[-58.880626,-34.296707],[-58.880732,-34.296183],[-58.880748,-34.296046],[-58.880843,-34.295972],[-58.88098,-34.295958],[-58.881319,-34.296071],[-58.88157568,-34.29612234],[-58.88164,-34.296129],[-58.88166689,-34.29613479],[-58.8819,-34.296106],[-58.882061,-34.296049],[-58.882195,-34.295964],[-58.882305,-34.29584],[-58.882302,-34.295705],[-58.88221,-34.29554],[-58.882134,-34.295499],[-58.88188,-34.295383],[-58.881543,-34.295152],[-58.8814,-34.294885],[-58.881323,-34.294668],[-58.881279,-34.294409],[-58.881292,-34.294155],[-58.881284,-34.29401],[-58.881104,-34.293757],[-58.880987,-34.29329],[-58.880797,-34.292996],[-58.880531,-34.292739],[-58.880074,-34.29226],[-58.879901,-34.292137],[-58.879722,-34.292065],[-58.879486,-34.292075],[-58.879248,-34.292167],[-58.879072,-34.292251],[-58.87901498,-34.29225789],[-58.878774,-34.292287],[-58.87869145,-34.29227517],[-58.8785635,-34.29225684],[-58.87846191,-34.29219579],[-58.878409,-34.292164],[-58.878191,-34.291904],[-58.878211,-34.291603],[-58.878366,-34.291282],[-58.87864,-34.291079],[-58.878871,-34.290961],[-58.87907666,-34.29087632],[-58.879109,-34.290863],[-58.879376,-34.29071],[-58.87956534,-34.29053901],[-58.879603,-34.290505],[-58.879789,-34.290471],[-58.87987933,-34.29049592],[-58.88005,-34.290543],[-58.88041032,-34.29082269],[-58.880475,-34.290863],[-58.88049971,-34.29090039],[-58.88066893,-34.29104776],[-58.880975,-34.291224],[-58.881192,-34.291277],[-58.881401,-34.291201],[-58.881493,-34.291033],[-58.881558,-34.290783],[-58.881539,-34.290455],[-58.881491,-34.290196],[-58.88149,-34.289945],[-58.881465,-34.289813],[-58.881515,-34.289696],[-58.881585,-34.289631],[-58.881863,-34.289535],[-58.882048,-34.289507],[-58.882293,-34.289458],[-58.882442,-34.289409],[-58.882582,-34.289327],[-58.8827,-34.289144],[-58.882736,-34.289012],[-58.882761,-34.28887],[-58.882699,-34.288734],[-58.88259,-34.288601],[-58.882063,-34.288301],[-58.882012,-34.288177],[-58.882035,-34.288093],[-58.882185,-34.287868],[-58.882739,-34.28729],[-58.882905,-34.287074],[-58.882972,-34.286892],[-58.882983,-34.286759],[-58.882933,-34.286522],[-58.882831,-34.286396],[-58.882645,-34.286313],[-58.882387,-34.286283],[-58.882065,-34.286265],[-58.88169614,-34.28632463],[-58.881632,-34.286335],[-58.881509,-34.286411],[-58.881457,-34.286516],[-58.88145522,-34.28653675],[-58.881289,-34.28677],[-58.88108,-34.287262],[-58.88105232,-34.28741911],[-58.881003,-34.287699],[-58.881099,-34.287963],[-58.88124301,-34.28817322],[-58.881273,-34.288217],[-58.88130791,-34.28840813],[-58.881122,-34.288572],[-58.880983,-34.288649],[-58.88071335,-34.28861557],[-58.88062,-34.288604],[-58.880208,-34.288578],[-58.88019473,-34.28858177],[-58.879976,-34.288644],[-58.87994533,-34.28864514],[-58.879788,-34.288651],[-58.879668,-34.288599],[-58.87953857,-34.28852921],[-58.879407,-34.288492],[-58.879166,-34.288362],[-58.87909421,-34.28825323],[-58.878991,-34.288173],[-58.878807,-34.287916],[-58.878728,-34.28765],[-58.878573,-34.287283],[-58.878422,-34.287016],[-58.878417,-34.286915],[-58.878463,-34.286802],[-58.878585,-34.286725],[-58.878801,-34.286654],[-58.87912,-34.286607],[-58.879505,-34.286624],[-58.879864,-34.286563],[-58.880063,-34.286474],[-58.880213,-34.28636],[-58.880331,-34.28622],[-58.880301,-34.285989],[-58.880254,-34.285863],[-58.879936,-34.285698],[-58.879795,-34.285586],[-58.8797525,-34.2855669],[-58.879459,-34.285435],[-58.879083,-34.2854],[-58.878906,-34.285398],[-58.878728,-34.285421],[-58.87864648,-34.28542221],[-58.87862176,-34.28542257],[-58.87839,-34.285426],[-58.87821493,-34.28541249],[-58.878092,-34.285384],[-58.87779245,-34.28524416],[-58.87775722,-34.28522772],[-58.87764,-34.285173],[-58.87743585,-34.28502876],[-58.877404,-34.285004],[-58.87734352,-34.28494987],[-58.87717492,-34.28479896],[-58.87706,-34.284672],[-58.87698611,-34.28440625],[-58.876946,-34.284262],[-58.877031,-34.283981],[-58.877255,-34.28370951],[-58.877281,-34.283678],[-58.87737655,-34.28366087],[-58.877675,-34.283607],[-58.87825,-34.283857],[-58.87826455,-34.28386173],[-58.87888,-34.284062],[-58.879622,-34.284126],[-58.8801,-34.28413],[-58.880569,-34.284012],[-58.880894,-34.283894],[-58.881096,-34.283656],[-58.881129,-34.283358],[-58.881019,-34.28305],[-58.88087,-34.282768],[-58.880564,-34.282437],[-58.88030773,-34.28218966],[-58.880191,-34.282077],[-58.879897,-34.281736],[-58.879786,-34.281353],[-58.879697,-34.280953],[-58.879537,-34.280551],[-58.879285,-34.280252],[-58.879004,-34.280126],[-58.878691,-34.280109],[-58.878385,-34.280232],[-58.878083,-34.280502],[-58.87797477,-34.28058894],[-58.87796171,-34.28059944],[-58.877844,-34.280694],[-58.877552,-34.28068],[-58.877382,-34.280515],[-58.87737131,-34.28036573],[-58.877367,-34.280348],[-58.877346,-34.280188],[-58.877306,-34.280041],[-58.877291,-34.279955],[-58.877296,-34.279724],[-58.877203,-34.2793],[-58.877246,-34.279053],[-58.877294,-34.278942],[-58.87730234,-34.27893086],[-58.877425,-34.278767],[-58.877566,-34.278533],[-58.877786,-34.278387],[-58.878162,-34.278253],[-58.878426,-34.278116],[-58.878593,-34.278072],[-58.878753,-34.277988],[-58.878859,-34.277941],[-58.878966,-34.277827],[-58.879009,-34.277703],[-58.879032,-34.277574],[-58.87900095,-34.27740747],[-58.878977,-34.277279],[-58.87872,-34.277186],[-58.878387,-34.277174],[-58.878084,-34.277208],[-58.87783962,-34.27727988],[-58.877829,-34.277283],[-58.877535,-34.277414],[-58.877381,-34.277507],[-58.87724833,-34.27754401],[-58.877191,-34.27756],[-58.87717694,-34.27756164],[-58.87712529,-34.27755644],[-58.876992,-34.277543],[-58.876707,-34.277438],[-58.87650686,-34.27728437],[-58.876466,-34.277253],[-58.87640163,-34.27716378],[-58.876352,-34.277095],[-58.876241,-34.276892],[-58.87635,-34.276668],[-58.87655178,-34.27646622],[-58.876599,-34.276368],[-58.877056,-34.275838],[-58.877514,-34.275401],[-58.877885,-34.275022],[-58.87796659,-34.27483103],[-58.87800936,-34.27473095],[-58.878026,-34.274692],[-58.877921,-34.274441],[-58.877762,-34.274394],[-58.877338,-34.27439],[-58.877231,-34.274422],[-58.87722622,-34.27442479],[-58.8771,-34.274429],[-58.876744,-34.27456],[-58.876435,-34.274701],[-58.876097,-34.274952],[-58.875817,-34.275264],[-58.87573663,-34.27535738],[-58.87571903,-34.27537784],[-58.875533,-34.275594],[-58.875204,-34.275782],[-58.874909,-34.275831],[-58.874641,-34.275766],[-58.874466,-34.275565],[-58.874477,-34.275345],[-58.874635,-34.275096],[-58.87469818,-34.27505494],[-58.874972,-34.274877],[-58.87509293,-34.2748224],[-58.875333,-34.274714],[-58.87574,-34.274481],[-58.875923,-34.274204],[-58.875983,-34.273799],[-58.87592937,-34.27370346],[-58.8758,-34.273473],[-58.87568007,-34.27341081],[-58.87557933,-34.27335858],[-58.875503,-34.273319],[-58.87525215,-34.27330394],[-58.87512,-34.273296],[-58.874839,-34.273398],[-58.874718,-34.273611],[-58.87467813,-34.27366782],[-58.874551,-34.273849],[-58.8745188,-34.27388933],[-58.87422763,-34.27406033],[-58.874172,-34.274093],[-58.874063,-34.274174],[-58.8736728,-34.274344],[-58.87362,-34.274367],[-58.873394,-34.27441],[-58.87333706,-34.27439823],[-58.872494,-34.274224],[-58.872225,-34.274146],[-58.872146,-34.274081],[-58.871962,-34.273836],[-58.87183,-34.273574],[-58.871812,-34.273362],[-58.871648,-34.272726],[-58.871218,-34.272711],[-58.870943,-34.272659],[-58.870806,-34.272673],[-58.870714,-34.272706],[-58.87068273,-34.2727395],[-58.87063,-34.272796],[-58.8705381,-34.27292631],[-58.87047182,-34.27293944],[-58.870358,-34.272962],[-58.870186,-34.273037],[-58.87007,-34.273194],[-58.870092,-34.273447],[-58.87001342,-34.2735509],[-58.86994,-34.273648],[-58.86972187,-34.27384899],[-58.86952,-34.274035],[-58.86944866,-34.27410653],[-58.869153,-34.274403],[-58.868895,-34.274713],[-58.868659,-34.275167],[-58.86845251,-34.27541858],[-58.868164,-34.275738],[-58.86763397,-34.27616047],[-58.867548,-34.276229],[-58.86750512,-34.27628446],[-58.867364,-34.276467],[-58.866863,-34.276806],[-58.86674378,-34.27683193],[-58.866371,-34.276913],[-58.865796,-34.277114],[-58.865485,-34.277175],[-58.865012,-34.277325],[-58.864516,-34.277401],[-58.864125,-34.277278],[-58.863914,-34.277233],[-58.863634,-34.276914],[-58.863638,-34.276608],[-58.863486,-34.276432],[-58.863446,-34.276275],[-58.863441,-34.276131],[-58.863305,-34.27565],[-58.863322,-34.275409],[-58.863378,-34.275238],[-58.86336206,-34.27510773],[-58.86330604,-34.27464975],[-58.863275,-34.274396],[-58.863117,-34.274285],[-58.862876,-34.274241],[-58.862517,-34.274091],[-58.8619,-34.274037],[-58.861487,-34.273913],[-58.861388,-34.273903],[-58.860937,-34.273658],[-58.860543,-34.273486],[-58.860324,-34.273133],[-58.86037204,-34.27289012],[-58.860396,-34.272769],[-58.86039658,-34.27276781],[-58.860494,-34.27257],[-58.860699,-34.272348],[-58.86072168,-34.27233104],[-58.860933,-34.272173],[-58.861834,-34.271805],[-58.862039,-34.27165],[-58.86291,-34.270676],[-58.86299048,-34.27055296],[-58.862997,-34.270543],[-58.863064,-34.270361],[-58.86307991,-34.27018199],[-58.86308,-34.270181],[-58.862803,-34.268945],[-58.862809,-34.2687],[-58.8627547,-34.26820073],[-58.862737,-34.268038],[-58.86275975,-34.26787706],[-58.862932,-34.267787],[-58.86316941,-34.26775926],[-58.8633,-34.267744],[-58.863752,-34.267652],[-58.864402,-34.267401],[-58.864641,-34.267203],[-58.864673,-34.266986],[-58.864573,-34.266739],[-58.86453665,-34.2666834],[-58.864343,-34.26625],[-58.864226,-34.265754],[-58.864132,-34.265609],[-58.863743,-34.265249],[-58.863645,-34.265121],[-58.863558,-34.26505],[-58.863478,-34.264904],[-58.862832,-34.264175],[-58.862698,-34.264091],[-58.862211,-34.263906],[-58.862104,-34.263891],[-58.861757,-34.26392],[-58.861219,-34.264074],[-58.860615,-34.264074],[-58.860184,-34.263979],[-58.859555,-34.263358],[-58.85938218,-34.26314312],[-58.859251,-34.26298],[-58.858933,-34.262601],[-58.858872,-34.262444],[-58.858801,-34.262391],[-58.858789,-34.262299],[-58.858564,-34.262051],[-58.858387,-34.261979],[-58.858059,-34.261942],[-58.85753,-34.261952],[-58.857223,-34.261908],[-58.856629,-34.261765],[-58.856171,-34.261816],[-58.855961,-34.26191],[-58.85593958,-34.26192823],[-58.85584879,-34.26200552],[-58.855692,-34.262139],[-58.855521,-34.262311],[-58.85534576,-34.26245482],[-58.85527,-34.262517],[-58.8552291,-34.26251968],[-58.855072,-34.26253],[-58.854817,-34.26258038],[-58.85442033,-34.26265874],[-58.85392901,-34.2627558],[-58.85385648,-34.26277012],[-58.853766,-34.262788],[-58.85370513,-34.26280755],[-58.85344126,-34.26289227],[-58.853221,-34.262963],[-58.85288632,-34.26313723],[-58.852687,-34.263241],[-58.85204,-34.263584],[-58.851501,-34.263687],[-58.850917,-34.263709],[-58.849829,-34.264118],[-58.849756,-34.26464],[-58.849342,-34.265192],[-58.849036,-34.265505],[-58.848972,-34.265826],[-58.8489,-34.266348],[-58.848737,-34.266706],[-58.848288,-34.266974],[-58.847739,-34.267279],[-58.84729,-34.267547],[-58.84647,-34.268449],[-58.8451351,-34.26895055],[-58.845086,-34.268969],[-58.844429,-34.269513],[-58.84389513,-34.2698096],[-58.84386482,-34.26979014],[-58.843821,-34.269762],[-58.84374614,-34.26968958],[-58.843729,-34.269673],[-58.84363,-34.269457],[-58.843597,-34.26927],[-58.84351966,-34.2691484],[-58.843424,-34.268998],[-58.843251,-34.269047],[-58.84318592,-34.26919575],[-58.843062,-34.269479],[-58.84291535,-34.26952879],[-58.842847,-34.269552],[-58.842649,-34.269559],[-58.84234688,-34.26961685],[-58.84232,-34.269622],[-58.8423054,-34.26961499],[-58.84180093,-34.26937263],[-58.841248,-34.269107],[-58.84118181,-34.26902238],[-58.841061,-34.268801],[-58.841034,-34.268316],[-58.841098,-34.267995],[-58.841008,-34.267831],[-58.840667,-34.26786],[-58.840449,-34.267981],[-58.840339,-34.268071],[-58.840008,-34.268428],[-58.839458,-34.268964],[-58.83902,-34.26923],[-58.839123,-34.269682],[-58.838901,-34.27004],[-58.83839522,-34.2702437],[-58.83802,-34.270367],[-58.83793164,-34.2704069],[-58.837473,-34.270614],[-58.83678924,-34.27092742],[-58.83655215,-34.27108101],[-58.836387,-34.271188],[-58.835402,-34.27181],[-58.834515,-34.271909],[-58.83443957,-34.27200181],[-58.834311,-34.27216],[-58.83407731,-34.27220615],[-58.833948,-34.272344],[-58.833658,-34.2724],[-58.833432,-34.272534],[-58.83332347,-34.27262746],[-58.83318,-34.272751],[-58.8330762,-34.27279527],[-58.832833,-34.272899],[-58.832669,-34.273036],[-58.8324545,-34.27329246],[-58.83242029,-34.27333337],[-58.831791,-34.273758],[-58.831135,-34.274113],[-58.830587,-34.274468],[-58.829822,-34.274821],[-58.82964402,-34.27484393],[-58.82917,-34.274905],[-58.82878695,-34.27496474],[-58.828625,-34.27499],[-58.82852051,-34.27496732],[-58.828192,-34.274896],[-58.8280897,-34.274809],[-58.827978,-34.274714],[-58.82789484,-34.2746901],[-58.82693746,-34.27441498],[-58.82690261,-34.27440497],[-58.82663,-34.274315],[-58.82644035,-34.2741387],[-58.826204,-34.273919],[-58.825973,-34.273778],[-58.82581503,-34.27374457],[-58.825712,-34.2737],[-58.82542266,-34.27375707],[-58.82533147,-34.27377506],[-58.825302,-34.273771],[-58.825069,-34.273668],[-58.824893,-34.273603],[-58.824558,-34.273549],[-58.824388,-34.273499],[-58.82420744,-34.27343009],[-58.82405,-34.27337],[-58.823864,-34.273236],[-58.823721,-34.273066],[-58.823349,-34.272684],[-58.82317,-34.272557],[-58.82298425,-34.27247215],[-58.822846,-34.272409],[-58.82256639,-34.27237263],[-58.8225,-34.272364],[-58.8224394,-34.2724067],[-58.822255,-34.272405],[-58.822033,-34.272764],[-58.822138,-34.273035],[-58.82228425,-34.27312853],[-58.822568,-34.27331],[-58.82266417,-34.27355821],[-58.82231,-34.273491],[-58.82218959,-34.27349627],[-58.822131,-34.273486],[-58.82190568,-34.2734834],[-58.821697,-34.273481],[-58.82150996,-34.27366328],[-58.821147,-34.274017],[-58.820489,-34.274461],[-58.82008705,-34.27478787],[-58.819871,-34.27488],[-58.81974103,-34.27494244],[-58.819565,-34.275027],[-58.81921638,-34.27529145],[-58.81901,-34.275448],[-58.81896908,-34.27545669],[-58.818384,-34.275581],[-58.81828713,-34.27561759],[-58.818151,-34.275669],[-58.81814052,-34.27567663],[-58.817864,-34.275788],[-58.816656,-34.276768],[-58.81641549,-34.27688452],[-58.816109,-34.277033],[-58.815564,-34.277208],[-58.81522604,-34.27730954],[-58.814692,-34.27747],[-58.814035,-34.277825],[-58.81357991,-34.27811981],[-58.813487,-34.27818],[-58.81341826,-34.27817937],[-58.813161,-34.278177],[-58.812507,-34.278351],[-58.812178,-34.278618],[-58.81163,-34.278973],[-58.811409,-34.279241],[-58.810972,-34.279417],[-58.810643,-34.279685],[-58.810415,-34.280404],[-58.809976,-34.28076],[-58.809648,-34.280937],[-58.808992,-34.281201],[-58.80865723,-34.28129007],[-58.808338,-34.281375],[-58.807903,-34.281461],[-58.80683275,-34.28100343],[-58.80661284,-34.28090942],[-58.80640792,-34.2808858],[-58.806401,-34.280885],[-58.805532,-34.281065],[-58.804901,-34.281153],[-58.804558,-34.281141],[-58.80434568,-34.28111891],[-58.803837,-34.281066],[-58.80356283,-34.2809166],[-58.803325,-34.280787],[-58.80321188,-34.28055652],[-58.80307453,-34.2802767],[-58.803004,-34.280133],[-58.80244976,-34.2797257],[-58.80207,-34.279241],[-58.801746,-34.279147],[-58.801424,-34.278874],[-58.801101,-34.27869],[-58.800885,-34.278598],[-58.800451,-34.278594],[-58.80026826,-34.27836087],[-58.800307,-34.278173],[-58.80027799,-34.27791719],[-58.800463,-34.277692],[-58.8004707,-34.27715288],[-58.800482,-34.277111],[-58.800461,-34.276925],[-58.800302,-34.276765],[-58.800101,-34.276735],[-58.799813,-34.276775],[-58.799442,-34.276958],[-58.79910706,-34.27716354],[-58.79880568,-34.27734849],[-58.798769,-34.277371],[-58.798572,-34.277455],[-58.797915,-34.277402],[-58.79757233,-34.27739832],[-58.797542,-34.277398],[-58.79753952,-34.27739942],[-58.796828,-34.277806],[-58.796635,-34.277995],[-58.795788,-34.278485],[-58.79511,-34.279172],[-58.7942,-34.279627],[-58.793428,-34.280046],[-58.792942,-34.280595],[-58.792198,-34.281557],[-58.791305,-34.282228],[-58.791135,-34.282584],[-58.790294,-34.282833],[-58.789543,-34.282795],[-58.788204,-34.282902],[-58.787934,-34.282997],[-58.787219,-34.283416],[-58.786654,-34.283694],[-58.785906,-34.284085],[-58.784754,-34.284784],[-58.783742,-34.285284],[-58.782586,-34.285685],[-58.781623,-34.286052],[-58.78013,-34.286551],[-58.779732,-34.286631],[-58.778742,-34.286755],[-58.778388,-34.286598],[-58.778251,-34.286313],[-58.778,-34.286113],[-58.777554,-34.286053],[-58.77713,-34.285938],[-58.776382,-34.285744],[-58.775818,-34.285249],[-58.77583283,-34.28517462],[-58.77584839,-34.28509663],[-58.776032,-34.284176],[-58.775766,-34.283513],[-58.775227,-34.282135],[-58.775075,-34.281647],[-58.774937,-34.281344],[-58.774886,-34.281056],[-58.774821,-34.280663],[-58.774818,-34.280317],[-58.774847,-34.279971],[-58.774851,-34.279696],[-58.774903,-34.279324],[-58.7749,-34.279046],[-58.77492325,-34.27881804],[-58.774946,-34.278595],[-58.77498735,-34.27847096],[-58.775062,-34.278247],[-58.775269,-34.277746],[-58.77572868,-34.27695262],[-58.775736,-34.27694],[-58.775945,-34.276558],[-58.776004,-34.276332],[-58.77611947,-34.27594299],[-58.776145,-34.275857],[-58.776294,-34.275342],[-58.776395,-34.274892],[-58.776422,-34.274637],[-58.776457,-34.274396],[-58.77646,-34.274193],[-58.77649294,-34.27404476],[-58.776544,-34.273815],[-58.77661065,-34.27371052],[-58.776729,-34.273525],[-58.776972,-34.273187],[-58.777276,-34.272807],[-58.777698,-34.272477],[-58.77779379,-34.27243453],[-58.77791,-34.272383],[-58.778166,-34.272194],[-58.77837355,-34.27208237],[-58.778549,-34.271988],[-58.77866966,-34.2719429],[-58.77867283,-34.27194171],[-58.778969,-34.271831],[-58.779246,-34.27176],[-58.77935959,-34.27175375],[-58.779537,-34.271744],[-58.779888,-34.271729],[-58.780119,-34.271725],[-58.780387,-34.271686],[-58.78047666,-34.27164966],[-58.78050702,-34.27163736],[-58.780688,-34.271564],[-58.78089138,-34.27142447],[-58.78100906,-34.27134375],[-58.781067,-34.271304],[-58.781258,-34.271073],[-58.781486,-34.270697],[-58.78157824,-34.27029622],[-58.781657,-34.269954],[-58.781785,-34.268853],[-58.781825,-34.268309],[-58.781846,-34.26795],[-58.781882,-34.267712],[-58.78191434,-34.26758574],[-58.7820041,-34.26723532],[-58.782007,-34.267224],[-58.782206,-34.266936],[-58.782481,-34.2666644],[-58.78248916,-34.26665634],[-58.78253,-34.266616],[-58.782925,-34.266271],[-58.783351,-34.2659],[-58.78389,-34.265227],[-58.784124,-34.264844],[-58.784783,-34.26355],[-58.7851,-34.262866],[-58.785834,-34.261142],[-58.78612,-34.260458],[-58.786482,-34.25967],[-58.78686718,-34.25890642],[-58.786936,-34.25877],[-58.78704837,-34.25849534],[-58.787144,-34.258262],[-58.78732568,-34.25795826],[-58.787431,-34.257495],[-58.787733,-34.256062],[-58.78789979,-34.25557014],[-58.787918,-34.255412],[-58.78804179,-34.25514965],[-58.788136,-34.25495],[-58.788685,-34.254617],[-58.78895036,-34.25444543],[-58.789132,-34.254328],[-58.7891367,-34.25432472],[-58.789463,-34.254097],[-58.7895507,-34.25406007],[-58.78993456,-34.25389845],[-58.789957,-34.253889],[-58.79007845,-34.25385282],[-58.790568,-34.253707],[-58.79099237,-34.25356696],[-58.79110974,-34.25352822],[-58.791368,-34.253443],[-58.79160679,-34.25330512],[-58.791988,-34.253085],[-58.79219711,-34.25295289],[-58.792542,-34.252735],[-58.79269588,-34.25259789],[-58.7929,-34.252416],[-58.793211,-34.252071],[-58.793453,-34.251753],[-58.79346383,-34.25174185],[-58.793592,-34.25161],[-58.79361421,-34.25156575],[-58.793656,-34.251167],[-58.793672,-34.250819],[-58.793651,-34.250066],[-58.79366,-34.24961],[-58.793748,-34.2493],[-58.79388503,-34.24899743],[-58.79392647,-34.24883568],[-58.793952,-34.248736],[-58.794369,-34.248068],[-58.794623,-34.247674],[-58.794789,-34.24742],[-58.79525,-34.246848],[-58.795526,-34.24646],[-58.795764,-34.246153],[-58.795988,-34.245869],[-58.796229,-34.245533],[-58.796472,-34.24512],[-58.796753,-34.244763],[-58.797099,-34.244482],[-58.79717266,-34.24444941],[-58.79748292,-34.24431217],[-58.797576,-34.244271],[-58.797792,-34.244149],[-58.797911,-34.244075],[-58.798142,-34.243855],[-58.798675,-34.243291],[-58.799189,-34.242698],[-58.79942,-34.2423],[-58.799601,-34.241983],[-58.799763,-34.241707],[-58.799963,-34.241289],[-58.800279,-34.240819],[-58.80075,-34.240169],[-58.8012007,-34.23969742],[-58.801441,-34.239446],[-58.80158136,-34.23921546],[-58.801771,-34.238904],[-58.802135,-34.238463],[-58.802217,-34.238356],[-58.802456,-34.237995],[-58.802653,-34.237669],[-58.802772,-34.237448],[-58.802851,-34.237252],[-58.802968,-34.236932],[-58.80299504,-34.23688348],[-58.80307092,-34.2367473],[-58.803114,-34.23667],[-58.803303,-34.236333],[-58.803348,-34.235941],[-58.803169,-34.235536],[-58.80292806,-34.23520552],[-58.802873,-34.23513],[-58.80247,-34.23482],[-58.80183,-34.234596],[-58.801138,-34.234273],[-58.800799,-34.234095],[-58.800487,-34.233863],[-58.800214,-34.233653],[-58.800153,-34.233337],[-58.800015,-34.23291],[-58.799784,-34.232229],[-58.79948,-34.231441],[-58.799251,-34.230894],[-58.798512,-34.230221],[-58.797752,-34.230094],[-58.797173,-34.230143],[-58.796532,-34.229995],[-58.795877,-34.229825],[-58.795285,-34.229928],[-58.79516647,-34.22993118],[-58.79479314,-34.2299412],[-58.79333928,-34.22947501],[-58.793096,-34.229397],[-58.78808121,-34.23180984],[-58.78705,-34.232306],[-58.78513166,-34.23289913],[-58.776377,-34.235606],[-58.77291501,-34.23675732],[-58.770339,-34.237614],[-58.759134,-34.239943],[-58.750607,-34.241681],[-58.74296,-34.243367],[-58.734034,-34.244624],[-58.72036496,-34.24682624],[-58.718703,-34.247094],[-58.712152,-34.248902]]]]}}