{"type":"Feature","properties":{"slug":"florencio-varela","name":"Florencio Varela","region":"sur","sort":8},"geometry":{"type":"MultiPolygon","coordinates":[[[[-58.267461,-34.773646],[-58.26733363,-34.77379842],[-58.26682428,-34.774408],[-58.261779,-34.780446],[-58.25667507,-34.78592597],[-58.255902,-34.786756],[-58.252648,-34.790348],[-58.251437,-34.791412],[-58.249607,-34.792543],[-58.247513,-34.793663],[-58.246646,-34.794233],[-58.246758,-34.7943],[-58.245759,-34.794977],[-58.243341,-34.796673],[-58.239206,-34.799718],[-58.238496,-34.800408],[-58.23521101,-34.80220533],[-58.23499564,-34.80230333],[-58.232396,-34.803378],[-58.229122,-34.804749],[-58.226908,-34.805677],[-58.225107,-34.806416],[-58.213914,-34.808834],[-58.2102479,-34.81057719],[-58.209365,-34.810997],[-58.203868,-34.812039],[-58.20297269,-34.81241014],[-58.201282,-34.813111],[-58.199915,-34.813772],[-58.19975213,-34.81400969],[-58.19845,-34.81591],[-58.19834218,-34.81605562],[-58.1982126,-34.81623063],[-58.197523,-34.817162],[-58.19636811,-34.81915823],[-58.19609635,-34.81962797],[-58.19534083,-34.82093389],[-58.194871,-34.821746],[-58.19050215,-34.83630046],[-58.18933272,-34.84019631],[-58.18896453,-34.8414229],[-58.18884892,-34.84180805],[-58.18846696,-34.84284354],[-58.1883444,-34.8431758],[-58.18504461,-34.85212149],[-58.1832599,-34.85695983],[-58.181483,-34.861777],[-58.181437,-34.86190198],[-58.180462,-34.864551],[-58.179871,-34.866004],[-58.181803,-34.867743],[-58.18329334,-34.86906434],[-58.18423777,-34.86990167],[-58.19253046,-34.87708738],[-58.197077,-34.881027],[-58.210104,-34.89212],[-58.21611551,-34.89718957],[-58.22361804,-34.90351653],[-58.230099,-34.908982],[-58.237754,-34.915342],[-58.23962405,-34.9169391],[-58.2397874,-34.9170786],[-58.247414,-34.923592],[-58.24671652,-34.92415288],[-58.24666299,-34.92419592],[-58.24366476,-34.92660692],[-58.23813432,-34.93105418],[-58.236097,-34.9326],[-58.21556611,-34.94833941],[-58.21269849,-34.9505378],[-58.21117801,-34.95170343],[-58.21115341,-34.95172229],[-58.211099,-34.951764],[-58.21108465,-34.95178335],[-58.211655,-34.952284],[-58.2116713,-34.95227093],[-58.23276101,-34.97095194],[-58.23842938,-34.97597292],[-58.247645,-34.984136],[-58.24685495,-34.98564273],[-58.24593418,-34.98739878],[-58.245642,-34.987956],[-58.245894,-34.988085],[-58.257937,-34.994232],[-58.26574569,-34.99932821],[-58.267771,-35.00065],[-58.267966,-35.000826],[-58.269075,-35.001824],[-58.272648,-35.004997],[-58.277172,-35.009418],[-58.27725484,-35.00926666],[-58.27727051,-35.00923803],[-58.277507,-35.008806],[-58.27778651,-35.00829567],[-58.27872906,-35.00657477],[-58.279143,-35.005819],[-58.281189,-35.002083],[-58.28256,-34.999581],[-58.284196,-34.996592],[-58.284017,-34.996425],[-58.284436,-34.995807],[-58.287415,-34.991413],[-58.288046,-34.990482],[-58.29000655,-34.98758973],[-58.292185,-34.984376],[-58.292372,-34.9841],[-58.292478,-34.983944],[-58.2961538,-34.97851854],[-58.297352,-34.97675],[-58.297575,-34.976421],[-58.297804,-34.976083],[-58.300375,-34.972289],[-58.30067852,-34.97184073],[-58.300786,-34.971682],[-58.29616941,-34.9692469],[-58.294979,-34.968619],[-58.288205,-34.965044],[-58.29571066,-34.95470815],[-58.29919336,-34.94991222],[-58.3163175,-34.92633101],[-58.31630422,-34.92632444],[-58.31618065,-34.92626329],[-58.31540626,-34.92588004],[-58.31311871,-34.92474791],[-58.29405919,-34.91531521],[-58.29028803,-34.91576046],[-58.2844,-34.916456],[-58.28202794,-34.91676793],[-58.280689,-34.9169442],[-58.27839584,-34.91696749],[-58.27586593,-34.91699319],[-58.27460701,-34.91706012],[-58.27460705,-34.91706006],[-58.27460708,-34.91706003],[-58.2746071,-34.91705999],[-58.274607,-34.91706],[-58.27715305,-34.91323626],[-58.27775421,-34.91233344],[-58.280898,-34.907612],[-58.28619608,-34.90354393],[-58.29718396,-34.89510739],[-58.29718952,-34.89509968],[-58.29812592,-34.89385947],[-58.31175068,-34.87581399],[-58.31187515,-34.87564913],[-58.31191175,-34.87560065],[-58.31198851,-34.87549899],[-58.31209875,-34.87534453],[-58.31246031,-34.87483795],[-58.31249068,-34.8747954],[-58.31299387,-34.87409039],[-58.31299773,-34.87408497],[-58.31417859,-34.87242015],[-58.31450095,-34.87196568],[-58.31511373,-34.87108326],[-58.31711566,-34.86820055],[-58.31711568,-34.86820052],[-58.31713222,-34.86817672],[-58.31714796,-34.86815398],[-58.31433171,-34.86666849],[-58.31433167,-34.86666847],[-58.31325491,-34.86610051],[-58.3130933,-34.86601526],[-58.308266,-34.863469],[-58.30148002,-34.85977377],[-58.29702751,-34.8573492],[-58.292471,-34.854868],[-58.295527,-34.850973],[-58.29553448,-34.85091924],[-58.29554133,-34.85086998],[-58.29554298,-34.85085778],[-58.29973608,-34.84549729],[-58.29990495,-34.84528141],[-58.30073235,-34.84422365],[-58.3022308,-34.84230803],[-58.30272316,-34.84167859],[-58.30915489,-34.83434055],[-58.31038183,-34.83295667],[-58.31171192,-34.83145641],[-58.31327111,-34.82969776],[-58.31330457,-34.82965666],[-58.313487,-34.829432],[-58.31552119,-34.82711639],[-58.31731756,-34.82507097],[-58.32111022,-34.82075164],[-58.32258379,-34.81907345],[-58.32266899,-34.81896215],[-58.32378724,-34.81750101],[-58.324956,-34.815974],[-58.327386,-34.812799],[-58.32770695,-34.81237945],[-58.328662,-34.811131],[-58.330955,-34.808148],[-58.332171,-34.806564],[-58.33235403,-34.80632562],[-58.33267299,-34.80591679],[-58.3328,-34.805754],[-58.33279865,-34.80575327],[-58.33279501,-34.80575131],[-58.33280199,-34.80574222],[-58.332806,-34.805737],[-58.331231,-34.804889],[-58.330063,-34.804263],[-58.328336,-34.803314],[-58.322641,-34.800272],[-58.320007,-34.798865],[-58.31473568,-34.79606248],[-58.314426,-34.795893],[-58.31332368,-34.79529868],[-58.31178372,-34.7944684],[-58.31091533,-34.7940002],[-58.31079358,-34.79393456],[-58.31044976,-34.79374919],[-58.30982115,-34.79341027],[-58.30977924,-34.79338767],[-58.30977868,-34.79338736],[-58.30977843,-34.79338771],[-58.30975379,-34.79342218],[-58.30957276,-34.79367546],[-58.30757,-34.796467],[-58.3075654,-34.79647329],[-58.307377,-34.79673132],[-58.30667691,-34.79768258],[-58.30413278,-34.80113948],[-58.304114,-34.801165],[-58.30312744,-34.80038376],[-58.302735,-34.800073],[-58.30265249,-34.7999539],[-58.30217035,-34.79925794],[-58.301134,-34.797762],[-58.30136645,-34.79641167],[-58.301375,-34.796362],[-58.30130784,-34.79591182],[-58.301119,-34.794646],[-58.300772,-34.792559],[-58.30087,-34.791564],[-58.30092455,-34.79075807],[-58.30095,-34.790382],[-58.3004572,-34.78998272],[-58.29926332,-34.78901543],[-58.299155,-34.788672],[-58.299108,-34.788139],[-58.29895465,-34.78775396],[-58.29893213,-34.78769742],[-58.298877,-34.787559],[-58.298781,-34.787412],[-58.298581,-34.78701],[-58.2985701,-34.78695786],[-58.298549,-34.785853],[-58.29851904,-34.78509161],[-58.29848384,-34.78419738],[-58.298454,-34.783439],[-58.29672916,-34.7825061],[-58.29591035,-34.78206323],[-58.287466,-34.777496],[-58.28567436,-34.77652683],[-58.28416783,-34.77571189],[-58.281506,-34.774272],[-58.27315193,-34.76966615],[-58.27292489,-34.76954097],[-58.27163923,-34.76883216],[-58.27160699,-34.76886791],[-58.271248,-34.769266],[-58.27096149,-34.76957272],[-58.27076689,-34.7697952],[-58.268569,-34.772308],[-58.26749714,-34.77360235],[-58.267461,-34.773646]]]]}}