{"type":"Feature","properties":{"slug":"flores-floresta","name":"Flores y Floresta","region":"caba","sort":20},"geometry":{"type":"Polygon","coordinates":[[[-58.5303575257912,-34.63480022662671],[-58.53035447460906,-34.634851989477774],[-58.53032905994829,-34.635282902445326],[-58.53031744243188,-34.63547990991618],[-58.5303053213163,-34.63568542793403],[-58.530296592482365,-34.63583342556553],[-58.530289880952104,-34.63594721781878],[-58.53026914483055,-34.63629881335579],[-58.53009836035448,-34.639194494467546],[-58.53008396352582,-34.639438596912164],[-58.530080613935546,-34.6394953870798],[-58.52985024965632,-34.64340086414579],[-58.52921167517701,-34.65422503409645],[-58.5292091155551,-34.65426841964572],[-58.529208051049466,-34.654286502590516],[-58.52920705002191,-34.65430347405725],[-58.52920702385798,-34.65430349390251],[-58.52916797951432,-34.65433296600576],[-58.52915064911372,-34.65434604587248],[-58.52879092409146,-34.65461758061042],[-58.525880965892085,-34.656814029476564],[-58.52577214093456,-34.65689616532523],[-58.525771707023736,-34.65689649636641],[-58.524772213393526,-34.657654147799306],[-58.52477216651242,-34.657654182978064],[-58.52304325686612,-34.658964708095056],[-58.523043019183866,-34.65896488849422],[-58.51991540005389,-34.661335475613114],[-58.51875678790687,-34.66221359423573],[-58.518387698102586,-34.66249332401338],[-58.51836548707924,-34.662510153513495],[-58.518341394056684,-34.66252841710588],[-58.51803098496973,-34.66276367060836],[-58.513245807726456,-34.66638999192753],[-58.51221818887423,-34.66716867999866],[-58.51198686361317,-34.66734396570373],[-58.51198683416908,-34.66734398734939],[-58.51120730139656,-34.66793466644173],[-58.508922596079714,-34.66966578982395],[-58.50874348764477,-34.66980149579618],[-58.5082743070176,-34.6701569784565],[-58.502615385908946,-34.67444417022068],[-58.50252527504022,-34.674512432484036],[-58.50248566531828,-34.67454228824881],[-58.49901687624406,-34.677156807239285],[-58.498745071090475,-34.67736166280938],[-58.4950239239584,-34.680166072766575],[-58.49423666458799,-34.68075934521925],[-58.49325884137544,-34.68149620614473],[-58.49153440759081,-34.68279564100767],[-58.49145205341607,-34.68285769690618],[-58.4900611753752,-34.683905732668585],[-58.48880024679376,-34.684855814130174],[-58.48739577140427,-34.6859140133292],[-58.48709978917362,-34.68613701533992],[-58.48655510986077,-34.68654738806649],[-58.48567359613506,-34.68721152504783],[-58.48555548777095,-34.68730050677616],[-58.4847647256115,-34.687896254004144],[-58.48426160889743,-34.68827528686743],[-58.484003350791916,-34.68846984793659],[-58.4833722442646,-34.688945294574296],[-58.48335955725069,-34.68895485250267],[-58.48335535334125,-34.688958024352246],[-58.48335504998225,-34.6889582534728],[-58.483349106153604,-34.6889627427178],[-58.48328417584963,-34.68901178311913],[-58.483283709165306,-34.68901213559497],[-58.48279104470362,-34.689384230977176],[-58.48249574427002,-34.689607263154606],[-58.48249490740342,-34.68960789521388],[-58.48216382307537,-34.68985795167962],[-58.48216378706929,-34.68985797962886],[-58.47406562885067,-34.69597352199382],[-58.47253528149032,-34.69712904189032],[-58.47199499383492,-34.69753698499685],[-58.46657895385437,-34.70162599519974],[-58.46412974091982,-34.70347489373158],[-58.46238302130126,-34.704793403695305],[-58.462382985370276,-34.70479343081691],[-58.462196513737666,-34.70493418388111],[-58.462105155646526,-34.70500314335156],[-58.46187389784237,-34.70517770281413],[-58.461842541221166,-34.70520137158465],[-58.461753085031326,-34.705268893968274],[-58.461753045737254,-34.70526892281283],[-58.46174531571887,-34.705274640338104],[-58.46171655777438,-34.70529591124921],[-58.4615856913617,-34.705355483937794],[-58.46107186181932,-34.704671225587944],[-58.46103404160651,-34.704615586866936],[-58.46100331241577,-34.70458142259272],[-58.46096076416967,-34.70454042534435],[-58.46086384955887,-34.704423778813876],[-58.46075452549773,-34.704291514253754],[-58.46061269874642,-34.70416510551476],[-58.46053705899255,-34.704067493247024],[-58.460485056409425,-34.704010877921924],[-58.46046141921632,-34.703975737565464],[-58.460402325368115,-34.703915217615645],[-58.460341608303935,-34.70384396972329],[-58.46031298245967,-34.70381092073758],[-58.45887537661203,-34.70223041290475],[-58.45791575074229,-34.70111370884193],[-58.45376593316049,-34.696230508807844],[-58.4512451530934,-34.69318488977444],[-58.44448608130332,-34.68515994929226],[-58.44444566191308,-34.6851119539715],[-58.444443775992674,-34.68510971456551],[-58.44434995422554,-34.684998307222116],[-58.44431984430057,-34.68496255422798],[-58.44431980589025,-34.68496250861895],[-58.44429768464546,-34.684936241483605],[-58.444297601511714,-34.684936142769175],[-58.444297055272806,-34.6849354941557],[-58.44424169057962,-34.684871217691956],[-58.44417104837197,-34.68478082946837],[-58.44410661065593,-34.684706019444164],[-58.443836725686154,-34.684392694452306],[-58.44205950938191,-34.68232934751456],[-58.44205343553169,-34.682322014385015],[-58.44194963263687,-34.68219669210856],[-58.44194431694406,-34.68219027403763],[-58.440955451975995,-34.68099638428038],[-58.4409503284202,-34.68099019696114],[-58.44049103648367,-34.68035574334798],[-58.43978574543653,-34.67958410101886],[-58.43978268035175,-34.6795803992354],[-58.43974810793628,-34.67953949826325],[-58.43969197514626,-34.67947309039664],[-58.43961651054854,-34.67938381086145],[-58.43953349793306,-34.67928560043246],[-58.43929952915623,-34.67900879806371],[-58.43862668146547,-34.67820378321246],[-58.4384687005337,-34.67801476673896],[-58.43733756829892,-34.676661393303625],[-58.437280304187205,-34.67659287655568],[-58.436820883680845,-34.67604317373863],[-58.43682008638781,-34.67604221987241],[-58.43629980478777,-34.675419685805934],[-58.43622787832961,-34.6753336238381],[-58.435905581524395,-34.67494797765804],[-58.43569088908101,-34.67468801086514],[-58.43566814472647,-34.67466046939719],[-58.43524464702312,-34.67414765887043],[-58.435196188038404,-34.67408897934382],[-58.435165062512375,-34.67405128955946],[-58.43465290829578,-34.673431113642124],[-58.434651632276264,-34.6734295701257],[-58.43456812327746,-34.67333061694745],[-58.43454613962359,-34.673304568181045],[-58.43409557536714,-34.672770666751106],[-58.4340766642474,-34.672748257632556],[-58.43390762284644,-34.672547947658046],[-58.43372126578189,-34.67232711801338],[-58.43372122433976,-34.672327067524265],[-58.43368615190119,-34.67228550843623],[-58.43366922479165,-34.6722654506165],[-58.433623365355295,-34.6722111077707],[-58.433515905808164,-34.67208178306341],[-58.433513483496434,-34.67207923057487],[-58.43344887621782,-34.67201113384596],[-58.43344343066134,-34.67200539502653],[-58.43335674030053,-34.67191402199119],[-58.433220297653016,-34.67177020961573],[-58.43312572518042,-34.67165419437572],[-58.43308834513935,-34.67160833931273],[-58.432904210106514,-34.67138245201611],[-58.43268043577541,-34.6711079377346],[-58.43266819984661,-34.67109292615265],[-58.43263416392027,-34.6710511732107],[-58.432629866082806,-34.67104590067269],[-58.432465440671976,-34.67084419171528],[-58.432327594570644,-34.67067508614461],[-58.4314790263291,-34.66970166802314],[-58.4307396537737,-34.66884585777617],[-58.43067113443404,-34.66874745842435],[-58.43011743290352,-34.668082057691215],[-58.43009800226297,-34.6680600480244],[-58.430086301136726,-34.66804679137151],[-58.4292321456566,-34.667146369311034],[-58.4291310249642,-34.667039620865246],[-58.4291292930673,-34.667038188936814],[-58.42898504508088,-34.66684257976751],[-58.42877629255971,-34.6665645630665],[-58.42871430622627,-34.66647669543941],[-58.428609145090114,-34.666342145157316],[-58.42858110133806,-34.66630827829661],[-58.42857441859121,-34.66629722560924],[-58.428569295646675,-34.6662887526982],[-58.428548633407544,-34.666260073526274],[-58.42850826090942,-34.66620126378421],[-58.428502145015685,-34.666191732439906],[-58.428416576385104,-34.66611094687605],[-58.428383042865526,-34.666077203074295],[-58.42830461272516,-34.665998219191565],[-58.428229800328396,-34.6659268840677],[-58.42820101143439,-34.665909793825506],[-58.42818364988531,-34.66589782532118],[-58.428182978909696,-34.66589789363528],[-58.428058433296336,-34.66574714266018],[-58.428043078864256,-34.66572855748983],[-58.42801489167257,-34.66568793396292],[-58.42786229164808,-34.6654680052101],[-58.427596616971954,-34.665155571873335],[-58.427398015284574,-34.66488252103516],[-58.42694819759234,-34.66439975688906],[-58.426850094409836,-34.66431625225907],[-58.42672973314182,-34.66415747830586],[-58.42672893285055,-34.664156421609874],[-58.42661126889329,-34.66410895300951],[-58.426610607897125,-34.66410868599237],[-58.42633736169886,-34.66381139048577],[-58.42633652534996,-34.663810479805115],[-58.42620976449241,-34.663736628205996],[-58.42620955508577,-34.663736506451514],[-58.42606817323448,-34.66361482849398],[-58.42582004693541,-34.663371482733055],[-58.425774009788334,-34.66328104512687],[-58.42577390515153,-34.66328083867108],[-58.425407249480635,-34.66300454492604],[-58.42520681610326,-34.6628511566082],[-58.425153081851214,-34.66281409713762],[-58.4250962642636,-34.662780322327826],[-58.42509075962731,-34.66277752261657],[-58.42503665780834,-34.662750006239676],[-58.424997500359375,-34.66273262371364],[-58.424949382568954,-34.662709353931994],[-58.42486139430577,-34.6626608392116],[-58.42482925775891,-34.66264193455499],[-58.42479877371698,-34.66262124381092],[-58.424610597157056,-34.66250453236779],[-58.42454245578304,-34.66246226870241],[-58.42451163470439,-34.66244408641164],[-58.424433695840406,-34.662394804770514],[-58.424387967615196,-34.662359677437664],[-58.42438704938684,-34.66235897223954],[-58.42434380251131,-34.66232033828321],[-58.424304198386245,-34.662279122927714],[-58.424289842012186,-34.66226246021953],[-58.42426210181117,-34.662235008717694],[-58.4242378426861,-34.66220539132745],[-58.424217309951146,-34.66217390920151],[-58.424209876274894,-34.66216026122546],[-58.42419775470049,-34.66214999400295],[-58.42417425426261,-34.662130088638754],[-58.42417271574064,-34.66212878547787],[-58.424131297733496,-34.662101177216584],[-58.42408620680159,-34.66207782603584],[-58.424043891438195,-34.6620516470974],[-58.42412476953433,-34.661948461298],[-58.42412811077245,-34.661944198649685],[-58.4241554787723,-34.6619092822213],[-58.424194923831074,-34.66185895725992],[-58.424197773924675,-34.66185532097156],[-58.424216931000714,-34.661830879885486],[-58.424688004873126,-34.6612298621343],[-58.42494468108626,-34.66092325077709],[-58.42503140590861,-34.660816376710414],[-58.42509561899195,-34.66073727348389],[-58.42530960446608,-34.66047366352515],[-58.42572076265919,-34.65996714956317],[-58.42635573437525,-34.65918505183627],[-58.42644378824212,-34.65907659064777],[-58.42674830161659,-34.65867794737795],[-58.42688054041841,-34.658581688019005],[-58.42713994840479,-34.658392851440595],[-58.42728317049532,-34.65828852724361],[-58.42776690856445,-34.65794560009597],[-58.42783149862374,-34.65789981175504],[-58.42797207555214,-34.657798725651695],[-58.4286680501367,-34.6572980772224],[-58.428797287476556,-34.65720557831198],[-58.428908451342856,-34.657126031090854],[-58.42915621992641,-34.656947236007646],[-58.42948634758513,-34.656709007509875],[-58.42963604562601,-34.65659397802228],[-58.42984007499783,-34.656441125513474],[-58.430703157186905,-34.65579452166045],[-58.43081385556131,-34.655696333115756],[-58.43093683881343,-34.655628629952446],[-58.43129074683368,-34.65543152819845],[-58.43139125801051,-34.65533859620065],[-58.43199504555017,-34.6549005112354],[-58.43212018315596,-34.654809696961955],[-58.433085137556105,-34.654104442528286],[-58.43443587935198,-34.653117109717876],[-58.43370256351428,-34.65253618482232],[-58.433680528975174,-34.65251872910368],[-58.433641386699925,-34.6524879860518],[-58.43333683691933,-34.65224878592884],[-58.432998508116306,-34.65198305250246],[-58.43299314820959,-34.651978842652284],[-58.432744563793825,-34.65178065145632],[-58.432050464702456,-34.65122725294634],[-58.432033245378584,-34.651213523589824],[-58.43202974713198,-34.65121062474234],[-58.43100487923841,-34.65036134744892],[-58.43098558345493,-34.65034535736196],[-58.43071147618098,-34.65011393971716],[-58.43066285509917,-34.650072890711954],[-58.43056378346787,-34.64998924796273],[-58.43054956580273,-34.64997724445965],[-58.430442942343554,-34.64988722564616],[-58.430442655846285,-34.64988698376522],[-58.43043953887052,-34.649884352196814],[-58.430432458920855,-34.649878374808424],[-58.43047455705747,-34.64984743339203],[-58.430494221186535,-34.64983298057775],[-58.43050394356305,-34.64982583478647],[-58.43050664992771,-34.649823845651404],[-58.43059202871095,-34.649761093136185],[-58.43076703676027,-34.64963231602034],[-58.430818766592004,-34.64959425133304],[-58.43083888641125,-34.649578181755345],[-58.43089980451676,-34.649529525192705],[-58.43090202263517,-34.64952775353357],[-58.43113430263003,-34.64934222583546],[-58.431151621501094,-34.649328392779566],[-58.43179329647895,-34.648815864431356],[-58.43196440554907,-34.648679191961946],[-58.43203420579136,-34.64862343390963],[-58.432103050236925,-34.648568440035795],[-58.43261471904551,-34.64815970856349],[-58.43284262662022,-34.647977648255655],[-58.43295673256644,-34.647888534822286],[-58.432969460712215,-34.64787859449119],[-58.43376756828061,-34.64725474501549],[-58.43450482866842,-34.646679450475276],[-58.43460226265029,-34.6465779055461],[-58.43492550133184,-34.64624102483316],[-58.43501496003608,-34.6462809756221],[-58.43742459106528,-34.647356519034055],[-58.43787250796383,-34.64695696169176],[-58.43885297895502,-34.64603912722385],[-58.43912027559578,-34.645788967361035],[-58.4396547790259,-34.64528850430599],[-58.439872635077606,-34.64508460103525],[-58.44018654837931,-34.64479134924772],[-58.44052415312361,-34.64447598753027],[-58.44062745354533,-34.64437945612423],[-58.44074763091086,-34.64426722418482],[-58.441477377361174,-34.64358277390022],[-58.442390950323166,-34.642725814370316],[-58.44244158026171,-34.642660117916314],[-58.44295410043636,-34.64199541005236],[-58.44308008824637,-34.641782048649475],[-58.44331444743382,-34.641975751157176],[-58.443599432414025,-34.64223128953569],[-58.44424608651493,-34.642811119164534],[-58.44525358714735,-34.6420440121951],[-58.445311040905736,-34.64193254073249],[-58.446056053032244,-34.64136387990141],[-58.44620618348753,-34.64125017654648],[-58.44715290473593,-34.6405249691276],[-58.44734089719906,-34.64038126031016],[-58.44812873453594,-34.63978290501036],[-58.44940936314111,-34.638810301917836],[-58.449556780494206,-34.63869836265971],[-58.44956079009405,-34.638695318125684],[-58.45032421410153,-34.63818701619146],[-58.450548367553964,-34.63803154723218],[-58.45088631941001,-34.637801371949124],[-58.451304511578,-34.637516542618265],[-58.45144278520724,-34.63747134917929],[-58.45160255106433,-34.63714670126117],[-58.451924122275535,-34.636493254810595],[-58.45192542370477,-34.63649061107567],[-58.45200345476895,-34.6363320482445],[-58.45204959146391,-34.63623829701672],[-58.45241793622657,-34.63548980172912],[-58.45290097720462,-34.63450807332738],[-58.45332435353949,-34.63364781841996],[-58.45338588291533,-34.63352317452157],[-58.45387196904294,-34.63253890741474],[-58.45394338032828,-34.63239433363048],[-58.454379774338605,-34.631505131229225],[-58.45323468568408,-34.63114447587016],[-58.45157819570984,-34.63064368852886],[-58.45199705483173,-34.62975005683256],[-58.4521046866971,-34.629524219158256],[-58.452570573514926,-34.6285465035358],[-58.45267095846444,-34.628335876112736],[-58.45267290765239,-34.628331933478954],[-58.45267341703769,-34.62833089959655],[-58.4528723214883,-34.62792934030768],[-58.45343882133873,-34.626785783086014],[-58.45393977973651,-34.62576912062865],[-58.45401986059911,-34.62565453750267],[-58.45403299380904,-34.62563574572414],[-58.45457663154294,-34.62448464608356],[-58.45477636592992,-34.62405170149421],[-58.455050302853266,-34.62345790697096],[-58.45555949372928,-34.62234349066524],[-58.456077702193305,-34.62120921249129],[-58.45662469500949,-34.62001197563701],[-58.457226282479326,-34.6186952303991],[-58.45729639992256,-34.61854178068003],[-58.457767363434506,-34.617511015850326],[-58.45820023380262,-34.61656560020092],[-58.45850079252648,-34.615905462794885],[-58.459034681789504,-34.61473948113432],[-58.459449971836904,-34.61389068145688],[-58.460130625468615,-34.614149785494654],[-58.460395019119154,-34.61425043025604],[-58.46066895234276,-34.614353043351],[-58.46186639569673,-34.614801731754405],[-58.46303156906291,-34.61523822380727],[-58.46320550680111,-34.615303366101216],[-58.46413619074996,-34.615648649579974],[-58.464374527650605,-34.615733719243],[-58.4644672898286,-34.615766817638],[-58.46453951480469,-34.61579257771106],[-58.46453994984254,-34.61579273275089],[-58.464614055757025,-34.61582485949119],[-58.46554398751158,-34.61622800518193],[-58.46567874621544,-34.61628638400265],[-58.46665289628781,-34.61670805623945],[-58.46676423152851,-34.61675622321197],[-58.46796200123131,-34.61727471074118],[-58.46863640888795,-34.61756665932689],[-58.46879800569916,-34.61764989196826],[-58.46909479347166,-34.6178028383674],[-58.4693409809059,-34.61792972921336],[-58.46934313441669,-34.61793089374112],[-58.46937172650312,-34.6179463498689],[-58.46962900450949,-34.61808542497122],[-58.47038792788915,-34.61849566625799],[-58.471400643517015,-34.619043003859474],[-58.47162221904028,-34.61916024381256],[-58.47264466747249,-34.61970124780419],[-58.47278982568917,-34.61977805377159],[-58.47293524457761,-34.61985318470717],[-58.47419061512207,-34.620502452691795],[-58.474510338892195,-34.62066770799882],[-58.47549880859763,-34.62118435543004],[-58.475746396877895,-34.62131583488245],[-58.47602727899363,-34.62146306176143],[-58.47674256526256,-34.62183510173413],[-58.47780801107838,-34.62238921186758],[-58.47800702748165,-34.62249271061835],[-58.47811684439744,-34.62254981034508],[-58.47828666699951,-34.62264070673417],[-58.47879986222602,-34.622915363601564],[-58.479376809868015,-34.62319733484265],[-58.479756356512794,-34.62336066643075],[-58.48074071341942,-34.623784266900714],[-58.4817337707303,-34.624211519645186],[-58.48178787186382,-34.62423482215012],[-58.481822974906386,-34.6242499191969],[-58.481886845049566,-34.624277387433494],[-58.48188688103702,-34.624277402752135],[-58.481920950292654,-34.62429205552861],[-58.4827431937344,-34.62463474854925],[-58.48339123341826,-34.624115766100324],[-58.48403875918396,-34.62359719941292],[-58.48497095633082,-34.62285062003602],[-58.48511301976787,-34.62273728363004],[-58.486184789838774,-34.62188242921957],[-58.4872645438592,-34.62102115461667],[-58.48820417876521,-34.62027166151881],[-58.48833771754475,-34.620165365841544],[-58.48941274346182,-34.61930935527947],[-58.49048902487182,-34.61845234869528],[-58.490616426186776,-34.61835084020251],[-58.49156196139503,-34.61759385404473],[-58.49263657824567,-34.616733449244414],[-58.49277844865841,-34.616854754286834],[-58.493634536860625,-34.61758448361211],[-58.49379311161424,-34.61771965705454],[-58.494516457525876,-34.61833229803442],[-58.494657906485095,-34.6184520523264],[-58.49471336471806,-34.61849782296854],[-58.495446446107714,-34.61910284155275],[-58.496319102527416,-34.61982289859352],[-58.49722091761724,-34.62056709653273],[-58.49820080705291,-34.62137556273236],[-58.49917300341,-34.62188317365888],[-58.49934375487758,-34.621969180914256],[-58.50026985988887,-34.622433064307145],[-58.50158068737439,-34.62308949882065],[-58.50175400007499,-34.62317627619857],[-58.50269700305039,-34.62364753007438],[-58.503491746398566,-34.62403741662014],[-58.50466952785903,-34.62514703535489],[-58.504761746709654,-34.62523376559247],[-58.5058690725111,-34.6262741702041],[-58.50596214687933,-34.626361462605075],[-58.50717757878083,-34.627501325746024],[-58.507293237509266,-34.62759931332896],[-58.50818050337282,-34.62693384249923],[-58.50831224236742,-34.62683583501401],[-58.509255529040274,-34.62613463041436],[-58.509361717896624,-34.62605332117128],[-58.51008212593978,-34.625501350893586],[-58.510183884132715,-34.625420606914176],[-58.510562471735504,-34.62512024603848],[-58.51073507420902,-34.624983276078446],[-58.510873651647515,-34.624877414485745],[-58.51121201498537,-34.624618930939626],[-58.511650888646365,-34.62428368328802],[-58.5117757550084,-34.62439356445435],[-58.51181037101455,-34.62442424039639],[-58.512488994542835,-34.62502560973675],[-58.51261659026081,-34.62513541861667],[-58.51264726023528,-34.625161806061136],[-58.512712392539186,-34.625217846131555],[-58.51293827508026,-34.625418384066464],[-58.51356108849314,-34.625971310676704],[-58.513672152373886,-34.62606992782399],[-58.514106860968326,-34.626452920699045],[-58.514438862271035,-34.6267454617084],[-58.51456109360589,-34.62685322815552],[-58.5146779561508,-34.62695620840516],[-58.51542175197821,-34.62761082914505],[-58.51554628793716,-34.62772049559606],[-58.51638139211022,-34.628455283944646],[-58.51591373501165,-34.62881570135685],[-58.515647207231105,-34.62902194510697],[-58.515558674240395,-34.629090427743286],[-58.515247582504834,-34.62933106347],[-58.51512615366312,-34.62942505910741],[-58.51490688143219,-34.62959360456583],[-58.51403702241431,-34.63026242768964],[-58.513450745587434,-34.63071324657438],[-58.51302255279909,-34.63104250157631],[-58.51290716162279,-34.63113120840802],[-58.51204417152173,-34.63179473476738],[-58.511042267739484,-34.63256499848713],[-58.51010413215662,-34.633286213957646],[-58.509203793434736,-34.63397839399356],[-58.509086182712544,-34.634069495776394],[-58.50868088925014,-34.63438359377665],[-58.50838775113027,-34.63460419727518],[-58.508762998083846,-34.63465081899877],[-58.50922233247434,-34.63469015513259],[-58.50940458487736,-34.63470578996487],[-58.509597231576855,-34.63472353440303],[-58.510177323937164,-34.634776928220504],[-58.51067004306652,-34.6348222783488],[-58.51132677038102,-34.634532581846294],[-58.51144593545604,-34.6344809855148],[-58.51148425792011,-34.63446440143014],[-58.51186390560133,-34.63430011358375],[-58.51226440082679,-34.63412253379998],[-58.51253220785342,-34.63400378685232],[-58.51262224097699,-34.63396572148216],[-58.513316425845595,-34.63367214822311],[-58.5133176556721,-34.63367162850238],[-58.513322146500286,-34.63366972917707],[-58.513342973763976,-34.633662420955446],[-58.51391227996486,-34.63346265279328],[-58.514072760856,-34.6334063178158],[-58.514863194735256,-34.63320792677432],[-58.515368482003474,-34.633162248221964],[-58.515931863963665,-34.633104400427825],[-58.515936609913496,-34.633104267674234],[-58.51660686070161,-34.63308556963442],[-58.51708853355127,-34.63301908324975],[-58.51734745965089,-34.63301625732361],[-58.518521532932894,-34.633005435418546],[-58.51871811455032,-34.63300360562001],[-58.518801782402356,-34.63300282661042],[-58.51888724636046,-34.63300203140075],[-58.51908034159749,-34.633016629137536],[-58.51908150849626,-34.6330166610549],[-58.51925301107606,-34.63301496355282],[-58.51926182126099,-34.63301453945026],[-58.51933137035452,-34.63301118940206],[-58.519424255141104,-34.63300671532789],[-58.51968356355888,-34.632992104543305],[-58.51971833189844,-34.63299014591101],[-58.519744702313474,-34.6329886598926],[-58.51974561069824,-34.63298860899282],[-58.51988673887144,-34.63297312845871],[-58.51989130789026,-34.632972627855],[-58.51989520845899,-34.632972201477486],[-58.520066936523634,-34.63295107627878],[-58.520172983538586,-34.632917155213484],[-58.520239890158365,-34.63280211033947],[-58.520339735996565,-34.63291776873121],[-58.520388507608594,-34.63297429543554],[-58.52052553028385,-34.633008809596944],[-58.52074658179306,-34.63322429318182],[-58.520813210758384,-34.63340456779643],[-58.52078320025454,-34.633504450876636],[-58.52068660950892,-34.63382592736448],[-58.52102669361503,-34.63382804475908],[-58.52108218571217,-34.63382881984214],[-58.52233611324916,-34.63401780182501],[-58.5230367319272,-34.63416634868047],[-58.52327328765371,-34.634224261326324],[-58.52423033532763,-34.63445871883596],[-58.524299104116515,-34.63447558603445],[-58.52560351580451,-34.63459063259069],[-58.526919333464534,-34.634687841831635],[-58.52707564281244,-34.63475515465111],[-58.52738732871696,-34.63478056357537],[-58.52774344605873,-34.63480959446685],[-58.52795469494222,-34.63482681511387],[-58.52820521323532,-34.634847236168326],[-58.528540737842114,-34.634860710017314],[-58.528713512810576,-34.634865169631915],[-58.52890239380326,-34.6348551021156],[-58.52909258991479,-34.634844965089684],[-58.529319195080866,-34.6348328862433],[-58.5293899096721,-34.63482911697986],[-58.529625176756134,-34.634822093426706],[-58.529793702926916,-34.63481706189931],[-58.529836477065274,-34.63481578470077],[-58.53002052482278,-34.63481028917577],[-58.53002750207828,-34.63481008073702],[-58.5303575257912,-34.63480022662671]]]}}