{"type":"Feature","properties":{"slug":"ituzaingo","name":"Ituzaingó","region":"oeste","sort":2},"geometry":{"type":"MultiPolygon","coordinates":[[[[-58.682222,-34.603234],[-58.68373167,-34.60458851],[-58.68434384,-34.60513776],[-58.684382,-34.605172],[-58.68437148,-34.6051807],[-58.6821886,-34.606987],[-58.68008813,-34.60872511],[-58.678284,-34.610218],[-58.67730212,-34.6110152],[-58.67686718,-34.61136997],[-58.674528,-34.613278],[-58.67106273,-34.6160839],[-58.670455,-34.616576],[-58.66771471,-34.6188042],[-58.66771467,-34.61880423],[-58.66771463,-34.61880426],[-58.667255,-34.619178],[-58.66662173,-34.61970245],[-58.66570183,-34.62046427],[-58.665096,-34.620966],[-58.663123,-34.622606],[-58.66234399,-34.62325239],[-58.659164,-34.625891],[-58.65680623,-34.62778864],[-58.65597301,-34.62845926],[-58.655946,-34.628481],[-58.6556755,-34.62869846],[-58.65567548,-34.62869848],[-58.654931,-34.629297],[-58.65474885,-34.62946002],[-58.6542829,-34.62987704],[-58.65407531,-34.63006283],[-58.65394565,-34.63017887],[-58.653855,-34.63026],[-58.65380863,-34.63042988],[-58.65368466,-34.63088412],[-58.65367719,-34.63091149],[-58.653486,-34.631612],[-58.65349125,-34.63164732],[-58.65354966,-34.63204064],[-58.65355448,-34.63207304],[-58.65356204,-34.63212399],[-58.65362444,-34.63254409],[-58.65363659,-34.6326259],[-58.65371792,-34.63317403],[-58.65383393,-34.63345996],[-58.65410761,-34.63413504],[-58.65428713,-34.63457785],[-58.654423,-34.634913],[-58.65453455,-34.635255],[-58.655273,-34.637519],[-58.65547795,-34.63834528],[-58.65559274,-34.63880806],[-58.65611867,-34.64092844],[-58.656153,-34.641058],[-58.65619447,-34.64123402],[-58.65659082,-34.64283195],[-58.65659936,-34.64286641],[-58.65676337,-34.64352761],[-58.657992,-34.648481],[-58.660315,-34.657816],[-58.660438,-34.658319],[-58.66090533,-34.66019059],[-58.661842,-34.663716],[-58.66235118,-34.66597552],[-58.6624886,-34.66651476],[-58.662803,-34.667624],[-58.66346,-34.670205],[-58.663772,-34.67147],[-58.66400627,-34.67247015],[-58.66422494,-34.67332822],[-58.664703,-34.675153],[-58.66529746,-34.67744147],[-58.665315,-34.677509],[-58.66532522,-34.67755222],[-58.6659,-34.679982],[-58.66646,-34.682195],[-58.66670256,-34.68324297],[-58.66712786,-34.68496378],[-58.667245,-34.685363],[-58.66736493,-34.68591413],[-58.667381,-34.685988],[-58.6674023,-34.68596792],[-58.6675505,-34.68582824],[-58.667697,-34.68569015],[-58.66816213,-34.68525174],[-58.668321,-34.685102],[-58.66929949,-34.68427943],[-58.66937883,-34.68421274],[-58.671829,-34.682153],[-58.67455,-34.679918],[-58.677519,-34.67745],[-58.680414,-34.675067],[-58.683406,-34.672563],[-58.6860092,-34.67040627],[-58.687295,-34.669341],[-58.69075712,-34.66647704],[-58.69300048,-34.66462126],[-58.69302097,-34.66460482],[-58.693533,-34.664194],[-58.695786,-34.662348],[-58.698293,-34.660258],[-58.70157,-34.6576],[-58.70383316,-34.65571167],[-58.703967,-34.6556],[-58.706002,-34.653936],[-58.706592,-34.653454],[-58.710408,-34.65029],[-58.71052504,-34.65019258],[-58.71193628,-34.64901785],[-58.714185,-34.647146],[-58.716677,-34.645049],[-58.719056,-34.643066],[-58.71939,-34.642787],[-58.722129,-34.64049],[-58.723325,-34.639501],[-58.72437477,-34.63860523],[-58.725111,-34.637977],[-58.726156,-34.637129],[-58.727107,-34.636341],[-58.72838028,-34.63528398],[-58.728457,-34.635222],[-58.72902479,-34.63478365],[-58.72889428,-34.63472051],[-58.72879415,-34.63471918],[-58.728767,-34.634706],[-58.728377,-34.634481],[-58.72820704,-34.63436802],[-58.728204,-34.634366],[-58.72805002,-34.63423037],[-58.727818,-34.634026],[-58.727724,-34.633854],[-58.72761009,-34.63370189],[-58.727557,-34.633631],[-58.72746255,-34.63354996],[-58.727314,-34.633397],[-58.72730989,-34.63339088],[-58.72720101,-34.63322859],[-58.727157,-34.633163],[-58.72714454,-34.63308229],[-58.727092,-34.632742],[-58.727092,-34.631855],[-58.72703509,-34.63164685],[-58.72694468,-34.63131613],[-58.72694,-34.631299],[-58.72678364,-34.63117391],[-58.726435,-34.630895],[-58.72600246,-34.63065741],[-58.725796,-34.630544],[-58.7253793,-34.63035091],[-58.725209,-34.630272],[-58.72493333,-34.63010001],[-58.724907,-34.630025],[-58.7249015,-34.63000557],[-58.72486,-34.629859],[-58.724874,-34.629676],[-58.724894,-34.629461],[-58.724936,-34.629259],[-58.725006,-34.628994],[-58.725016,-34.628714],[-58.725001,-34.628394],[-58.724874,-34.628226],[-58.724637,-34.628027],[-58.724495,-34.627946],[-58.724385,-34.627904],[-58.72435603,-34.62786789],[-58.72432,-34.627823],[-58.72431837,-34.62781938],[-58.724288,-34.627752],[-58.7242675,-34.62767704],[-58.724256,-34.627635],[-58.724143,-34.627495],[-58.72405498,-34.62736145],[-58.724027,-34.627319],[-58.723984,-34.627205],[-58.723967,-34.627125],[-58.723947,-34.62699],[-58.723929,-34.626892],[-58.72393008,-34.62674853],[-58.723901,-34.626594],[-58.723903,-34.626247],[-58.72391,-34.625778],[-58.723878,-34.625582],[-58.723823,-34.625238],[-58.72381092,-34.62510572],[-58.72379891,-34.62497414],[-58.72378,-34.624767],[-58.72377024,-34.62460283],[-58.72377864,-34.62456608],[-58.723783,-34.624547],[-58.723844,-34.624419],[-58.723924,-34.624326],[-58.724049,-34.624177],[-58.72408535,-34.62410017],[-58.72411536,-34.62403673],[-58.724129,-34.623929],[-58.724134,-34.623616],[-58.724091,-34.623315],[-58.724044,-34.622953],[-58.723985,-34.622551],[-58.723947,-34.622218],[-58.723918,-34.621909],[-58.723876,-34.621531],[-58.72376504,-34.62105072],[-58.723736,-34.620925],[-58.72373652,-34.62066416],[-58.723737,-34.620425],[-58.723742,-34.619906],[-58.723688,-34.619712],[-58.72365396,-34.61960829],[-58.723624,-34.619517],[-58.723525,-34.6193],[-58.723456,-34.619213],[-58.723414,-34.619147],[-58.72332438,-34.61900143],[-58.723264,-34.618933],[-58.72324309,-34.61891447],[-58.723106,-34.618793],[-58.72300807,-34.61872694],[-58.722869,-34.618649],[-58.7228122,-34.61859482],[-58.722768,-34.618565],[-58.722647,-34.618488],[-58.72258,-34.618409],[-58.72255243,-34.61836254],[-58.722472,-34.618227],[-58.72246713,-34.61821951],[-58.722377,-34.618108],[-58.72229533,-34.61792973],[-58.722164,-34.617683],[-58.721903,-34.617319],[-58.7217173,-34.61706675],[-58.72158142,-34.61693351],[-58.72138,-34.616736],[-58.72133194,-34.61666867],[-58.72117528,-34.61644921],[-58.721166,-34.61644],[-58.721079,-34.616284],[-58.721015,-34.616109],[-58.720965,-34.615961],[-58.72093386,-34.61587368],[-58.720919,-34.615832],[-58.720897,-34.615749],[-58.720809,-34.615492],[-58.720678,-34.615266],[-58.720598,-34.615167],[-58.72053,-34.615013],[-58.720414,-34.614822],[-58.720306,-34.614638],[-58.720274,-34.614518],[-58.720199,-34.614334],[-58.720134,-34.614216],[-58.720029,-34.614071],[-58.719898,-34.613911],[-58.719763,-34.613693],[-58.719687,-34.613575],[-58.719641,-34.613452],[-58.719624,-34.613348],[-58.719618,-34.613257],[-58.719641,-34.613166],[-58.719645,-34.6129],[-58.71964637,-34.61281315],[-58.71967243,-34.61262141],[-58.719715,-34.612467],[-58.719713,-34.612307],[-58.719674,-34.612197],[-58.719576,-34.612043],[-58.719431,-34.611869],[-58.719311,-34.611658],[-58.719257,-34.611535],[-58.719188,-34.611424],[-58.7190916,-34.61121473],[-58.719071,-34.61117],[-58.71905851,-34.61104576],[-58.719053,-34.610991],[-58.719039,-34.610698],[-58.7190389,-34.61069279],[-58.719041,-34.61064],[-58.71903774,-34.61063384],[-58.7190305,-34.61062013],[-58.71896846,-34.61050282],[-58.718948,-34.610475],[-58.718855,-34.610388],[-58.718809,-34.610278],[-58.718707,-34.610184],[-58.718633,-34.61009],[-58.71855989,-34.61000353],[-58.71849083,-34.60997408],[-58.718432,-34.609949],[-58.717678,-34.609891],[-58.717498,-34.609688],[-58.71750227,-34.60967123],[-58.71760942,-34.60925007],[-58.717675,-34.609136],[-58.717774,-34.608972],[-58.71777462,-34.60893496],[-58.717776,-34.608853],[-58.7177732,-34.60883761],[-58.717752,-34.608721],[-58.717713,-34.608577],[-58.717609,-34.608327],[-58.717515,-34.608159],[-58.717418,-34.607999],[-58.717313,-34.607817],[-58.717252,-34.607663],[-58.717161,-34.607516],[-58.717081,-34.607414],[-58.716919,-34.607296],[-58.71678,-34.607194],[-58.716656,-34.607058],[-58.716522,-34.606963],[-58.716378,-34.606934],[-58.716209,-34.606871],[-58.716072,-34.606808],[-58.715826,-34.606686],[-58.715683,-34.606584],[-58.715566,-34.606466],[-58.715434,-34.60636],[-58.715276,-34.606245],[-58.715004,-34.606045],[-58.714804,-34.605957],[-58.714618,-34.605881],[-58.714351,-34.605835],[-58.714031,-34.605788],[-58.713726,-34.605748],[-58.71349901,-34.60567706],[-58.71343807,-34.60565802],[-58.713374,-34.605638],[-58.713145,-34.605531],[-58.71296,-34.605412],[-58.71279,-34.605318],[-58.712635,-34.605206],[-58.712459,-34.605056],[-58.712304,-34.604913],[-58.712067,-34.604679],[-58.711877,-34.604424],[-58.711774,-34.604325],[-58.711664,-34.60417],[-58.711592,-34.60404],[-58.711549,-34.603897],[-58.711536,-34.603799],[-58.711523,-34.603682],[-58.711517,-34.603589],[-58.711459,-34.60349],[-58.711385,-34.603446],[-58.711251,-34.603414],[-58.711072,-34.603418],[-58.710774,-34.60344],[-58.710491,-34.603387],[-58.710351,-34.603318],[-58.710211,-34.603169],[-58.710108,-34.603029],[-58.710089,-34.602831],[-58.710091,-34.602702],[-58.710093,-34.602585],[-58.71017477,-34.60238542],[-58.710186,-34.602358],[-58.710256,-34.602131],[-58.71026962,-34.6020856],[-58.710304,-34.601971],[-58.710283,-34.601891],[-58.710224,-34.601829],[-58.71018395,-34.60177256],[-58.710158,-34.601736],[-58.710092,-34.601661],[-58.709898,-34.60151],[-58.709706,-34.601397],[-58.709557,-34.601383],[-58.709327,-34.60135],[-58.70924414,-34.60133493],[-58.709074,-34.601304],[-58.708866,-34.601247],[-58.708593,-34.601084],[-58.708193,-34.600895],[-58.707546,-34.600589],[-58.707294,-34.600488],[-58.707176,-34.600394],[-58.7071654,-34.60038321],[-58.707105,-34.600354],[-58.706646,-34.600038],[-58.70516909,-34.59924689],[-58.704978,-34.599179],[-58.704703,-34.599103],[-58.704354,-34.599031],[-58.704042,-34.598972],[-58.703701,-34.59884],[-58.703631,-34.598784],[-58.70354866,-34.59868593],[-58.70351,-34.598667],[-58.70349326,-34.59861994],[-58.703474,-34.598597],[-58.703362,-34.598383],[-58.703326,-34.598278],[-58.70329174,-34.59810672],[-58.703278,-34.598038],[-58.70326178,-34.59802298],[-58.703197,-34.597963],[-58.703109,-34.5979],[-58.7030292,-34.59782768],[-58.700308,-34.597156],[-58.69904061,-34.5967284],[-58.697864,-34.596233],[-58.697419,-34.596117],[-58.696669,-34.5959],[-58.696432,-34.595786],[-58.696203,-34.595636],[-58.696116,-34.595493],[-58.696034,-34.595335],[-58.695874,-34.595081],[-58.695707,-34.594814],[-58.695509,-34.594615],[-58.69531,-34.594477],[-58.695088,-34.594352],[-58.694666,-34.594181],[-58.69431439,-34.59401636],[-58.694288,-34.594004],[-58.694096,-34.59391],[-58.693971,-34.593792],[-58.69393394,-34.59374154],[-58.6914682,-34.59574001],[-58.68692738,-34.59942032],[-58.68510344,-34.60089861],[-58.68222707,-34.60322989],[-58.682222,-34.603234]]]]}}