{"type":"Feature","properties":{"slug":"lanus","name":"Lanús","region":"sur","sort":4},"geometry":{"type":"MultiPolygon","coordinates":[[[[-58.40228503,-34.65991278],[-58.40240874,-34.65997284],[-58.40253898,-34.65998679],[-58.402646,-34.65998],[-58.40273457,-34.65997852],[-58.402825,-34.659977],[-58.40310913,-34.66025965],[-58.40349828,-34.66064677],[-58.403593,-34.660741],[-58.40417754,-34.66132262],[-58.40457265,-34.66171576],[-58.404995,-34.662136],[-58.40561665,-34.66270248],[-58.40590665,-34.66296675],[-58.40593015,-34.66298816],[-58.40635663,-34.66337679],[-58.406505,-34.663512],[-58.4055619,-34.66423621],[-58.40429147,-34.66521177],[-58.40348802,-34.66582874],[-58.403209,-34.666043],[-58.40283407,-34.66633082],[-58.40129295,-34.6675139],[-58.40052494,-34.66810348],[-58.39728731,-34.67058891],[-58.39688534,-34.67089749],[-58.39672297,-34.67102214],[-58.39482803,-34.67247683],[-58.39482,-34.672483],[-58.39510686,-34.672791],[-58.395607,-34.673328],[-58.39572575,-34.67342139],[-58.39684831,-34.67430424],[-58.397143,-34.674536],[-58.39712344,-34.6745531],[-58.397016,-34.674647],[-58.391937,-34.679815],[-58.39162205,-34.68009833],[-58.390921,-34.680729],[-58.39034245,-34.68120919],[-58.389527,-34.681886],[-58.38944496,-34.68195238],[-58.387667,-34.683391],[-58.386318,-34.684529],[-58.385915,-34.68479],[-58.384964,-34.685515],[-58.38457317,-34.68578858],[-58.384464,-34.685865],[-58.38440901,-34.68591116],[-58.382589,-34.687439],[-58.38005,-34.689232],[-58.379667,-34.689505],[-58.37963316,-34.68947739],[-58.378162,-34.688277],[-58.37814544,-34.6882914],[-58.37654579,-34.6896826],[-58.372276,-34.693396],[-58.37041448,-34.69501017],[-58.368084,-34.697031],[-58.36684654,-34.69806762],[-58.365909,-34.698853],[-58.364709,-34.699912],[-58.36460451,-34.70000822],[-58.363976,-34.700587],[-58.36328421,-34.70118565],[-58.361109,-34.703068],[-58.3603168,-34.70371947],[-58.359606,-34.704304],[-58.35886455,-34.70495223],[-58.35172801,-34.71119154],[-58.350793,-34.712009],[-58.34685012,-34.71541946],[-58.34663596,-34.7156047],[-58.345498,-34.716589],[-58.34269061,-34.71902232],[-58.34254666,-34.71914709],[-58.33979523,-34.72153191],[-58.33856396,-34.72259911],[-58.33350627,-34.72698289],[-58.333505,-34.726984],[-58.33357844,-34.72705399],[-58.33385593,-34.72730534],[-58.33397679,-34.72741482],[-58.33397682,-34.72741485],[-58.33397685,-34.72741488],[-58.335283,-34.728598],[-58.33532573,-34.72863716],[-58.34355734,-34.73618038],[-58.34386993,-34.73646683],[-58.344084,-34.736663],[-58.34557489,-34.73805183],[-58.3457529,-34.73821767],[-58.34666989,-34.73907189],[-58.34686886,-34.73925723],[-58.346962,-34.739344],[-58.34731444,-34.7398401],[-58.35105635,-34.73996701],[-58.356157,-34.74014],[-58.35913943,-34.74167402],[-58.366679,-34.745552],[-58.36745109,-34.74492693],[-58.371857,-34.74136],[-58.37189797,-34.74138297],[-58.374902,-34.743067],[-58.37501276,-34.74298079],[-58.37581394,-34.74235723],[-58.380369,-34.738812],[-58.3849888,-34.73744502],[-58.386094,-34.737118],[-58.388812,-34.736696],[-58.38904481,-34.73665926],[-58.39115223,-34.73632671],[-58.394471,-34.735803],[-58.397358,-34.735325],[-58.40961601,-34.73332169],[-58.410122,-34.733239],[-58.41066197,-34.73317483],[-58.413269,-34.732865],[-58.413453,-34.732627],[-58.41516775,-34.7303871],[-58.41730974,-34.72758913],[-58.418044,-34.72663],[-58.424584,-34.718087],[-58.4265759,-34.71544206],[-58.42763548,-34.71405962],[-58.432637,-34.707616],[-58.43444348,-34.70519497],[-58.43581538,-34.70335637],[-58.437158,-34.701557],[-58.441868,-34.69539],[-58.44691544,-34.68877658],[-58.44692429,-34.68876706],[-58.4469239,-34.68876661],[-58.43794948,-34.67806538],[-58.42742027,-34.66550786],[-58.42564956,-34.66376006],[-58.42564274,-34.6637545],[-58.42564271,-34.66375447],[-58.4238586,-34.66229895],[-58.423832,-34.66227725],[-58.42383198,-34.66227723],[-58.42379459,-34.66224673],[-58.42372907,-34.66221423],[-58.42367247,-34.66218616],[-58.42314705,-34.66192553],[-58.42203709,-34.66137496],[-58.42156052,-34.66113856],[-58.42140297,-34.66106042],[-58.41891134,-34.66027418],[-58.41672468,-34.65960644],[-58.4157938,-34.65934447],[-58.41579376,-34.65934446],[-58.41508469,-34.65914491],[-58.41415239,-34.65895782],[-58.41415234,-34.65895781],[-58.41342093,-34.65881104],[-58.41321093,-34.65881881],[-58.41182848,-34.65886996],[-58.41057642,-34.65921633],[-58.40937566,-34.65973559],[-58.40861863,-34.66006295],[-58.40845086,-34.6601355],[-58.40837542,-34.66016812],[-58.40709625,-34.66027873],[-58.40680235,-34.66030414],[-58.40680232,-34.66030414],[-58.4066946,-34.66031346],[-58.40655804,-34.66029018],[-58.406558,-34.66029018],[-58.40552178,-34.66011358],[-58.40552174,-34.66011357],[-58.40547274,-34.66010522],[-58.4046711,-34.6599699],[-58.40374982,-34.65981438],[-58.4034652,-34.65976634],[-58.40337855,-34.65975171],[-58.40245733,-34.6598874],[-58.40235173,-34.65990295],[-58.40228503,-34.65991278]]]]}}