{"type":"Feature","properties":{"slug":"lomas-banfield","name":"Lomas de Zamora y Banfield","region":"sur","sort":2,"particion":{"base":"Lomas de Zamora","areaBaseM2":88751507.26554573}},"geometry":{"type":"Polygon","coordinates":[[[-58.47,-34.76],[-58.36,-34.77],[-58.36,-34.76978113761806],[-58.36198947,-34.76740516],[-58.362003,-34.767389],[-58.36,-34.76637417225594],[-58.36,-34.74211665442724],[-58.366679,-34.745552],[-58.36745109,-34.74492693],[-58.371857,-34.74136],[-58.37189797,-34.74138297],[-58.374902,-34.743067],[-58.37501276,-34.74298079],[-58.37581394,-34.74235723],[-58.380369,-34.738812],[-58.3849888,-34.73744502],[-58.386094,-34.737118],[-58.388812,-34.736696],[-58.38904481,-34.73665926],[-58.39115223,-34.73632671],[-58.394471,-34.735803],[-58.397358,-34.735325],[-58.40961601,-34.73332169],[-58.410122,-34.733239],[-58.41066197,-34.73317483],[-58.413269,-34.732865],[-58.413453,-34.732627],[-58.41516775,-34.7303871],[-58.41730974,-34.72758913],[-58.418044,-34.72663],[-58.424584,-34.718087],[-58.4265759,-34.71544206],[-58.42763548,-34.71405962],[-58.432637,-34.707616],[-58.43444348,-34.70519497],[-58.43581538,-34.70335637],[-58.437158,-34.701557],[-58.43834714707313,-34.7],[-58.456528676192804,-34.7],[-58.45754334,-34.701174],[-58.45754339,-34.70117405],[-58.45895842,-34.70281129],[-58.46120644,-34.70541232],[-58.46136734,-34.70529157],[-58.46161487,-34.70510582],[-58.46164818,-34.70513973],[-58.4616552,-34.70513496],[-58.46174803,-34.70523416],[-58.461892,-34.705388],[-58.467265,-34.710958],[-58.47,-34.7135671950322],[-58.47,-34.76]]]}}