{"type":"Feature","properties":{"slug":"martinez-acassuso","name":"Martínez y Acassuso","region":"norte","sort":1,"particion":{"base":"San Isidro","areaBaseM2":52389005.78844475}},"geometry":{"type":"Polygon","coordinates":[[[-58.55,-34.512],[-58.53068023026316,-34.512827990131576],[-58.526278,-34.510762],[-58.524662,-34.510034],[-58.52103615,-34.50838062],[-58.519969,-34.507894],[-58.51843154,-34.50721874],[-58.515791,-34.506059],[-58.514166,-34.50531],[-58.51219281,-34.50440786],[-58.51219276,-34.50440783],[-58.51219271,-34.50440781],[-58.50718,-34.502116],[-58.50213989,-34.49981935],[-58.49879709,-34.49829612],[-58.497603,-34.497752],[-58.495187,-34.496637],[-58.49364881,-34.49594364],[-58.49364879,-34.49594363],[-58.49364876,-34.49594362],[-58.491003,-34.494751],[-58.48837338,-34.49357257],[-58.487272,-34.493079],[-58.48661657,-34.49277548],[-58.48650977,-34.49272602],[-58.48600238450837,-34.49249105809363],[-58.49164697039176,-34.471323861030896],[-58.49167484,-34.47131132],[-58.49176526,-34.47127801],[-58.49183188,-34.47125897],[-58.49186996,-34.47126849],[-58.49189851,-34.47123994],[-58.49194134,-34.47118283],[-58.49199369,-34.47111145],[-58.49203652,-34.47102103],[-58.49206031,-34.47093537],[-58.49208887,-34.47085446],[-58.4921317,-34.47079736],[-58.49216977,-34.47074025],[-58.49219832,-34.47066411],[-58.49222212,-34.47061652],[-58.49222687,-34.47056893],[-58.4922126,-34.47049279],[-58.4922126,-34.47042616],[-58.49223639,-34.47035478],[-58.49226019,-34.47031671],[-58.49227446,-34.47025008],[-58.49230778,-34.47021201],[-58.4922935,-34.47012635],[-58.4922878276884,-34.47009232208873],[-58.545,-34.487],[-58.55,-34.512]]]}}