{"type":"Feature","properties":{"slug":"merlo","name":"Merlo","region":"oeste","sort":6},"geometry":{"type":"MultiPolygon","coordinates":[[[[-58.698293,-34.660258],[-58.695786,-34.662348],[-58.693533,-34.664194],[-58.69302097,-34.66460482],[-58.69300048,-34.66462126],[-58.69075712,-34.66647704],[-58.687295,-34.669341],[-58.6860092,-34.67040627],[-58.683406,-34.672563],[-58.680414,-34.675067],[-58.677519,-34.67745],[-58.67455,-34.679918],[-58.671829,-34.682153],[-58.66937883,-34.68421274],[-58.66929949,-34.68427943],[-58.668321,-34.685102],[-58.66816213,-34.68525174],[-58.667697,-34.68569015],[-58.6675505,-34.68582824],[-58.6674023,-34.68596792],[-58.667381,-34.685988],[-58.66585884,-34.68723521],[-58.66573965,-34.68733287],[-58.66351089,-34.68915905],[-58.66303564,-34.68954845],[-58.66217024,-34.69025753],[-58.660793,-34.691386],[-58.66079543,-34.69139661],[-58.66079743,-34.69140537],[-58.661007,-34.692321],[-58.66100215,-34.69232185],[-58.661008,-34.692348],[-58.65927413,-34.69267904],[-58.6592466,-34.69268429],[-58.65855257,-34.69324895],[-58.6558805,-34.69542293],[-58.65571884,-34.69555445],[-58.65548611,-34.6957438],[-58.65539,-34.695822],[-58.654329,-34.696441],[-58.650096,-34.698984],[-58.64725284,-34.70071958],[-58.64513781,-34.70201067],[-58.64349576,-34.70301304],[-58.64232989,-34.70372473],[-58.64195904,-34.70394862],[-58.64103504,-34.70450643],[-58.64097431,-34.70454309],[-58.64113,-34.704927],[-58.642267,-34.70782],[-58.64298852,-34.70960849],[-58.642063,-34.71033],[-58.639703,-34.712175],[-58.63893075,-34.71279602],[-58.63887,-34.71284487],[-58.63625083,-34.71490107],[-58.636242,-34.714908],[-58.63627227,-34.71493389],[-58.636154,-34.715029],[-58.63671,-34.715508],[-58.639997,-34.718291],[-58.64140045,-34.71947771],[-58.643254,-34.721045],[-58.644096,-34.721814],[-58.645169,-34.722754],[-58.64960233,-34.72654059],[-58.64963632,-34.7265135],[-58.649785,-34.726395],[-58.65250491,-34.72429747],[-58.65315,-34.7238],[-58.65412269,-34.72302373],[-58.655007,-34.722318],[-58.65501282,-34.7223229],[-58.65613252,-34.72326521],[-58.657494,-34.724411],[-58.658719,-34.725451],[-58.65955504,-34.7261805],[-58.65959,-34.726211],[-58.66011429,-34.72666465],[-58.660206,-34.726744],[-58.660826,-34.72726],[-58.661536,-34.727884],[-58.662902,-34.729053],[-58.664662,-34.73058],[-58.665372,-34.73117],[-58.665841,-34.731556],[-58.666258,-34.731852],[-58.666781,-34.732228],[-58.66683343,-34.73226694],[-58.667224,-34.732557],[-58.667734,-34.732921],[-58.66851881,-34.73349882],[-58.668567,-34.733533],[-58.669187,-34.733959],[-58.669677,-34.734318],[-58.67001867,-34.73457228],[-58.670146,-34.734659],[-58.67019756,-34.73470547],[-58.670378,-34.734858],[-58.67084912,-34.73528639],[-58.670981,-34.735402],[-58.672052,-34.736366],[-58.6725311,-34.7367898],[-58.67460975,-34.73856654],[-58.675462,-34.739295],[-58.6754098,-34.73933625],[-58.675431,-34.739355],[-58.672666,-34.741577],[-58.672341,-34.741864],[-58.670787,-34.74308],[-58.667755,-34.745535],[-58.667324,-34.745864],[-58.66687,-34.74624],[-58.664662,-34.74801],[-58.664449,-34.74819],[-58.66381586,-34.74869087],[-58.66240303,-34.74980856],[-58.661888,-34.750216],[-58.65847,-34.752844],[-58.657915,-34.753297],[-58.658202,-34.753544],[-58.658987,-34.754116],[-58.660399,-34.755233],[-58.660812,-34.755595],[-58.661272,-34.75603],[-58.6616253,-34.75643392],[-58.661628,-34.756437],[-58.663163,-34.75767],[-58.66322371,-34.75771828],[-58.665772,-34.759745],[-58.66640036,-34.76028446],[-58.666804,-34.760631],[-58.66688336,-34.76069005],[-58.66714,-34.760881],[-58.66757,-34.761199],[-58.66894,-34.762372],[-58.671552,-34.764606],[-58.67359856,-34.76631743],[-58.67361,-34.766327],[-58.67475509,-34.76537547],[-58.676219,-34.764159],[-58.680775,-34.760444],[-58.6814898,-34.7598623],[-58.681935,-34.7595],[-58.68195143,-34.7595142],[-58.686356,-34.763321],[-58.703884,-34.778711],[-58.70998,-34.773989],[-58.713721,-34.77109],[-58.717297,-34.768171],[-58.719695,-34.766242],[-58.720778,-34.765366],[-58.724315,-34.762539],[-58.724424,-34.762466],[-58.72620549,-34.76105547],[-58.727339,-34.760158],[-58.72839642,-34.75930741],[-58.72841674,-34.75932441],[-58.75003594,-34.77741175],[-58.75006564,-34.7774366],[-58.75024716,-34.77758846],[-58.75051182,-34.77726596],[-58.75054466,-34.77723824],[-58.75074364,-34.77707022],[-58.75280521,-34.7753295],[-58.75337935,-34.77484472],[-58.75439189,-34.77406602],[-58.756514,-34.772434],[-58.759824,-34.769889],[-58.764248,-34.766446],[-58.767674,-34.763785],[-58.769931,-34.762039],[-58.770361,-34.761721],[-58.77061581,-34.76156161],[-58.773277,-34.759897],[-58.77635,-34.757949],[-58.779734,-34.755847],[-58.783281,-34.753587],[-58.786577,-34.75152],[-58.789649,-34.74961],[-58.79291,-34.747587],[-58.7945472,-34.74655612],[-58.796612,-34.745256],[-58.800363,-34.742905],[-58.80362,-34.740845],[-58.80427,-34.74042],[-58.804486,-34.740421],[-58.804726,-34.740247],[-58.804997,-34.740044],[-58.805192,-34.739952],[-58.805251,-34.739775],[-58.80533045,-34.73972186],[-58.805709,-34.739533],[-58.805884,-34.739452],[-58.806345,-34.739201],[-58.809808,-34.737182],[-58.814113,-34.73451],[-58.81759,-34.732214],[-58.82069,-34.730282],[-58.824314,-34.728088],[-58.827806,-34.725905],[-58.829742,-34.724716],[-58.830365,-34.724346],[-58.832997,-34.722304],[-58.83405,-34.721429],[-58.834608,-34.721032],[-58.83907735,-34.71760701],[-58.839752,-34.71709],[-58.844387,-34.713591],[-58.847981,-34.710875],[-58.850875,-34.708621],[-58.854064,-34.706155],[-58.857217,-34.703903],[-58.860894,-34.701334],[-58.86403278,-34.69863237],[-58.864204,-34.698485],[-58.86429511,-34.69842167],[-58.86431,-34.698243],[-58.86433256,-34.69809423],[-58.864396,-34.697676],[-58.86451258,-34.69668244],[-58.864572,-34.696176],[-58.86457364,-34.69605185],[-58.864576,-34.695873],[-58.864532,-34.695809],[-58.864534,-34.695653],[-58.864471,-34.695451],[-58.864356,-34.694928],[-58.86435354,-34.69490703],[-58.864286,-34.694332],[-58.863946,-34.693239],[-58.863193,-34.691611],[-58.863084,-34.691409],[-58.86302,-34.691271],[-58.862989,-34.691124],[-58.862708,-34.690572],[-58.862404,-34.690075],[-58.862372,-34.689992],[-58.862309,-34.689762],[-58.862278,-34.689551],[-58.862236,-34.689386],[-58.862215,-34.689331],[-58.861998,-34.68899],[-58.861911,-34.688824],[-58.861719,-34.688264],[-58.86170584,-34.68824355],[-58.861535,-34.687978],[-58.86149233,-34.68792479],[-58.86135191,-34.68774968],[-58.861284,-34.687665],[-58.861135,-34.687233],[-58.861008,-34.686783],[-58.86089178,-34.68651723],[-58.860642,-34.685946],[-58.860633,-34.685845],[-58.860579,-34.685744],[-58.860383,-34.68544],[-58.860342,-34.685332],[-58.860294,-34.685206],[-58.858299,-34.684843],[-58.85798,-34.684786],[-58.85664,-34.684729],[-58.8555491,-34.68461928],[-58.8549,-34.684554],[-58.85418998,-34.68451381],[-58.853459,-34.684556],[-58.852557,-34.684548],[-58.852142,-34.684596],[-58.851599,-34.684705],[-58.85150024,-34.6847065],[-58.8509332,-34.68471514],[-58.850868,-34.684714],[-58.850086,-34.684657],[-58.849628,-34.684675],[-58.849297,-34.684693],[-58.848387,-34.684729],[-58.848055,-34.684747],[-58.847226,-34.684778],[-58.846745,-34.684728],[-58.84648582,-34.68468279],[-58.846315,-34.684653],[-58.8462853,-34.68464907],[-58.845894,-34.684646],[-58.845574,-34.684756],[-58.84531299,-34.68490498],[-58.8452154,-34.68496068],[-58.845136,-34.685006],[-58.84473,-34.685204],[-58.844315,-34.68527],[-58.84404604,-34.68527493],[-58.843606,-34.685283],[-58.84357509,-34.68528504],[-58.842788,-34.685337],[-58.842207,-34.68548],[-58.840919,-34.685763],[-58.839524,-34.686002],[-58.83924102,-34.68603349],[-58.838877,-34.686074],[-58.83868485,-34.68606942],[-58.83808,-34.686055],[-58.837528,-34.686053],[-58.837035,-34.685998],[-58.83658,-34.686095],[-58.83638863,-34.68610318],[-58.83578989,-34.68612879],[-58.835107,-34.686158],[-58.834775,-34.686181],[-58.83449702,-34.68616872],[-58.834345,-34.686162],[-58.833999,-34.686058],[-58.833608,-34.68593],[-58.832952,-34.685739],[-58.832339,-34.685585],[-58.83232102,-34.68557878],[-58.832131,-34.685513],[-58.832001,-34.685468],[-58.831514,-34.685358],[-58.83093,-34.685352],[-58.83071621,-34.68532639],[-58.830681,-34.685327],[-58.83055274,-34.68530681],[-58.830379,-34.685286],[-58.83030585,-34.6852674],[-58.830018,-34.685219],[-58.82970663,-34.68510862],[-58.82964,-34.685085],[-58.829281,-34.684901],[-58.828929,-34.684645],[-58.82872185,-34.68452408],[-58.82872047,-34.68452328],[-58.82844423,-34.68447507],[-58.828177,-34.684476],[-58.82812101,-34.68447787],[-58.827907,-34.684485],[-58.827626,-34.684461],[-58.82728,-34.68437],[-58.826954,-34.684214],[-58.826724,-34.684022],[-58.826538,-34.683874],[-58.826327,-34.683705],[-58.82597,-34.683376],[-58.825745,-34.683155],[-58.82562425,-34.68306025],[-58.82548951,-34.68298788],[-58.82543,-34.682959],[-58.825281,-34.682894],[-58.82525915,-34.68287906],[-58.824987,-34.682767],[-58.824692,-34.682615],[-58.82446033,-34.68259129],[-58.824343,-34.682587],[-58.823936,-34.682579],[-58.823673,-34.682568],[-58.82336825,-34.68257084],[-58.823351,-34.682571],[-58.823073,-34.682634],[-58.82293068,-34.68270292],[-58.82281,-34.682903],[-58.822591,-34.683313],[-58.822427,-34.68358664],[-58.822416,-34.683605],[-58.8223912,-34.68362272],[-58.82229906,-34.68368859],[-58.82185278,-34.68400758],[-58.82184808,-34.68401095],[-58.82184802,-34.684011],[-58.82184798,-34.68401104],[-58.821575,-34.68429],[-58.821364,-34.68443],[-58.821202,-34.684564],[-58.821052,-34.684736],[-58.820914,-34.684907],[-58.82073715,-34.68504041],[-58.82058021,-34.68512754],[-58.820102,-34.685393],[-58.819549,-34.685546],[-58.81896697,-34.68560092],[-58.818783,-34.685603],[-58.8185624,-34.68560043],[-58.8184314,-34.68559447],[-58.818311,-34.685589],[-58.817952,-34.685484],[-58.817606,-34.685286],[-58.817528,-34.685201],[-58.817518,-34.685189],[-58.817374,-34.685033],[-58.817186,-34.684753],[-58.8171212,-34.68463894],[-58.817025,-34.684515],[-58.81692943,-34.68438397],[-58.81680599,-34.68429159],[-58.816631,-34.684192],[-58.816439,-34.684081],[-58.816355,-34.684003],[-58.81629821,-34.68389563],[-58.81628131,-34.68387551],[-58.81621584,-34.68383166],[-58.81600072,-34.68376775],[-58.81594808,-34.68376728],[-58.81564,-34.683832],[-58.81562497,-34.68382977],[-58.815438,-34.683802],[-58.815294,-34.683643],[-58.815129,-34.683409],[-58.814974,-34.683213],[-58.81496203,-34.68318588],[-58.814723,-34.682644],[-58.814536,-34.682373],[-58.814302,-34.682223],[-58.813954,-34.682154],[-58.813637,-34.682272],[-58.813321,-34.682362],[-58.812769,-34.682421],[-58.812259,-34.682356],[-58.811383,-34.682263],[-58.81125,-34.682132],[-58.81120172,-34.68205405],[-58.811177,-34.682038],[-58.81106,-34.68185],[-58.81098586,-34.68171551],[-58.81080543,-34.68147875],[-58.810759,-34.681428],[-58.81068643,-34.6813215],[-58.810621,-34.681235],[-58.810354,-34.681028],[-58.810074,-34.680989],[-58.809895,-34.680931],[-58.80965,-34.680725],[-58.809484,-34.680537],[-58.80952717,-34.68027449],[-58.809534,-34.680233],[-58.80956671,-34.68014664],[-58.80970903,-34.67977101],[-58.80974337,-34.67955064],[-58.80974357,-34.67954907],[-58.809771,-34.679373],[-58.80976313,-34.67934855],[-58.809642,-34.678972],[-58.809668,-34.678676],[-58.80971536,-34.67849938],[-58.809705,-34.67835],[-58.809778,-34.678115],[-58.809853,-34.678007],[-58.80988492,-34.67797365],[-58.809904,-34.677921],[-58.80992139,-34.67769024],[-58.80993,-34.677576],[-58.80992297,-34.67756534],[-58.809841,-34.677441],[-58.80965,-34.677314],[-58.809381,-34.677214],[-58.809233,-34.677191],[-58.809124,-34.677154],[-58.808916,-34.677137],[-58.808654,-34.677124],[-58.80857,-34.677142],[-58.808486,-34.677163],[-58.808404,-34.677186],[-58.808322,-34.677211],[-58.808292,-34.677227],[-58.808263,-34.677245],[-58.808234,-34.677262],[-58.808206,-34.677281],[-58.808179,-34.6773],[-58.808153,-34.67732],[-58.808127,-34.677341],[-58.808102,-34.677362],[-58.808079,-34.677385],[-58.808053,-34.677394],[-58.808027,-34.677403],[-58.808001,-34.677411],[-58.807974,-34.677419],[-58.807947,-34.677425],[-58.80792,-34.677431],[-58.807893,-34.677436],[-58.807865,-34.677441],[-58.807838,-34.677444],[-58.80781,-34.677447],[-58.807782,-34.677449],[-58.807754,-34.67745],[-58.807726,-34.677451],[-58.807698,-34.67745],[-58.80767,-34.677449],[-58.807642,-34.677447],[-58.807614,-34.677444],[-58.807586,-34.677441],[-58.807201,-34.677439],[-58.806916,-34.677378],[-58.806907,-34.677376],[-58.806899,-34.677374],[-58.806892,-34.677371],[-58.806884,-34.677369],[-58.806876,-34.677366],[-58.806868,-34.677363],[-58.806861,-34.67736],[-58.806854,-34.677357],[-58.806846,-34.677353],[-58.806839,-34.677349],[-58.806833,-34.677345],[-58.806826,-34.677341],[-58.806819,-34.677337],[-58.806813,-34.677332],[-58.806807,-34.677327],[-58.806801,-34.677323],[-58.806795,-34.677318],[-58.80679,-34.677312],[-58.806784,-34.677307],[-58.806686,-34.677289],[-58.806674,-34.677278],[-58.806662,-34.677266],[-58.806649,-34.677255],[-58.806636,-34.677245],[-58.806622,-34.677234],[-58.806608,-34.677225],[-58.806594,-34.677215],[-58.806579,-34.677206],[-58.806564,-34.677198],[-58.806549,-34.67719],[-58.806533,-34.677182],[-58.806517,-34.677175],[-58.8065,-34.677168],[-58.806483,-34.677162],[-58.806467,-34.677156],[-58.806449,-34.677151],[-58.806432,-34.677146],[-58.806414,-34.677142],[-58.806396,-34.677138],[-58.806379,-34.677135],[-58.80636,-34.677132],[-58.806342,-34.67713],[-58.806324,-34.677128],[-58.806306,-34.677127],[-58.806288,-34.677126],[-58.80627,-34.677124],[-58.806253,-34.677122],[-58.806235,-34.677119],[-58.806218,-34.677116],[-58.806201,-34.677112],[-58.806184,-34.677108],[-58.806167,-34.677104],[-58.80615,-34.677099],[-58.806134,-34.677093],[-58.806117,-34.677087],[-58.806101,-34.677081],[-58.806086,-34.677074],[-58.80607,-34.677067],[-58.806055,-34.677059],[-58.80604,-34.677051],[-58.80603,-34.677045],[-58.80602,-34.67704],[-58.80601,-34.677035],[-58.806,-34.677031],[-58.805989,-34.677026],[-58.805979,-34.677022],[-58.805968,-34.677019],[-58.805957,-34.677015],[-58.805945,-34.677012],[-58.805934,-34.67701],[-58.805923,-34.677007],[-58.805911,-34.677005],[-58.8059,-34.677003],[-58.805888,-34.677002],[-58.805876,-34.677001],[-58.805865,-34.677],[-58.805853,-34.677],[-58.805841,-34.677],[-58.805829,-34.677],[-58.805818,-34.677],[-58.805806,-34.677001],[-58.805794,-34.677003],[-58.805783,-34.677004],[-58.805724,-34.676991],[-58.805665,-34.676977],[-58.805607,-34.676961],[-58.80555,-34.676944],[-58.805493,-34.676925],[-58.805437,-34.676905],[-58.805382,-34.676883],[-58.805303,-34.67685],[-58.805225,-34.676814],[-58.805149,-34.676777],[-58.805074,-34.676738],[-58.805,-34.676697],[-58.804928,-34.676654],[-58.804923,-34.676651],[-58.804917,-34.676647],[-58.804912,-34.676644],[-58.804907,-34.67664],[-58.804903,-34.676636],[-58.804898,-34.676632],[-58.804894,-34.676628],[-58.80489,-34.676623],[-58.804886,-34.676619],[-58.804882,-34.676614],[-58.804878,-34.67661],[-58.804875,-34.676605],[-58.804871,-34.6766],[-58.804868,-34.676595],[-58.804865,-34.67659],[-58.804863,-34.676585],[-58.80486,-34.67658],[-58.804858,-34.676574],[-58.804856,-34.676569],[-58.804854,-34.676564],[-58.804853,-34.676558],[-58.804851,-34.676553],[-58.80485,-34.676547],[-58.804849,-34.676542],[-58.804849,-34.676536],[-58.804756,-34.676439],[-58.804754,-34.6764],[-58.804479,-34.676176],[-58.804443,-34.676155],[-58.804406,-34.676136],[-58.804368,-34.676118],[-58.80433,-34.676101],[-58.804291,-34.676085],[-58.804251,-34.67607],[-58.80421,-34.676056],[-58.804169,-34.676044],[-58.804128,-34.676032],[-58.804086,-34.676022],[-58.804043,-34.676013],[-58.804001,-34.676006],[-58.803958,-34.675999],[-58.803914,-34.675994],[-58.803871,-34.67599],[-58.803828,-34.675988],[-58.803784,-34.675986],[-58.80374,-34.675986],[-58.803696,-34.675987],[-58.803598,-34.67594],[-58.803442,-34.675922],[-58.80339,-34.67589],[-58.803338,-34.67586],[-58.803284,-34.675832],[-58.803229,-34.675804],[-58.803173,-34.675779],[-58.803117,-34.675755],[-58.803106,-34.675751],[-58.803096,-34.675747],[-58.803085,-34.675744],[-58.803075,-34.675741],[-58.803064,-34.675738],[-58.803053,-34.675736],[-58.803042,-34.675734],[-58.803031,-34.675732],[-58.80302,-34.675731],[-58.803009,-34.675729],[-58.802998,-34.675729],[-58.802987,-34.675728],[-58.802975,-34.675728],[-58.802964,-34.675728],[-58.802953,-34.675729],[-58.802942,-34.675729],[-58.802931,-34.675731],[-58.802919,-34.675732],[-58.802889,-34.675711],[-58.802858,-34.67569],[-58.802827,-34.67567],[-58.802794,-34.675651],[-58.802778,-34.675653],[-58.802762,-34.675653],[-58.802746,-34.675654],[-58.802731,-34.675653],[-58.802715,-34.675653],[-58.802699,-34.675652],[-58.802683,-34.67565],[-58.802668,-34.675648],[-58.802652,-34.675646],[-58.802637,-34.675643],[-58.802621,-34.67564],[-58.802606,-34.675636],[-58.802591,-34.675632],[-58.802576,-34.675627],[-58.802561,-34.675622],[-58.802547,-34.675617],[-58.802533,-34.675611],[-58.802519,-34.675605],[-58.802503,-34.675597],[-58.802488,-34.675589],[-58.802473,-34.675581],[-58.802458,-34.675572],[-58.802444,-34.675563],[-58.80243,-34.675554],[-58.802416,-34.675544],[-58.80238,-34.675486],[-58.802289,-34.675493],[-58.802273,-34.67551],[-58.802134,-34.675494],[-58.802104,-34.675475],[-58.802008,-34.675472],[-58.801733,-34.675408],[-58.801452,-34.675389],[-58.801357,-34.67533],[-58.801144,-34.675334],[-58.801139,-34.675329],[-58.801133,-34.675325],[-58.801127,-34.675321],[-58.80112,-34.675317],[-58.801114,-34.675313],[-58.801107,-34.675309],[-58.801101,-34.675306],[-58.801094,-34.675303],[-58.801087,-34.6753],[-58.80108,-34.675297],[-58.801073,-34.675294],[-58.801065,-34.675292],[-58.801058,-34.67529],[-58.80105,-34.675288],[-58.801043,-34.675286],[-58.801035,-34.675285],[-58.801027,-34.675283],[-58.801019,-34.675282],[-58.801012,-34.675281],[-58.801004,-34.675281],[-58.800996,-34.67528],[-58.800988,-34.67528],[-58.80098,-34.67528],[-58.800972,-34.675281],[-58.800964,-34.675281],[-58.800957,-34.675282],[-58.800949,-34.675283],[-58.800941,-34.675284],[-58.800933,-34.675285],[-58.800926,-34.675287],[-58.80084,-34.675252],[-58.800753,-34.67522],[-58.800664,-34.675191],[-58.800633,-34.67518],[-58.800603,-34.675169],[-58.800572,-34.675157],[-58.800543,-34.675144],[-58.800514,-34.675131],[-58.800485,-34.675117],[-58.800457,-34.675102],[-58.80043,-34.675086],[-58.800403,-34.675069],[-58.800377,-34.675052],[-58.800347,-34.675046],[-58.800316,-34.67504],[-58.800286,-34.675032],[-58.800256,-34.675024],[-58.800227,-34.675015],[-58.800198,-34.675005],[-58.800169,-34.674994],[-58.800141,-34.674982],[-58.800113,-34.67497],[-58.799866,-34.674919],[-58.799373,-34.674741],[-58.798775,-34.674527],[-58.798722,-34.674509],[-58.798668,-34.674492],[-58.798613,-34.674478],[-58.798558,-34.674464],[-58.798528,-34.674457],[-58.798498,-34.674449],[-58.798469,-34.67444],[-58.79844,-34.674431],[-58.798412,-34.67442],[-58.798384,-34.674409],[-58.798356,-34.674397],[-58.798329,-34.674385],[-58.798302,-34.674371],[-58.798276,-34.674357],[-58.798251,-34.674342],[-58.798244,-34.674338],[-58.798237,-34.674334],[-58.798229,-34.67433],[-58.798222,-34.674327],[-58.798214,-34.674324],[-58.798206,-34.67432],[-58.798198,-34.674318],[-58.79819,-34.674315],[-58.798182,-34.674313],[-58.798174,-34.67431],[-58.798165,-34.674308],[-58.798157,-34.674307],[-58.798148,-34.674305],[-58.79814,-34.674304],[-58.798131,-34.674303],[-58.798122,-34.674302],[-58.798114,-34.674302],[-58.798105,-34.674301],[-58.798097,-34.674301],[-58.798088,-34.674302],[-58.798079,-34.674302],[-58.798071,-34.674303],[-58.798062,-34.674304],[-58.798053,-34.674305],[-58.798045,-34.674306],[-58.798036,-34.674308],[-58.798028,-34.67431],[-58.79802,-34.674312],[-58.798011,-34.674314],[-58.798003,-34.674317],[-58.797991,-34.674321],[-58.79798,-34.674324],[-58.797968,-34.674327],[-58.797955,-34.67433],[-58.797943,-34.674332],[-58.797931,-34.674334],[-58.797918,-34.674336],[-58.797906,-34.674337],[-58.797893,-34.674338],[-58.79788,-34.674339],[-58.797868,-34.674339],[-58.797855,-34.674339],[-58.797843,-34.674339],[-58.79783,-34.674338],[-58.797817,-34.674337],[-58.797805,-34.674335],[-58.797793,-34.674334],[-58.79778,-34.674331],[-58.797768,-34.674329],[-58.797756,-34.674326],[-58.797744,-34.674323],[-58.797732,-34.674319],[-58.79772,-34.674315],[-58.797709,-34.674311],[-58.797697,-34.674307],[-58.797686,-34.674302],[-58.797675,-34.674297],[-58.797664,-34.674291],[-58.797654,-34.674285],[-58.797643,-34.674279],[-58.797633,-34.674273],[-58.797627,-34.674269],[-58.797621,-34.674264],[-58.797615,-34.674259],[-58.797609,-34.674254],[-58.797603,-34.674249],[-58.797598,-34.674244],[-58.797592,-34.674239],[-58.797587,-34.674233],[-58.797583,-34.674227],[-58.797578,-34.674222],[-58.797574,-34.674216],[-58.79757,-34.67421],[-58.797566,-34.674203],[-58.797549,-34.674192],[-58.797532,-34.674182],[-58.797515,-34.674172],[-58.797497,-34.674162],[-58.797479,-34.674153],[-58.79746,-34.674144],[-58.797441,-34.674136],[-58.797422,-34.674128],[-58.797402,-34.674121],[-58.797383,-34.674115],[-58.797363,-34.674109],[-58.797342,-34.674103],[-58.797319,-34.674097],[-58.797296,-34.67409],[-58.797274,-34.674082],[-58.797252,-34.674074],[-58.79723,-34.674065],[-58.797208,-34.674056],[-58.797187,-34.674046],[-58.797166,-34.674035],[-58.797146,-34.674024],[-58.797127,-34.674012],[-58.797107,-34.673999],[-58.797089,-34.673986],[-58.797071,-34.673973],[-58.797066,-34.67397],[-58.797062,-34.673966],[-58.797057,-34.673963],[-58.797052,-34.673961],[-58.797047,-34.673958],[-58.797042,-34.673955],[-58.797037,-34.673953],[-58.797032,-34.67395],[-58.797027,-34.673948],[-58.797021,-34.673946],[-58.797016,-34.673944],[-58.79701,-34.673943],[-58.797004,-34.673941],[-58.796998,-34.67394],[-58.796993,-34.673938],[-58.796987,-34.673937],[-58.796981,-34.673936],[-58.796975,-34.673936],[-58.796969,-34.673935],[-58.796963,-34.673935],[-58.796957,-34.673935],[-58.796951,-34.673935],[-58.796945,-34.673935],[-58.796939,-34.673935],[-58.796933,-34.673936],[-58.796928,-34.673936],[-58.796922,-34.673937],[-58.796916,-34.673938],[-58.79691,-34.673939],[-58.796904,-34.673941],[-58.796899,-34.673942],[-58.796893,-34.673944],[-58.796887,-34.673946],[-58.796884,-34.673945],[-58.79688,-34.673944],[-58.796876,-34.673943],[-58.796872,-34.673943],[-58.796869,-34.673941],[-58.796865,-34.67394],[-58.796861,-34.673939],[-58.796858,-34.673938],[-58.796854,-34.673936],[-58.796851,-34.673935],[-58.796847,-34.673933],[-58.796844,-34.673932],[-58.796841,-34.67393],[-58.796838,-34.673928],[-58.796835,-34.673926],[-58.796832,-34.673924],[-58.796829,-34.673922],[-58.796826,-34.673919],[-58.796823,-34.673917],[-58.796821,-34.673915],[-58.796818,-34.673912],[-58.796816,-34.67391],[-58.796814,-34.673907],[-58.796812,-34.673904],[-58.79681,-34.673902],[-58.796808,-34.673899],[-58.796806,-34.673896],[-58.796804,-34.673893],[-58.796802,-34.67389],[-58.796801,-34.673887],[-58.7968,-34.673884],[-58.796799,-34.673882],[-58.796798,-34.673879],[-58.796796,-34.673877],[-58.796795,-34.673875],[-58.796793,-34.673872],[-58.796792,-34.67387],[-58.79679,-34.673868],[-58.796788,-34.673866],[-58.796787,-34.673864],[-58.796785,-34.673862],[-58.796783,-34.67386],[-58.796781,-34.673858],[-58.796779,-34.673856],[-58.796776,-34.673854],[-58.796774,-34.673852],[-58.796772,-34.673851],[-58.796769,-34.673849],[-58.796767,-34.673847],[-58.796764,-34.673846],[-58.796762,-34.673845],[-58.796759,-34.673843],[-58.796756,-34.673842],[-58.796753,-34.673841],[-58.796751,-34.67384],[-58.796748,-34.673839],[-58.796745,-34.673838],[-58.796742,-34.673837],[-58.796739,-34.673836],[-58.796736,-34.673835],[-58.796733,-34.673835],[-58.79673,-34.673834],[-58.796727,-34.673834],[-58.796724,-34.673834],[-58.796721,-34.673833],[-58.796717,-34.673833],[-58.796714,-34.673833],[-58.796345,-34.673654],[-58.796163,-34.673568],[-58.796148,-34.673555],[-58.796133,-34.673543],[-58.796117,-34.673531],[-58.796101,-34.673519],[-58.796084,-34.673508],[-58.796066,-34.673498],[-58.796049,-34.673488],[-58.79603,-34.673479],[-58.796012,-34.67347],[-58.795993,-34.673461],[-58.795974,-34.673454],[-58.79596339,-34.67344976],[-58.79575916,-34.6734066],[-58.795515,-34.673355],[-58.79539489,-34.6733246],[-58.79485,-34.673187],[-58.79472385,-34.67320572],[-58.794594,-34.673225],[-58.794381,-34.673252],[-58.79215,-34.672193],[-58.790798,-34.671304],[-58.789638,-34.671071],[-58.787694,-34.670476],[-58.786524,-34.670011],[-58.785388,-34.669173],[-58.784747,-34.66868],[-58.781506,-34.667008],[-58.780091,-34.665963],[-58.779229,-34.665898],[-58.778111,-34.666047],[-58.776957,-34.665792],[-58.776333,-34.665527],[-58.773887,-34.665032],[-58.772615,-34.664784],[-58.770543,-34.665062],[-58.76957,-34.665198],[-58.768856,-34.665061],[-58.768078,-34.664575],[-58.76776,-34.664223],[-58.767514,-34.663572],[-58.76699,-34.662538],[-58.7665,-34.662051],[-58.766099,-34.661958],[-58.765628,-34.661945],[-58.764704,-34.662074],[-58.764399,-34.662143],[-58.762912,-34.661828],[-58.761403,-34.661667],[-58.76046,-34.661147],[-58.759709,-34.660815],[-58.758607,-34.660599],[-58.757549,-34.660482],[-58.75711463,-34.66015226],[-58.75670431,-34.65984077],[-58.75659,-34.659754],[-58.756369,-34.659644],[-58.756186,-34.659517],[-58.75602,-34.659447],[-58.75589,-34.659372],[-58.755614,-34.659183],[-58.755437,-34.659006],[-58.755282,-34.658867],[-58.755197,-34.658809],[-58.755047,-34.658669],[-58.7547658,-34.65838689],[-58.75472642,-34.6583505],[-58.75451,-34.658197],[-58.75448571,-34.65817841],[-58.75433977,-34.65807769],[-58.754111,-34.657948],[-58.75392,-34.657851],[-58.75381,-34.657796],[-58.75355,-34.657648],[-58.753249,-34.657527],[-58.753082,-34.657401],[-58.752775,-34.657097],[-58.75234543,-34.65660349],[-58.75234268,-34.65660122],[-58.752125,-34.656434],[-58.752012,-34.656345],[-58.751931,-34.656232],[-58.751814,-34.656143],[-58.751714,-34.656],[-58.751633,-34.655879],[-58.751154,-34.655316],[-58.751094,-34.655231],[-58.750901,-34.654996],[-58.750816,-34.654927],[-58.750755,-34.654859],[-58.75068246,-34.65479596],[-58.75035358,-34.65461131],[-58.75034884,-34.65460864],[-58.75015,-34.654497],[-58.74993632,-34.65442126],[-58.749905,-34.654411],[-58.74970264,-34.65434413],[-58.74969578,-34.65434187],[-58.749675,-34.654335],[-58.74957695,-34.65430626],[-58.74954722,-34.65430113],[-58.74938808,-34.65427368],[-58.74928601,-34.65425607],[-58.749274,-34.654254],[-58.74926186,-34.65424697],[-58.749124,-34.654195],[-58.74901669,-34.65414417],[-58.748991,-34.654132],[-58.748888,-34.654024],[-58.748815,-34.653897],[-58.748718,-34.653684],[-58.74861841,-34.65350036],[-58.748609,-34.653483],[-58.74855453,-34.65339782],[-58.748554,-34.653397],[-58.74843598,-34.65328216],[-58.748404,-34.653251],[-58.748283,-34.653127],[-58.748091,-34.652974],[-58.74797838,-34.65289429],[-58.74788673,-34.65284401],[-58.74771969,-34.65275239],[-58.74771209,-34.65274821],[-58.747613,-34.652709],[-58.747379,-34.652621],[-58.74719962,-34.65253537],[-58.74718,-34.652526],[-58.747165,-34.65251707],[-58.747002,-34.65242],[-58.7469045,-34.65237938],[-58.746858,-34.65236],[-58.746714,-34.65227],[-58.746518,-34.652128],[-58.7464389,-34.65203429],[-58.746361,-34.651942],[-58.746221,-34.651799],[-58.746101,-34.65165],[-58.746021,-34.651526],[-58.745865,-34.651211],[-58.7458145,-34.65110235],[-58.745799,-34.651069],[-58.74574385,-34.65098741],[-58.74572937,-34.65096599],[-58.74572065,-34.65095753],[-58.745601,-34.65088],[-58.745375,-34.650751],[-58.745171,-34.650598],[-58.74509319,-34.65056824],[-58.74453048,-34.65035303],[-58.743997,-34.650149],[-58.74381172,-34.65010691],[-58.74353159,-34.65004328],[-58.743379,-34.650015],[-58.743253,-34.64998],[-58.74321823,-34.64996449],[-58.74306562,-34.64989643],[-58.74303197,-34.64987897],[-58.742953,-34.649838],[-58.742743,-34.649682],[-58.74266798,-34.64962672],[-58.742515,-34.649514],[-58.742223,-34.649269],[-58.741954,-34.649076],[-58.741836,-34.648998],[-58.741636,-34.648903],[-58.74160453,-34.64888901],[-58.741287,-34.648814],[-58.740802,-34.648618],[-58.74077076,-34.64859638],[-58.74074424,-34.64857803],[-58.740487,-34.6484],[-58.740247,-34.648032],[-58.74019949,-34.64783083],[-58.740154,-34.647741],[-58.739996,-34.647337],[-58.739913,-34.647131],[-58.739838,-34.646949],[-58.739699,-34.646751],[-58.739553,-34.646558],[-58.7394556,-34.64643691],[-58.7394127,-34.64639567],[-58.739236,-34.646249],[-58.73908521,-34.64615637],[-58.739026,-34.64612],[-58.73897454,-34.64609465],[-58.738689,-34.645954],[-58.738471,-34.645815],[-58.73845523,-34.64580503],[-58.738194,-34.64564],[-58.737863,-34.645388],[-58.73767095,-34.64522514],[-58.737613,-34.645176],[-58.73757361,-34.64514994],[-58.73729199,-34.64497812],[-58.73710283,-34.64486272],[-58.736943,-34.644779],[-58.736666,-34.644592],[-58.73654767,-34.64448103],[-58.736457,-34.644396],[-58.736286,-34.644248],[-58.73615231,-34.64415909],[-58.73609802,-34.64412299],[-58.736083,-34.644113],[-58.73589803,-34.64400121],[-58.73581,-34.643948],[-58.735514,-34.643809],[-58.7354929,-34.64380337],[-58.73546787,-34.64379669],[-58.73538356,-34.64378129],[-58.73497381,-34.64370645],[-58.734829,-34.64368],[-58.73469608,-34.64365116],[-58.734423,-34.643615],[-58.734275,-34.643564],[-58.73400925,-34.64343512],[-58.73400902,-34.64343497],[-58.73400744,-34.64343385],[-58.73400667,-34.64343329],[-58.73382477,-34.64329983],[-58.73381,-34.643289],[-58.73373164,-34.64323903],[-58.73364066,-34.64318101],[-58.733603,-34.643157],[-58.73350218,-34.64311384],[-58.73334254,-34.6430455],[-58.73332339,-34.64303731],[-58.732818,-34.642894],[-58.73272047,-34.64287207],[-58.73262964,-34.64285165],[-58.73234891,-34.64278852],[-58.732142,-34.642742],[-58.732086,-34.64271666],[-58.73186596,-34.64261709],[-58.7318082,-34.64259095],[-58.731742,-34.642561],[-58.731635,-34.642289],[-58.731566,-34.642054],[-58.731421,-34.641662],[-58.731315,-34.641258],[-58.731392,-34.640971],[-58.73151,-34.640549],[-58.731787,-34.639566],[-58.73184504,-34.63940626],[-58.731896,-34.639266],[-58.73190476,-34.63909038],[-58.73190624,-34.63906085],[-58.731903,-34.638936],[-58.731902,-34.63876],[-58.731835,-34.63855],[-58.731768,-34.638243],[-58.73173623,-34.63810922],[-58.731716,-34.638024],[-58.73170167,-34.63799461],[-58.731618,-34.637823],[-58.73153853,-34.6376976],[-58.731509,-34.637651],[-58.73144225,-34.63757978],[-58.73127,-34.637396],[-58.7312584,-34.63738356],[-58.73103013,-34.6371386],[-58.73092113,-34.63703729],[-58.73079648,-34.63692547],[-58.730311,-34.63649],[-58.730223,-34.636403],[-58.730139,-34.636267],[-58.730085,-34.636126],[-58.73007403,-34.63608599],[-58.73005675,-34.63602297],[-58.73000604,-34.63583799],[-58.729997,-34.635805],[-58.7299201,-34.63567388],[-58.729841,-34.635539],[-58.72966805,-34.63529867],[-58.72961,-34.635218],[-58.7295199,-34.63512198],[-58.72931526,-34.63495419],[-58.729216,-34.6349],[-58.72910282,-34.6348214],[-58.72903724,-34.63478968],[-58.72902479,-34.63478365],[-58.728457,-34.635222],[-58.72838028,-34.63528398],[-58.727107,-34.636341],[-58.726156,-34.637129],[-58.725111,-34.637977],[-58.72437477,-34.63860523],[-58.723325,-34.639501],[-58.722129,-34.64049],[-58.71939,-34.642787],[-58.719056,-34.643066],[-58.716677,-34.645049],[-58.714185,-34.647146],[-58.71193628,-34.64901785],[-58.71052504,-34.65019258],[-58.710408,-34.65029],[-58.706592,-34.653454],[-58.706002,-34.653936],[-58.703967,-34.6556],[-58.70383316,-34.65571167],[-58.70157,-34.6576],[-58.698293,-34.660258]]]]}}