{"type":"Feature","properties":{"slug":"monserrat-congreso","name":"Monserrat y Congreso","region":"caba","sort":14},"geometry":{"type":"Polygon","coordinates":[[[-58.41254739310853,-34.62064696103565],[-58.41244032418157,-34.62188798772624],[-58.412359916674454,-34.62187316459169],[-58.4120454070184,-34.622979384112405],[-58.41233697069864,-34.62303746480651],[-58.41222325275101,-34.62399714621592],[-58.41213016976793,-34.62478268013098],[-58.41209759566923,-34.62497379516741],[-58.412068696783834,-34.62514265841067],[-58.41199382601388,-34.62650905035494],[-58.41197519014426,-34.62684907016171],[-58.4119659416147,-34.62701783973439],[-58.41193454750088,-34.627590727441046],[-58.411877679472084,-34.6286283908767],[-58.411845798928844,-34.62921000302793],[-58.41178935716201,-34.63024072180069],[-58.411782811125846,-34.63036027048347],[-58.41158476088142,-34.63031166515152],[-58.41105729524799,-34.63018240674883],[-58.41097915634407,-34.630163257946855],[-58.41083081093443,-34.630126904941484],[-58.4105219404094,-34.630051212130375],[-58.41020945175645,-34.629974632350454],[-58.410053806103214,-34.6299364888224],[-58.41003742387687,-34.62993247407473],[-58.40987251127299,-34.629892824294686],[-58.40970014905251,-34.629848989340225],[-58.40958541691136,-34.62981981044928],[-58.409430080309555,-34.62978030490844],[-58.40836812467837,-34.6295203914632],[-58.40675500078762,-34.629335356702676],[-58.40672903058458,-34.62933242470944],[-58.40651698443373,-34.629308484832904],[-58.40650785445328,-34.62930745476939],[-58.40564951627903,-34.62921061209177],[-58.40545775775364,-34.629188972008535],[-58.403546744355815,-34.628973330328975],[-58.40238964585852,-34.62884268608045],[-58.40191915383843,-34.62878958256014],[-58.4016745677223,-34.62876197585664],[-58.40124499669648,-34.628713488471725],[-58.401104856314284,-34.62869767022261],[-58.40084682514338,-34.62866852353507],[-58.399910536789726,-34.62856515268989],[-58.39973419782378,-34.628544357150496],[-58.398598161218764,-34.628410376997714],[-58.39852144791535,-34.62839668610704],[-58.39843665421985,-34.62838155310957],[-58.39686982615469,-34.6281019093445],[-58.39681113639126,-34.628091455170676],[-58.396742066700696,-34.62807927269509],[-58.39548652361513,-34.62785781262832],[-58.39541277673773,-34.62784480428219],[-58.395349684587956,-34.62783367530429],[-58.3950556576338,-34.627781478570135],[-58.39446802451189,-34.62767715748114],[-58.39429710767502,-34.62764681444721],[-58.393210378519406,-34.62745379884674],[-58.3922988076594,-34.62729195474114],[-58.39216377407576,-34.62726797946864],[-58.392163600693564,-34.62726797756468],[-58.3916249686182,-34.62726221909763],[-58.39117490656021,-34.62725740570006],[-58.391174186861434,-34.62725739800159],[-58.39106568113171,-34.628203822833996],[-58.390929498183944,-34.6293326978179],[-58.39089422965427,-34.62962500399894],[-58.390787210390485,-34.63052269574651],[-58.39066662826126,-34.631534184060015],[-58.390561492571855,-34.63241596101912],[-58.39053102554005,-34.63267045264427],[-58.39035697026888,-34.634128602067136],[-58.38951979999425,-34.63393633643366],[-58.388768070305,-34.63376376458135],[-58.38864473831703,-34.63373542669841],[-58.38863897795043,-34.63373410314047],[-58.388561248812636,-34.63371624330622],[-58.388544312486815,-34.63371149778215],[-58.388526509532205,-34.63370650980778],[-58.38846550956489,-34.633689419009414],[-58.387656919951915,-34.63346286711072],[-58.38763104432134,-34.63345594890821],[-58.387272255210284,-34.63336002051315],[-58.38652440834505,-34.633145536662894],[-58.385920251130905,-34.632970020465336],[-58.38542147162821,-34.632825115503465],[-58.38535779329658,-34.63280618911709],[-58.383994634958164,-34.632401023021224],[-58.383396204704034,-34.632224785746125],[-58.38262730438618,-34.631688429302855],[-58.38218439482783,-34.63141775459973],[-58.38173765532615,-34.63114473628425],[-58.381662619251706,-34.63108930721251],[-58.38140773159586,-34.63090101979592],[-58.381338017579935,-34.63084978957735],[-58.381337857246244,-34.630849709390866],[-58.381337676310174,-34.63084961912752],[-58.381337474771726,-34.63084951878732],[-58.381337305864974,-34.63084939427818],[-58.381337292131796,-34.63084979990119],[-58.38133727205897,-34.63085037860068],[-58.38133726434333,-34.63085059854444],[-58.38133559174587,-34.630899123433515],[-58.381312005750374,-34.63158346738223],[-58.3813117026549,-34.63159226140739],[-58.381302298646915,-34.631865108738275],[-58.38129457178153,-34.63208929416658],[-58.38128521214712,-34.632360850689594],[-58.38127929874917,-34.63250024460777],[-58.38126915174816,-34.632739434259165],[-58.38126914547642,-34.6327395820992],[-58.381255901353036,-34.63305177637339],[-58.38125494654825,-34.63307428321226],[-58.381254835370264,-34.63307427936086],[-58.380148089788285,-34.63303593461811],[-58.380148037958705,-34.63303541716925],[-58.3801181409724,-34.63273809223613],[-58.38009694326454,-34.632636386186185],[-58.380012370042564,-34.632586334002426],[-58.37964055311839,-34.63236628339465],[-58.37958243384208,-34.63229624214836],[-58.379514867131,-34.63221563157536],[-58.379530509310804,-34.632165007902316],[-58.37952241793146,-34.6321463357614],[-58.379475684850064,-34.63203849055859],[-58.37912424762202,-34.63140341266688],[-58.378634967714675,-34.63051922599004],[-58.37862612249827,-34.63050324041974],[-58.378626131247934,-34.63050321518614],[-58.37863330069092,-34.630483447567336],[-58.378633309445156,-34.63048341782664],[-58.378966237513715,-34.629564381801465],[-58.379049190418385,-34.629337746977214],[-58.378722701055295,-34.62912560310513],[-58.378574135072995,-34.629029068121255],[-58.37793677796851,-34.628614923412485],[-58.377724275744605,-34.628476885513464],[-58.37660912068215,-34.62786849186195],[-58.37557794412637,-34.62730591248493],[-58.37569712899306,-34.627142686422594],[-58.375698013757294,-34.627141269127335],[-58.37594703316736,-34.626742467428784],[-58.37618123559256,-34.626367390756776],[-58.37618148253488,-34.626366912280055],[-58.37622955196335,-34.62627390311426],[-58.37675553114058,-34.62511856088524],[-58.37699790975966,-34.62395284874013],[-58.37707025708982,-34.62360489282597],[-58.37708783705925,-34.623491806057146],[-58.377108162233654,-34.623361185024535],[-58.377136829885195,-34.62297333833029],[-58.37714931184248,-34.622804460935704],[-58.377203543096435,-34.62207074431028],[-58.37721641571186,-34.62189708963912],[-58.377239559799435,-34.621014630329505],[-58.377239392086864,-34.621011261608295],[-58.37723330109742,-34.620888850014644],[-58.37722954576913,-34.6208128604435],[-58.377270267601965,-34.61981907457898],[-58.37727300184129,-34.61972858303275],[-58.377308539136955,-34.61855817101079],[-58.37731145093806,-34.61846035553731],[-58.37735345819844,-34.61762213534554],[-58.377362998907635,-34.617456857779494],[-58.3774303789714,-34.61629801759972],[-58.37726803142333,-34.61629050887268],[-58.37615962450674,-34.616235285441334],[-58.37603211507409,-34.616227796343715],[-58.375981180647265,-34.616224805043785],[-58.37586431434577,-34.6162178894798],[-58.375863127061365,-34.61621781921954],[-58.37525655197492,-34.61613702950823],[-58.374710919304604,-34.61610128262801],[-58.374538521733456,-34.616092847128],[-58.374342615908866,-34.6160833377808],[-58.3732727028258,-34.61603938393138],[-58.373132756080366,-34.6160344913334],[-58.37299604525717,-34.61602974249313],[-58.371719352299316,-34.61602998785851],[-58.37172229852841,-34.6159841447646],[-58.370695263978526,-34.615914424395044],[-58.37057006510598,-34.61589883659361],[-58.370349877379944,-34.61586621611515],[-58.37025246274437,-34.61586563615824],[-58.36949915178004,-34.61582524356362],[-58.36914672155966,-34.61579746344978],[-58.368816412634025,-34.61578439619973],[-58.368585079093855,-34.615762802689474],[-58.36757355681621,-34.61568982928274],[-58.36673996253526,-34.61562966421397],[-58.36686051240289,-34.61458171841913],[-58.36699510255571,-34.61339645746859],[-58.36708399177779,-34.61260208982229],[-58.36713280696699,-34.61216584633402],[-58.367264636604624,-34.61100311704054],[-58.36762346485009,-34.6078540947853],[-58.36764462842153,-34.60766835737564],[-58.36773011870632,-34.60691807523731],[-58.36773150092235,-34.60690584043083],[-58.36815369633645,-34.60696896158606],[-58.368805055363254,-34.60683115284635],[-58.36922517357386,-34.606742265657964],[-58.36925625068211,-34.6065943267529],[-58.369371305203614,-34.60652864048579],[-58.36944423760476,-34.60650672356935],[-58.36984985133319,-34.606557388293915],[-58.37019587894979,-34.606578638817204],[-58.37019591420047,-34.606775613775824],[-58.37030906518711,-34.60719556486478],[-58.370634539980614,-34.607398213060534],[-58.37076413976487,-34.60751357972902],[-58.37083660792427,-34.607574556304776],[-58.37109340925513,-34.6077906328546],[-58.37125800839755,-34.6078584286098],[-58.37147358287838,-34.607880610957146],[-58.371481658243916,-34.60788144183475],[-58.371555736213665,-34.60788906318605],[-58.37218323519838,-34.60793410147417],[-58.37317278900065,-34.60800517614578],[-58.37351881088785,-34.60803002292504],[-58.373520518150634,-34.60794191208837],[-58.373520523891806,-34.60794164256774],[-58.37354365437218,-34.60794315324054],[-58.3735761382107,-34.607945274739706],[-58.37411549876861,-34.60798074177317],[-58.37486073365977,-34.60803028278037],[-58.3749220287261,-34.60803435744855],[-58.37497852722895,-34.60803808607385],[-58.374986755579265,-34.60803862927692],[-58.37499722742542,-34.60803932554192],[-58.37619331158219,-34.60811886947127],[-58.376208220310545,-34.60811986086034],[-58.3762948728137,-34.60812496072546],[-58.37640444676043,-34.608131409156265],[-58.37696180033947,-34.60816488337976],[-58.377814142896675,-34.60821606859639],[-58.37922213600721,-34.60830261077142],[-58.37936044837415,-34.60831136866187],[-58.379758595001086,-34.60833351040324],[-58.37981106093532,-34.608336428159284],[-58.37996283464482,-34.60834486826326],[-58.38049642595548,-34.60837454036551],[-58.380717869752004,-34.60838116896523],[-58.38071900351292,-34.608381234634976],[-58.3808920383826,-34.6083912167818],[-58.38131310489211,-34.60841725225068],[-58.381348028985734,-34.60841941118025],[-58.381797375369075,-34.60844724788217],[-58.38197545810985,-34.60846293064762],[-58.38217312824056,-34.6084803857527],[-58.38225397596377,-34.60848672058532],[-58.382692470124596,-34.60852107847755],[-58.38330891435667,-34.60856937668498],[-58.383469112779224,-34.60858258015742],[-58.38361261806849,-34.60859436449828],[-58.383802266362196,-34.608609073207624],[-58.384097721547235,-34.60863198748041],[-58.384712383320995,-34.60867965636093],[-58.384870707958726,-34.60869299830922],[-58.3850682950048,-34.60870960403903],[-58.385989421870946,-34.60877104431764],[-58.38614814409722,-34.60878163101935],[-58.386280495642914,-34.608790306083606],[-58.38723195566767,-34.60886102633911],[-58.38723412070494,-34.60886118724043],[-58.38732242843943,-34.608879551925966],[-58.38748522882158,-34.6089017578419],[-58.38766112235666,-34.60892574926052],[-58.38774570621952,-34.60893790504799],[-58.387747236695546,-34.60893812504103],[-58.387805814475236,-34.60894654271285],[-58.38797267938334,-34.608962815538014],[-58.38817790600974,-34.60898282922092],[-58.38851218350653,-34.60901655662521],[-58.389060223440126,-34.6090718248237],[-58.389176820330555,-34.609083582637965],[-58.389762679943516,-34.60914267014104],[-58.38979687062158,-34.60914507590378],[-58.3905573043983,-34.60919857036335],[-58.391411992454735,-34.60925867259154],[-58.39195611909355,-34.60929693279127],[-58.391879586730795,-34.61034528277381],[-58.3918638388611,-34.6105608663448],[-58.39181098256765,-34.61128469148097],[-58.39179912519944,-34.61150440579574],[-58.3917900359257,-34.61167327619789],[-58.391789982643,-34.611675655916876],[-58.391789969242225,-34.611676026392864],[-58.39177087777308,-34.612460247401856],[-58.39176124486188,-34.612667849687355],[-58.39175369652899,-34.612829679062045],[-58.391714678442646,-34.61382973960693],[-58.39170492384749,-34.61407966615076],[-58.39168906858453,-34.61466446758074],[-58.39168892065374,-34.61466992378218],[-58.391688122333285,-34.61469938262313],[-58.39168120206098,-34.614921705705505],[-58.391673053569946,-34.615185225656745],[-58.39166476202498,-34.61551621048598],[-58.391663066969635,-34.615704873979745],[-58.391661844321035,-34.61583987531691],[-58.39167960226741,-34.616883349505414],[-58.39170141710722,-34.61816380098751],[-58.392032338931855,-34.618180543922506],[-58.39229765796183,-34.61819356279188],[-58.39300696497007,-34.61822836362196],[-58.393203218528434,-34.618238758139064],[-58.39450024868797,-34.618307385132034],[-58.39599396050404,-34.618386387698486],[-58.39751868015059,-34.61846700945269],[-58.398966997426044,-34.61854355786203],[-58.39924698473674,-34.61855835326176],[-58.400043327989216,-34.618608205344714],[-58.40029801544886,-34.6186241119852],[-58.40098421952514,-34.618672000803144],[-58.40225058111476,-34.6187604592109],[-58.403516778194955,-34.61884488946978],[-58.405038965710126,-34.61915915136865],[-58.406390991105255,-34.61943775039714],[-58.40778407763489,-34.61972480483476],[-58.40925570475488,-34.62002807487939],[-58.41008265891352,-34.620198439824435],[-58.41052275305638,-34.62028912541239],[-58.41081541807443,-34.62034087236108],[-58.41254739310853,-34.62064696103565]]]}}