{"type":"Feature","properties":{"slug":"monte-grande","name":"Monte Grande","region":"sur","sort":6},"geometry":{"type":"MultiPolygon","coordinates":[[[[-58.50079713,-34.72299155],[-58.50075647,-34.72304691],[-58.496278,-34.729145],[-58.49513225,-34.73070491],[-58.486886,-34.741932],[-58.486584,-34.7423429],[-58.48658398,-34.74234294],[-58.485017,-34.744475],[-58.48447,-34.745211],[-58.483725,-34.746214],[-58.482951,-34.747255],[-58.480105,-34.751082],[-58.475344,-34.757484],[-58.474648,-34.758422],[-58.472484,-34.761336],[-58.46843985,-34.76666983],[-58.466363,-34.769409],[-58.46361572,-34.77303058],[-58.46268851,-34.77425286],[-58.461062,-34.776397],[-58.45459098,-34.78506204],[-58.440959,-34.803316],[-58.437829,-34.807431],[-58.43787961,-34.80747297],[-58.43788144,-34.80747449],[-58.43671106,-34.8090301],[-58.43057054,-34.81719173],[-58.43054584,-34.81722456],[-58.43052818,-34.81724804],[-58.435172,-34.81956],[-58.44350511,-34.82381829],[-58.44475243,-34.82445568],[-58.44772845,-34.82597646],[-58.447753,-34.825989],[-58.44129152,-34.83478668],[-58.436037,-34.841941],[-58.431511,-34.848101],[-58.42596204,-34.85567409],[-58.42164442,-34.86156669],[-58.42007327,-34.86371096],[-58.4194733,-34.86452978],[-58.418928,-34.865274],[-58.4171331,-34.86780564],[-58.4153382,-34.87033728],[-58.41337888,-34.87310084],[-58.41312544,-34.87345831],[-58.413042,-34.873576],[-58.42035397,-34.88343469],[-58.422399,-34.886192],[-58.42495477,-34.88746078],[-58.43319053,-34.8915493],[-58.435585,-34.892738],[-58.43553384,-34.89281532],[-58.435407,-34.893007],[-58.44257645,-34.89630556],[-58.453245,-34.901214],[-58.45304514,-34.90149373],[-58.452124,-34.902783],[-58.45262865,-34.90305493],[-58.462921,-34.908601],[-58.463578,-34.907758],[-58.46416803,-34.90817262],[-58.46942385,-34.91186593],[-58.49186,-34.927632],[-58.49203765,-34.92750571],[-58.500059,-34.917782],[-58.50083006,-34.91633768],[-58.500942,-34.916128],[-58.501703,-34.914825],[-58.502613,-34.913207],[-58.503602,-34.91147],[-58.504676,-34.909574],[-58.505486,-34.908395],[-58.50599,-34.907719],[-58.506059,-34.907626],[-58.507082,-34.906101],[-58.507339,-34.905792],[-58.507504,-34.905596],[-58.508123,-34.904741],[-58.508995,-34.903645],[-58.510196,-34.901901],[-58.510241,-34.901833],[-58.510333,-34.901681],[-58.506492,-34.889929],[-58.50631913,-34.88935647],[-58.505886,-34.887922],[-58.505365,-34.886229],[-58.504938,-34.884974],[-58.504578,-34.883587],[-58.50411,-34.881357],[-58.503854,-34.879747],[-58.502938,-34.874026],[-58.50229366,-34.86996618],[-58.50227683,-34.86954742],[-58.502352,-34.863889],[-58.502587,-34.859885],[-58.50266771,-34.85855652],[-58.502841,-34.855704],[-58.50284355,-34.85553111],[-58.502852,-34.854959],[-58.50290861,-34.85457444],[-58.503231,-34.853585],[-58.5045852,-34.84990768],[-58.505716,-34.846837],[-58.50596352,-34.84604021],[-58.5061596,-34.84540898],[-58.50626082,-34.84508317],[-58.506323,-34.844883],[-58.50639854,-34.84478692],[-58.506584,-34.844551],[-58.50669581,-34.84274946],[-58.50670391,-34.84261896],[-58.50672745,-34.84223956],[-58.50675646,-34.84177222],[-58.50677961,-34.84165697],[-58.506854,-34.841489],[-58.50708391,-34.84027898],[-58.507143,-34.839968],[-58.50731323,-34.8378544],[-58.50737338,-34.83710753],[-58.507401,-34.836832],[-58.507754,-34.832503],[-58.50791228,-34.83134655],[-58.50791474,-34.8313286],[-58.50799671,-34.83072969],[-58.508273,-34.828711],[-58.50851122,-34.82663571],[-58.508689,-34.825087],[-58.508776,-34.824598],[-58.509177,-34.822157],[-58.510031,-34.818088],[-58.51057089,-34.81576541],[-58.510882,-34.814427],[-58.511043,-34.813498],[-58.51110202,-34.81314132],[-58.511601,-34.810126],[-58.511704,-34.809617],[-58.51182838,-34.80904219],[-58.51271502,-34.80517227],[-58.51433407,-34.79810568],[-58.514397,-34.797831],[-58.515607,-34.794617],[-58.515873,-34.794027],[-58.516274,-34.793214],[-58.516522,-34.792765],[-58.517036,-34.791654],[-58.517506,-34.790835],[-58.518261,-34.789686],[-58.518514,-34.789305],[-58.519423,-34.78802],[-58.52066,-34.786299],[-58.520956,-34.785945],[-58.521631,-34.785015],[-58.52175054,-34.78486902],[-58.521857,-34.784739],[-58.522253,-34.784165],[-58.522718,-34.783521],[-58.523241,-34.782773],[-58.523481,-34.782445],[-58.523767,-34.781952],[-58.524032,-34.781554],[-58.524211,-34.781074],[-58.524326,-34.7805],[-58.524403,-34.780185],[-58.524458,-34.779966],[-58.524502,-34.779139],[-58.52415162,-34.77333159],[-58.52414,-34.773139],[-58.524035,-34.770998],[-58.523973,-34.769997],[-58.52386757,-34.76812072],[-58.523826,-34.767381],[-58.52367,-34.7652],[-58.523615,-34.764363],[-58.523561,-34.763593],[-58.523528,-34.762862],[-58.523457,-34.761909],[-58.523435,-34.761136],[-58.523373,-34.760373],[-58.523329,-34.759737],[-58.523283,-34.759152],[-58.523245,-34.758649],[-58.523172,-34.757709],[-58.523132,-34.75711],[-58.52309,-34.756399],[-58.52304,-34.755734],[-58.52302,-34.755001],[-58.523019,-34.754618],[-58.52296,-34.754072],[-58.522918,-34.75335],[-58.522828,-34.752695],[-58.522764,-34.752175],[-58.522585,-34.75122],[-58.522475,-34.750664],[-58.522403,-34.750155],[-58.522293,-34.749504],[-58.522257,-34.749291],[-58.522197,-34.748994],[-58.522119,-34.748643],[-58.521995,-34.747988],[-58.52195121,-34.74769757],[-58.521927,-34.747537],[-58.521834,-34.747038],[-58.521717,-34.746565],[-58.521637,-34.746094],[-58.52144,-34.745253],[-58.521288,-34.744585],[-58.521174,-34.744136],[-58.521117,-34.743897],[-58.520954,-34.743145],[-58.520871,-34.74274],[-58.520687,-34.741959],[-58.52061563,-34.74160508],[-58.52059268,-34.74149129],[-58.520541,-34.741235],[-58.52050663,-34.74105554],[-58.52031633,-34.74109741],[-58.5203,-34.741101],[-58.51969082,-34.74120358],[-58.519623,-34.741215],[-58.51833243,-34.74136061],[-58.517877,-34.741412],[-58.517651,-34.741435],[-58.517483,-34.74143],[-58.51746729,-34.74142695],[-58.517184,-34.741372],[-58.516998,-34.741289],[-58.516774,-34.741203],[-58.516526,-34.741129],[-58.516375,-34.741037],[-58.516185,-34.740863],[-58.516117,-34.740775],[-58.515977,-34.740634],[-58.51575,-34.740463],[-58.515536,-34.740298],[-58.51540369,-34.74020772],[-58.51552884,-34.74003605],[-58.515542,-34.740018],[-58.515504,-34.739987],[-58.515274,-34.739893],[-58.514991,-34.73981],[-58.514683,-34.739803],[-58.514307,-34.739888],[-58.514051,-34.740055],[-58.513831,-34.740114],[-58.513673,-34.740128],[-58.513401,-34.740102],[-58.513152,-34.740074],[-58.512853,-34.740002],[-58.512664,-34.739894],[-58.51261349,-34.7398376],[-58.512561,-34.739779],[-58.51254341,-34.73974898],[-58.51252923,-34.73972476],[-58.51246351,-34.73961258],[-58.51246716,-34.73957995],[-58.51249,-34.739376],[-58.51247657,-34.73927562],[-58.512454,-34.739107],[-58.51244475,-34.73904492],[-58.512483,-34.73887],[-58.512516,-34.738528],[-58.51249738,-34.73836315],[-58.5125221,-34.73823718],[-58.512529,-34.738202],[-58.5125123,-34.73818005],[-58.51244927,-34.73809722],[-58.512431,-34.738009],[-58.512404,-34.737816],[-58.512348,-34.73767],[-58.512284,-34.737521],[-58.5122184,-34.7373811],[-58.512186,-34.737312],[-58.512012,-34.737188],[-58.51187162,-34.73710889],[-58.511831,-34.737086],[-58.511682,-34.73691],[-58.511545,-34.736716],[-58.511288,-34.736506],[-58.511036,-34.736299],[-58.510809,-34.736177],[-58.51057,-34.735978],[-58.51038025,-34.73576879],[-58.510375,-34.735763],[-58.510137,-34.735574],[-58.5099433,-34.73543222],[-58.509902,-34.735402],[-58.509617,-34.735183],[-58.50946535,-34.7350321],[-58.509414,-34.734981],[-58.509296,-34.734619],[-58.509219,-34.734349],[-58.509244,-34.734243],[-58.509271,-34.73405],[-58.509387,-34.733888],[-58.509453,-34.733683],[-58.50947653,-34.73351046],[-58.509482,-34.733384],[-58.509477,-34.733176],[-58.509484,-34.733054],[-58.509443,-34.732853],[-58.509337,-34.732716],[-58.50920068,-34.73261558],[-58.509018,-34.732481],[-58.508483,-34.732285],[-58.508293,-34.732082],[-58.50825727,-34.73204369],[-58.508196,-34.731978],[-58.507655,-34.73163],[-58.50753017,-34.7315018],[-58.507433,-34.731402],[-58.507293,-34.731168],[-58.507219,-34.73092],[-58.507128,-34.73053],[-58.50705,-34.730089],[-58.507001,-34.729612],[-58.50701259,-34.72945752],[-58.507041,-34.729079],[-58.50704476,-34.72902296],[-58.507068,-34.728677],[-58.507135,-34.728404],[-58.50721098,-34.72764591],[-58.507223,-34.727526],[-58.50678075,-34.72708375],[-58.506704,-34.727007],[-58.50648782,-34.72681959],[-58.50640637,-34.72674181],[-58.506305,-34.726645],[-58.506006,-34.726292],[-58.505877,-34.726102],[-58.505732,-34.725842],[-58.505621,-34.725654],[-58.505487,-34.725447],[-58.505397,-34.725352],[-58.505249,-34.725142],[-58.50508,-34.724869],[-58.504899,-34.724632],[-58.50486036,-34.72456452],[-58.50483606,-34.72452208],[-58.50482308,-34.72448444],[-58.504785,-34.724374],[-58.504745,-34.724136],[-58.504787,-34.723787],[-58.504784,-34.723419],[-58.504764,-34.723058],[-58.504723,-34.722596],[-58.504692,-34.722175],[-58.504633,-34.721935],[-58.504655,-34.721769],[-58.504649,-34.721609],[-58.504605,-34.721433],[-58.504473,-34.721278],[-58.5044339,-34.72129745],[-58.50437565,-34.72132644],[-58.50427,-34.721379],[-58.503982,-34.721471],[-58.503528,-34.721619],[-58.503193,-34.721723],[-58.502873,-34.721827],[-58.502619,-34.72191],[-58.502324,-34.722068],[-58.501485,-34.722494],[-58.50091397,-34.72290704],[-58.50079713,-34.72299155]]]]}}