{"type":"Feature","properties":{"slug":"moreno","name":"Moreno","region":"oeste","sort":5},"geometry":{"type":"MultiPolygon","coordinates":[[[[-58.811087,-34.521046],[-58.807025,-34.525226],[-58.804754,-34.527483],[-58.804312,-34.527934],[-58.80160121,-34.53074408],[-58.800763,-34.531613],[-58.79648631,-34.53598099],[-58.795142,-34.537354],[-58.794846,-34.537672],[-58.79365354,-34.53894921],[-58.793045,-34.539601],[-58.79141206,-34.54127263],[-58.79079903,-34.54190018],[-58.787305,-34.545477],[-58.78724963,-34.54553395],[-58.78584082,-34.5469831],[-58.783882,-34.548998],[-58.78220892,-34.55074609],[-58.78191642,-34.5510517],[-58.77922157,-34.55386737],[-58.777882,-34.555267],[-58.77602805,-34.55705776],[-58.77694,-34.557917],[-58.773168,-34.560772],[-58.77129468,-34.56217178],[-58.76511022,-34.56679292],[-58.76475859,-34.56705566],[-58.762206,-34.568963],[-58.76087308,-34.57013051],[-58.759982,-34.570911],[-58.75725,-34.572943],[-58.75641704,-34.57355417],[-58.75290973,-34.57612761],[-58.74714712,-34.58035585],[-58.745322,-34.581695],[-58.734996,-34.589491],[-58.73499788,-34.58949277],[-58.735064,-34.589555],[-58.73462572,-34.5898845],[-58.73253056,-34.59146717],[-58.729719,-34.593591],[-58.728296,-34.594666],[-58.728199,-34.594735],[-58.728102,-34.594804],[-58.728,-34.594877],[-58.72791,-34.594942],[-58.727794,-34.595031],[-58.727697,-34.595101],[-58.727608,-34.595165],[-58.727523,-34.595226],[-58.72747731,-34.59525877],[-58.72498697,-34.59713105],[-58.71997197,-34.6009014],[-58.71888827,-34.60171614],[-58.717283,-34.602923],[-58.71705434,-34.60307561],[-58.71625923,-34.60360627],[-58.715037,-34.604422],[-58.71497715,-34.60437794],[-58.71358987,-34.60541811],[-58.71358854,-34.60541911],[-58.7135642,-34.60543736],[-58.713518,-34.605472],[-58.71347009,-34.60552723],[-58.713374,-34.605638],[-58.71343807,-34.60565802],[-58.71349901,-34.60567706],[-58.713726,-34.605748],[-58.714031,-34.605788],[-58.714351,-34.605835],[-58.714618,-34.605881],[-58.714804,-34.605957],[-58.715004,-34.606045],[-58.715276,-34.606245],[-58.715434,-34.60636],[-58.715566,-34.606466],[-58.715683,-34.606584],[-58.715826,-34.606686],[-58.716072,-34.606808],[-58.716209,-34.606871],[-58.716378,-34.606934],[-58.716522,-34.606963],[-58.716656,-34.607058],[-58.71678,-34.607194],[-58.716919,-34.607296],[-58.717081,-34.607414],[-58.717161,-34.607516],[-58.717252,-34.607663],[-58.717313,-34.607817],[-58.717418,-34.607999],[-58.717515,-34.608159],[-58.717609,-34.608327],[-58.717713,-34.608577],[-58.717752,-34.608721],[-58.7177732,-34.60883761],[-58.717776,-34.608853],[-58.71777462,-34.60893496],[-58.717774,-34.608972],[-58.717675,-34.609136],[-58.71760942,-34.60925007],[-58.71750227,-34.60967123],[-58.717498,-34.609688],[-58.717678,-34.609891],[-58.718432,-34.609949],[-58.71849083,-34.60997408],[-58.71855989,-34.61000353],[-58.718633,-34.61009],[-58.718707,-34.610184],[-58.718809,-34.610278],[-58.718855,-34.610388],[-58.718948,-34.610475],[-58.71896846,-34.61050282],[-58.7190305,-34.61062013],[-58.71903774,-34.61063384],[-58.719041,-34.61064],[-58.7190389,-34.61069279],[-58.719039,-34.610698],[-58.719053,-34.610991],[-58.71905851,-34.61104576],[-58.719071,-34.61117],[-58.7190916,-34.61121473],[-58.719188,-34.611424],[-58.719257,-34.611535],[-58.719311,-34.611658],[-58.719431,-34.611869],[-58.719576,-34.612043],[-58.719674,-34.612197],[-58.719713,-34.612307],[-58.719715,-34.612467],[-58.71967243,-34.61262141],[-58.71964637,-34.61281315],[-58.719645,-34.6129],[-58.719641,-34.613166],[-58.719618,-34.613257],[-58.719624,-34.613348],[-58.719641,-34.613452],[-58.719687,-34.613575],[-58.719763,-34.613693],[-58.719898,-34.613911],[-58.720029,-34.614071],[-58.720134,-34.614216],[-58.720199,-34.614334],[-58.720274,-34.614518],[-58.720306,-34.614638],[-58.720414,-34.614822],[-58.72053,-34.615013],[-58.720598,-34.615167],[-58.720678,-34.615266],[-58.720809,-34.615492],[-58.720897,-34.615749],[-58.720919,-34.615832],[-58.72093386,-34.61587368],[-58.720965,-34.615961],[-58.721015,-34.616109],[-58.721079,-34.616284],[-58.721166,-34.61644],[-58.72117528,-34.61644921],[-58.72133194,-34.61666867],[-58.72138,-34.616736],[-58.72158142,-34.61693351],[-58.7217173,-34.61706675],[-58.721903,-34.617319],[-58.722164,-34.617683],[-58.72229533,-34.61792973],[-58.722377,-34.618108],[-58.72246713,-34.61821951],[-58.722472,-34.618227],[-58.72255243,-34.61836254],[-58.72258,-34.618409],[-58.722647,-34.618488],[-58.722768,-34.618565],[-58.7228122,-34.61859482],[-58.722869,-34.618649],[-58.72300807,-34.61872694],[-58.723106,-34.618793],[-58.72324309,-34.61891447],[-58.723264,-34.618933],[-58.72332438,-34.61900143],[-58.723414,-34.619147],[-58.723456,-34.619213],[-58.723525,-34.6193],[-58.723624,-34.619517],[-58.72365396,-34.61960829],[-58.723688,-34.619712],[-58.723742,-34.619906],[-58.723737,-34.620425],[-58.72373652,-34.62066416],[-58.723736,-34.620925],[-58.72376504,-34.62105072],[-58.723876,-34.621531],[-58.723918,-34.621909],[-58.723947,-34.622218],[-58.723985,-34.622551],[-58.724044,-34.622953],[-58.724091,-34.623315],[-58.724134,-34.623616],[-58.724129,-34.623929],[-58.72411536,-34.62403673],[-58.72408535,-34.62410017],[-58.724049,-34.624177],[-58.723924,-34.624326],[-58.723844,-34.624419],[-58.723783,-34.624547],[-58.72377864,-34.62456608],[-58.72377024,-34.62460283],[-58.72378,-34.624767],[-58.72379891,-34.62497414],[-58.72381092,-34.62510572],[-58.723823,-34.625238],[-58.723878,-34.625582],[-58.72391,-34.625778],[-58.723903,-34.626247],[-58.723901,-34.626594],[-58.72393008,-34.62674853],[-58.723929,-34.626892],[-58.723947,-34.62699],[-58.723967,-34.627125],[-58.723984,-34.627205],[-58.724027,-34.627319],[-58.72405498,-34.62736145],[-58.724143,-34.627495],[-58.724256,-34.627635],[-58.7242675,-34.62767704],[-58.724288,-34.627752],[-58.72431837,-34.62781938],[-58.72432,-34.627823],[-58.72435603,-34.62786789],[-58.724385,-34.627904],[-58.724495,-34.627946],[-58.724637,-34.628027],[-58.724874,-34.628226],[-58.725001,-34.628394],[-58.725016,-34.628714],[-58.725006,-34.628994],[-58.724936,-34.629259],[-58.724894,-34.629461],[-58.724874,-34.629676],[-58.72486,-34.629859],[-58.7249015,-34.63000557],[-58.724907,-34.630025],[-58.72493333,-34.63010001],[-58.725209,-34.630272],[-58.7253793,-34.63035091],[-58.725796,-34.630544],[-58.72600246,-34.63065741],[-58.726435,-34.630895],[-58.72678364,-34.63117391],[-58.72694,-34.631299],[-58.72694468,-34.63131613],[-58.72703509,-34.63164685],[-58.727092,-34.631855],[-58.727092,-34.632742],[-58.72714454,-34.63308229],[-58.727157,-34.633163],[-58.72720101,-34.63322859],[-58.72730989,-34.63339088],[-58.727314,-34.633397],[-58.72746255,-34.63354996],[-58.727557,-34.633631],[-58.72761009,-34.63370189],[-58.727724,-34.633854],[-58.727818,-34.634026],[-58.72805002,-34.63423037],[-58.728204,-34.634366],[-58.72820704,-34.63436802],[-58.728377,-34.634481],[-58.728767,-34.634706],[-58.72879415,-34.63471918],[-58.72889428,-34.63472051],[-58.72902479,-34.63478365],[-58.72903724,-34.63478968],[-58.72910282,-34.6348214],[-58.729216,-34.6349],[-58.72931526,-34.63495419],[-58.7295199,-34.63512198],[-58.72961,-34.635218],[-58.72966805,-34.63529867],[-58.729841,-34.635539],[-58.7299201,-34.63567388],[-58.729997,-34.635805],[-58.73000604,-34.63583799],[-58.73005675,-34.63602297],[-58.73007403,-34.63608599],[-58.730085,-34.636126],[-58.730139,-34.636267],[-58.730223,-34.636403],[-58.730311,-34.63649],[-58.73079648,-34.63692547],[-58.73092113,-34.63703729],[-58.73103013,-34.6371386],[-58.7312584,-34.63738356],[-58.73127,-34.637396],[-58.73144225,-34.63757978],[-58.731509,-34.637651],[-58.73153853,-34.6376976],[-58.731618,-34.637823],[-58.73170167,-34.63799461],[-58.731716,-34.638024],[-58.73173623,-34.63810922],[-58.731768,-34.638243],[-58.731835,-34.63855],[-58.731902,-34.63876],[-58.731903,-34.638936],[-58.73190624,-34.63906085],[-58.73190476,-34.63909038],[-58.731896,-34.639266],[-58.73184504,-34.63940626],[-58.731787,-34.639566],[-58.73151,-34.640549],[-58.731392,-34.640971],[-58.731315,-34.641258],[-58.731421,-34.641662],[-58.731566,-34.642054],[-58.731635,-34.642289],[-58.731742,-34.642561],[-58.7318082,-34.64259095],[-58.73186596,-34.64261709],[-58.732086,-34.64271666],[-58.732142,-34.642742],[-58.73234891,-34.64278852],[-58.73262964,-34.64285165],[-58.73272047,-34.64287207],[-58.732818,-34.642894],[-58.73332339,-34.64303731],[-58.73334254,-34.6430455],[-58.73350218,-34.64311384],[-58.733603,-34.643157],[-58.73364066,-34.64318101],[-58.73373164,-34.64323903],[-58.73381,-34.643289],[-58.73382477,-34.64329983],[-58.73400667,-34.64343329],[-58.73400744,-34.64343385],[-58.73400902,-34.64343497],[-58.73400925,-34.64343512],[-58.734275,-34.643564],[-58.734423,-34.643615],[-58.73469608,-34.64365116],[-58.734829,-34.64368],[-58.73497381,-34.64370645],[-58.73538356,-34.64378129],[-58.73546787,-34.64379669],[-58.7354929,-34.64380337],[-58.735514,-34.643809],[-58.73581,-34.643948],[-58.73589803,-34.64400121],[-58.736083,-34.644113],[-58.73609802,-34.64412299],[-58.73615231,-34.64415909],[-58.736286,-34.644248],[-58.736457,-34.644396],[-58.73654767,-34.64448103],[-58.736666,-34.644592],[-58.736943,-34.644779],[-58.73710283,-34.64486272],[-58.73729199,-34.64497812],[-58.73757361,-34.64514994],[-58.737613,-34.645176],[-58.73767095,-34.64522514],[-58.737863,-34.645388],[-58.738194,-34.64564],[-58.73845523,-34.64580503],[-58.738471,-34.645815],[-58.738689,-34.645954],[-58.73897454,-34.64609465],[-58.739026,-34.64612],[-58.73908521,-34.64615637],[-58.739236,-34.646249],[-58.7394127,-34.64639567],[-58.7394556,-34.64643691],[-58.739553,-34.646558],[-58.739699,-34.646751],[-58.739838,-34.646949],[-58.739913,-34.647131],[-58.739996,-34.647337],[-58.740154,-34.647741],[-58.74019949,-34.64783083],[-58.740247,-34.648032],[-58.740487,-34.6484],[-58.74074424,-34.64857803],[-58.74077076,-34.64859638],[-58.740802,-34.648618],[-58.741287,-34.648814],[-58.74160453,-34.64888901],[-58.741636,-34.648903],[-58.741836,-34.648998],[-58.741954,-34.649076],[-58.742223,-34.649269],[-58.742515,-34.649514],[-58.74266798,-34.64962672],[-58.742743,-34.649682],[-58.742953,-34.649838],[-58.74303197,-34.64987897],[-58.74306562,-34.64989643],[-58.74321823,-34.64996449],[-58.743253,-34.64998],[-58.743379,-34.650015],[-58.74353159,-34.65004328],[-58.74381172,-34.65010691],[-58.743997,-34.650149],[-58.74453048,-34.65035303],[-58.74509319,-34.65056824],[-58.745171,-34.650598],[-58.745375,-34.650751],[-58.745601,-34.65088],[-58.74572065,-34.65095753],[-58.74572937,-34.65096599],[-58.74574385,-34.65098741],[-58.745799,-34.651069],[-58.7458145,-34.65110235],[-58.745865,-34.651211],[-58.746021,-34.651526],[-58.746101,-34.65165],[-58.746221,-34.651799],[-58.746361,-34.651942],[-58.7464389,-34.65203429],[-58.746518,-34.652128],[-58.746714,-34.65227],[-58.746858,-34.65236],[-58.7469045,-34.65237938],[-58.747002,-34.65242],[-58.747165,-34.65251707],[-58.74718,-34.652526],[-58.74719962,-34.65253537],[-58.747379,-34.652621],[-58.747613,-34.652709],[-58.74771209,-34.65274821],[-58.74771969,-34.65275239],[-58.74788673,-34.65284401],[-58.74797838,-34.65289429],[-58.748091,-34.652974],[-58.748283,-34.653127],[-58.748404,-34.653251],[-58.74843598,-34.65328216],[-58.748554,-34.653397],[-58.74855453,-34.65339782],[-58.748609,-34.653483],[-58.74861841,-34.65350036],[-58.748718,-34.653684],[-58.748815,-34.653897],[-58.748888,-34.654024],[-58.748991,-34.654132],[-58.74901669,-34.65414417],[-58.749124,-34.654195],[-58.74926186,-34.65424697],[-58.749274,-34.654254],[-58.74928601,-34.65425607],[-58.74938808,-34.65427368],[-58.74954722,-34.65430113],[-58.74957695,-34.65430626],[-58.749675,-34.654335],[-58.74969578,-34.65434187],[-58.74970264,-34.65434413],[-58.749905,-34.654411],[-58.74993632,-34.65442126],[-58.75015,-34.654497],[-58.75034884,-34.65460864],[-58.75035358,-34.65461131],[-58.75068246,-34.65479596],[-58.750755,-34.654859],[-58.750816,-34.654927],[-58.750901,-34.654996],[-58.751094,-34.655231],[-58.751154,-34.655316],[-58.751633,-34.655879],[-58.751714,-34.656],[-58.751814,-34.656143],[-58.751931,-34.656232],[-58.752012,-34.656345],[-58.752125,-34.656434],[-58.75234268,-34.65660122],[-58.75234543,-34.65660349],[-58.752775,-34.657097],[-58.753082,-34.657401],[-58.753249,-34.657527],[-58.75355,-34.657648],[-58.75381,-34.657796],[-58.75392,-34.657851],[-58.754111,-34.657948],[-58.75433977,-34.65807769],[-58.75448571,-34.65817841],[-58.75451,-34.658197],[-58.75472642,-34.6583505],[-58.7547658,-34.65838689],[-58.755047,-34.658669],[-58.755197,-34.658809],[-58.755282,-34.658867],[-58.755437,-34.659006],[-58.755614,-34.659183],[-58.75589,-34.659372],[-58.75602,-34.659447],[-58.756186,-34.659517],[-58.756369,-34.659644],[-58.75659,-34.659754],[-58.75670431,-34.65984077],[-58.75711463,-34.66015226],[-58.757549,-34.660482],[-58.758607,-34.660599],[-58.759709,-34.660815],[-58.76046,-34.661147],[-58.761403,-34.661667],[-58.762912,-34.661828],[-58.764399,-34.662143],[-58.764704,-34.662074],[-58.765628,-34.661945],[-58.766099,-34.661958],[-58.7665,-34.662051],[-58.76699,-34.662538],[-58.767514,-34.663572],[-58.76776,-34.664223],[-58.768078,-34.664575],[-58.768856,-34.665061],[-58.76957,-34.665198],[-58.770543,-34.665062],[-58.772615,-34.664784],[-58.773887,-34.665032],[-58.776333,-34.665527],[-58.776957,-34.665792],[-58.778111,-34.666047],[-58.779229,-34.665898],[-58.780091,-34.665963],[-58.781506,-34.667008],[-58.784747,-34.66868],[-58.785388,-34.669173],[-58.786524,-34.670011],[-58.787694,-34.670476],[-58.789638,-34.671071],[-58.790798,-34.671304],[-58.79215,-34.672193],[-58.794381,-34.673252],[-58.794594,-34.673225],[-58.79472385,-34.67320572],[-58.79485,-34.673187],[-58.79539489,-34.6733246],[-58.795515,-34.673355],[-58.79575916,-34.6734066],[-58.79596339,-34.67344976],[-58.795974,-34.673454],[-58.795993,-34.673461],[-58.796012,-34.67347],[-58.79603,-34.673479],[-58.796049,-34.673488],[-58.796066,-34.673498],[-58.796084,-34.673508],[-58.796101,-34.673519],[-58.796117,-34.673531],[-58.796133,-34.673543],[-58.796148,-34.673555],[-58.796163,-34.673568],[-58.796345,-34.673654],[-58.796714,-34.673833],[-58.796717,-34.673833],[-58.796721,-34.673833],[-58.796724,-34.673834],[-58.796727,-34.673834],[-58.79673,-34.673834],[-58.796733,-34.673835],[-58.796736,-34.673835],[-58.796739,-34.673836],[-58.796742,-34.673837],[-58.796745,-34.673838],[-58.796748,-34.673839],[-58.796751,-34.67384],[-58.796753,-34.673841],[-58.796756,-34.673842],[-58.796759,-34.673843],[-58.796762,-34.673845],[-58.796764,-34.673846],[-58.796767,-34.673847],[-58.796769,-34.673849],[-58.796772,-34.673851],[-58.796774,-34.673852],[-58.796776,-34.673854],[-58.796779,-34.673856],[-58.796781,-34.673858],[-58.796783,-34.67386],[-58.796785,-34.673862],[-58.796787,-34.673864],[-58.796788,-34.673866],[-58.79679,-34.673868],[-58.796792,-34.67387],[-58.796793,-34.673872],[-58.796795,-34.673875],[-58.796796,-34.673877],[-58.796798,-34.673879],[-58.796799,-34.673882],[-58.7968,-34.673884],[-58.796801,-34.673887],[-58.796802,-34.67389],[-58.796804,-34.673893],[-58.796806,-34.673896],[-58.796808,-34.673899],[-58.79681,-34.673902],[-58.796812,-34.673904],[-58.796814,-34.673907],[-58.796816,-34.67391],[-58.796818,-34.673912],[-58.796821,-34.673915],[-58.796823,-34.673917],[-58.796826,-34.673919],[-58.796829,-34.673922],[-58.796832,-34.673924],[-58.796835,-34.673926],[-58.796838,-34.673928],[-58.796841,-34.67393],[-58.796844,-34.673932],[-58.796847,-34.673933],[-58.796851,-34.673935],[-58.796854,-34.673936],[-58.796858,-34.673938],[-58.796861,-34.673939],[-58.796865,-34.67394],[-58.796869,-34.673941],[-58.796872,-34.673943],[-58.796876,-34.673943],[-58.79688,-34.673944],[-58.796884,-34.673945],[-58.796887,-34.673946],[-58.796893,-34.673944],[-58.796899,-34.673942],[-58.796904,-34.673941],[-58.79691,-34.673939],[-58.796916,-34.673938],[-58.796922,-34.673937],[-58.796928,-34.673936],[-58.796933,-34.673936],[-58.796939,-34.673935],[-58.796945,-34.673935],[-58.796951,-34.673935],[-58.796957,-34.673935],[-58.796963,-34.673935],[-58.796969,-34.673935],[-58.796975,-34.673936],[-58.796981,-34.673936],[-58.796987,-34.673937],[-58.796993,-34.673938],[-58.796998,-34.67394],[-58.797004,-34.673941],[-58.79701,-34.673943],[-58.797016,-34.673944],[-58.797021,-34.673946],[-58.797027,-34.673948],[-58.797032,-34.67395],[-58.797037,-34.673953],[-58.797042,-34.673955],[-58.797047,-34.673958],[-58.797052,-34.673961],[-58.797057,-34.673963],[-58.797062,-34.673966],[-58.797066,-34.67397],[-58.797071,-34.673973],[-58.797089,-34.673986],[-58.797107,-34.673999],[-58.797127,-34.674012],[-58.797146,-34.674024],[-58.797166,-34.674035],[-58.797187,-34.674046],[-58.797208,-34.674056],[-58.79723,-34.674065],[-58.797252,-34.674074],[-58.797274,-34.674082],[-58.797296,-34.67409],[-58.797319,-34.674097],[-58.797342,-34.674103],[-58.797363,-34.674109],[-58.797383,-34.674115],[-58.797402,-34.674121],[-58.797422,-34.674128],[-58.797441,-34.674136],[-58.79746,-34.674144],[-58.797479,-34.674153],[-58.797497,-34.674162],[-58.797515,-34.674172],[-58.797532,-34.674182],[-58.797549,-34.674192],[-58.797566,-34.674203],[-58.79757,-34.67421],[-58.797574,-34.674216],[-58.797578,-34.674222],[-58.797583,-34.674227],[-58.797587,-34.674233],[-58.797592,-34.674239],[-58.797598,-34.674244],[-58.797603,-34.674249],[-58.797609,-34.674254],[-58.797615,-34.674259],[-58.797621,-34.674264],[-58.797627,-34.674269],[-58.797633,-34.674273],[-58.797643,-34.674279],[-58.797654,-34.674285],[-58.797664,-34.674291],[-58.797675,-34.674297],[-58.797686,-34.674302],[-58.797697,-34.674307],[-58.797709,-34.674311],[-58.79772,-34.674315],[-58.797732,-34.674319],[-58.797744,-34.674323],[-58.797756,-34.674326],[-58.797768,-34.674329],[-58.79778,-34.674331],[-58.797793,-34.674334],[-58.797805,-34.674335],[-58.797817,-34.674337],[-58.79783,-34.674338],[-58.797843,-34.674339],[-58.797855,-34.674339],[-58.797868,-34.674339],[-58.79788,-34.674339],[-58.797893,-34.674338],[-58.797906,-34.674337],[-58.797918,-34.674336],[-58.797931,-34.674334],[-58.797943,-34.674332],[-58.797955,-34.67433],[-58.797968,-34.674327],[-58.79798,-34.674324],[-58.797991,-34.674321],[-58.798003,-34.674317],[-58.798011,-34.674314],[-58.79802,-34.674312],[-58.798028,-34.67431],[-58.798036,-34.674308],[-58.798045,-34.674306],[-58.798053,-34.674305],[-58.798062,-34.674304],[-58.798071,-34.674303],[-58.798079,-34.674302],[-58.798088,-34.674302],[-58.798097,-34.674301],[-58.798105,-34.674301],[-58.798114,-34.674302],[-58.798122,-34.674302],[-58.798131,-34.674303],[-58.79814,-34.674304],[-58.798148,-34.674305],[-58.798157,-34.674307],[-58.798165,-34.674308],[-58.798174,-34.67431],[-58.798182,-34.674313],[-58.79819,-34.674315],[-58.798198,-34.674318],[-58.798206,-34.67432],[-58.798214,-34.674324],[-58.798222,-34.674327],[-58.798229,-34.67433],[-58.798237,-34.674334],[-58.798244,-34.674338],[-58.798251,-34.674342],[-58.798276,-34.674357],[-58.798302,-34.674371],[-58.798329,-34.674385],[-58.798356,-34.674397],[-58.798384,-34.674409],[-58.798412,-34.67442],[-58.79844,-34.674431],[-58.798469,-34.67444],[-58.798498,-34.674449],[-58.798528,-34.674457],[-58.798558,-34.674464],[-58.798613,-34.674478],[-58.798668,-34.674492],[-58.798722,-34.674509],[-58.798775,-34.674527],[-58.799373,-34.674741],[-58.799866,-34.674919],[-58.800113,-34.67497],[-58.800141,-34.674982],[-58.800169,-34.674994],[-58.800198,-34.675005],[-58.800227,-34.675015],[-58.800256,-34.675024],[-58.800286,-34.675032],[-58.800316,-34.67504],[-58.800347,-34.675046],[-58.800377,-34.675052],[-58.800403,-34.675069],[-58.80043,-34.675086],[-58.800457,-34.675102],[-58.800485,-34.675117],[-58.800514,-34.675131],[-58.800543,-34.675144],[-58.800572,-34.675157],[-58.800603,-34.675169],[-58.800633,-34.67518],[-58.800664,-34.675191],[-58.800753,-34.67522],[-58.80084,-34.675252],[-58.800926,-34.675287],[-58.800933,-34.675285],[-58.800941,-34.675284],[-58.800949,-34.675283],[-58.800957,-34.675282],[-58.800964,-34.675281],[-58.800972,-34.675281],[-58.80098,-34.67528],[-58.800988,-34.67528],[-58.800996,-34.67528],[-58.801004,-34.675281],[-58.801012,-34.675281],[-58.801019,-34.675282],[-58.801027,-34.675283],[-58.801035,-34.675285],[-58.801043,-34.675286],[-58.80105,-34.675288],[-58.801058,-34.67529],[-58.801065,-34.675292],[-58.801073,-34.675294],[-58.80108,-34.675297],[-58.801087,-34.6753],[-58.801094,-34.675303],[-58.801101,-34.675306],[-58.801107,-34.675309],[-58.801114,-34.675313],[-58.80112,-34.675317],[-58.801127,-34.675321],[-58.801133,-34.675325],[-58.801139,-34.675329],[-58.801144,-34.675334],[-58.801357,-34.67533],[-58.801452,-34.675389],[-58.801733,-34.675408],[-58.802008,-34.675472],[-58.802104,-34.675475],[-58.802134,-34.675494],[-58.802273,-34.67551],[-58.802289,-34.675493],[-58.80238,-34.675486],[-58.802416,-34.675544],[-58.80243,-34.675554],[-58.802444,-34.675563],[-58.802458,-34.675572],[-58.802473,-34.675581],[-58.802488,-34.675589],[-58.802503,-34.675597],[-58.802519,-34.675605],[-58.802533,-34.675611],[-58.802547,-34.675617],[-58.802561,-34.675622],[-58.802576,-34.675627],[-58.802591,-34.675632],[-58.802606,-34.675636],[-58.802621,-34.67564],[-58.802637,-34.675643],[-58.802652,-34.675646],[-58.802668,-34.675648],[-58.802683,-34.67565],[-58.802699,-34.675652],[-58.802715,-34.675653],[-58.802731,-34.675653],[-58.802746,-34.675654],[-58.802762,-34.675653],[-58.802778,-34.675653],[-58.802794,-34.675651],[-58.802827,-34.67567],[-58.802858,-34.67569],[-58.802889,-34.675711],[-58.802919,-34.675732],[-58.802931,-34.675731],[-58.802942,-34.675729],[-58.802953,-34.675729],[-58.802964,-34.675728],[-58.802975,-34.675728],[-58.802987,-34.675728],[-58.802998,-34.675729],[-58.803009,-34.675729],[-58.80302,-34.675731],[-58.803031,-34.675732],[-58.803042,-34.675734],[-58.803053,-34.675736],[-58.803064,-34.675738],[-58.803075,-34.675741],[-58.803085,-34.675744],[-58.803096,-34.675747],[-58.803106,-34.675751],[-58.803117,-34.675755],[-58.803173,-34.675779],[-58.803229,-34.675804],[-58.803284,-34.675832],[-58.803338,-34.67586],[-58.80339,-34.67589],[-58.803442,-34.675922],[-58.803598,-34.67594],[-58.803696,-34.675987],[-58.80374,-34.675986],[-58.803784,-34.675986],[-58.803828,-34.675988],[-58.803871,-34.67599],[-58.803914,-34.675994],[-58.803958,-34.675999],[-58.804001,-34.676006],[-58.804043,-34.676013],[-58.804086,-34.676022],[-58.804128,-34.676032],[-58.804169,-34.676044],[-58.80421,-34.676056],[-58.804251,-34.67607],[-58.804291,-34.676085],[-58.80433,-34.676101],[-58.804368,-34.676118],[-58.804406,-34.676136],[-58.804443,-34.676155],[-58.804479,-34.676176],[-58.804754,-34.6764],[-58.804756,-34.676439],[-58.804849,-34.676536],[-58.804849,-34.676542],[-58.80485,-34.676547],[-58.804851,-34.676553],[-58.804853,-34.676558],[-58.804854,-34.676564],[-58.804856,-34.676569],[-58.804858,-34.676574],[-58.80486,-34.67658],[-58.804863,-34.676585],[-58.804865,-34.67659],[-58.804868,-34.676595],[-58.804871,-34.6766],[-58.804875,-34.676605],[-58.804878,-34.67661],[-58.804882,-34.676614],[-58.804886,-34.676619],[-58.80489,-34.676623],[-58.804894,-34.676628],[-58.804898,-34.676632],[-58.804903,-34.676636],[-58.804907,-34.67664],[-58.804912,-34.676644],[-58.804917,-34.676647],[-58.804923,-34.676651],[-58.804928,-34.676654],[-58.805,-34.676697],[-58.805074,-34.676738],[-58.805149,-34.676777],[-58.805225,-34.676814],[-58.805303,-34.67685],[-58.805382,-34.676883],[-58.805437,-34.676905],[-58.805493,-34.676925],[-58.80555,-34.676944],[-58.805607,-34.676961],[-58.805665,-34.676977],[-58.805724,-34.676991],[-58.805783,-34.677004],[-58.805794,-34.677003],[-58.805806,-34.677001],[-58.805818,-34.677],[-58.805829,-34.677],[-58.805841,-34.677],[-58.805853,-34.677],[-58.805865,-34.677],[-58.805876,-34.677001],[-58.805888,-34.677002],[-58.8059,-34.677003],[-58.805911,-34.677005],[-58.805923,-34.677007],[-58.805934,-34.67701],[-58.805945,-34.677012],[-58.805957,-34.677015],[-58.805968,-34.677019],[-58.805979,-34.677022],[-58.805989,-34.677026],[-58.806,-34.677031],[-58.80601,-34.677035],[-58.80602,-34.67704],[-58.80603,-34.677045],[-58.80604,-34.677051],[-58.806055,-34.677059],[-58.80607,-34.677067],[-58.806086,-34.677074],[-58.806101,-34.677081],[-58.806117,-34.677087],[-58.806134,-34.677093],[-58.80615,-34.677099],[-58.806167,-34.677104],[-58.806184,-34.677108],[-58.806201,-34.677112],[-58.806218,-34.677116],[-58.806235,-34.677119],[-58.806253,-34.677122],[-58.80627,-34.677124],[-58.806288,-34.677126],[-58.806306,-34.677127],[-58.806324,-34.677128],[-58.806342,-34.67713],[-58.80636,-34.677132],[-58.806379,-34.677135],[-58.806396,-34.677138],[-58.806414,-34.677142],[-58.806432,-34.677146],[-58.806449,-34.677151],[-58.806467,-34.677156],[-58.806483,-34.677162],[-58.8065,-34.677168],[-58.806517,-34.677175],[-58.806533,-34.677182],[-58.806549,-34.67719],[-58.806564,-34.677198],[-58.806579,-34.677206],[-58.806594,-34.677215],[-58.806608,-34.677225],[-58.806622,-34.677234],[-58.806636,-34.677245],[-58.806649,-34.677255],[-58.806662,-34.677266],[-58.806674,-34.677278],[-58.806686,-34.677289],[-58.806784,-34.677307],[-58.80679,-34.677312],[-58.806795,-34.677318],[-58.806801,-34.677323],[-58.806807,-34.677327],[-58.806813,-34.677332],[-58.806819,-34.677337],[-58.806826,-34.677341],[-58.806833,-34.677345],[-58.806839,-34.677349],[-58.806846,-34.677353],[-58.806854,-34.677357],[-58.806861,-34.67736],[-58.806868,-34.677363],[-58.806876,-34.677366],[-58.806884,-34.677369],[-58.806892,-34.677371],[-58.806899,-34.677374],[-58.806907,-34.677376],[-58.806916,-34.677378],[-58.807201,-34.677439],[-58.807586,-34.677441],[-58.807614,-34.677444],[-58.807642,-34.677447],[-58.80767,-34.677449],[-58.807698,-34.67745],[-58.807726,-34.677451],[-58.807754,-34.67745],[-58.807782,-34.677449],[-58.80781,-34.677447],[-58.807838,-34.677444],[-58.807865,-34.677441],[-58.807893,-34.677436],[-58.80792,-34.677431],[-58.807947,-34.677425],[-58.807974,-34.677419],[-58.808001,-34.677411],[-58.808027,-34.677403],[-58.808053,-34.677394],[-58.808079,-34.677385],[-58.808102,-34.677362],[-58.808127,-34.677341],[-58.808153,-34.67732],[-58.808179,-34.6773],[-58.808206,-34.677281],[-58.808234,-34.677262],[-58.808263,-34.677245],[-58.808292,-34.677227],[-58.808322,-34.677211],[-58.808404,-34.677186],[-58.808486,-34.677163],[-58.80857,-34.677142],[-58.808654,-34.677124],[-58.808916,-34.677137],[-58.809124,-34.677154],[-58.809233,-34.677191],[-58.809381,-34.677214],[-58.80965,-34.677314],[-58.809841,-34.677441],[-58.80992297,-34.67756534],[-58.80993,-34.677576],[-58.80992139,-34.67769024],[-58.809904,-34.677921],[-58.80988492,-34.67797365],[-58.809853,-34.678007],[-58.809778,-34.678115],[-58.809705,-34.67835],[-58.80971536,-34.67849938],[-58.809668,-34.678676],[-58.809642,-34.678972],[-58.80976313,-34.67934855],[-58.809771,-34.679373],[-58.80974357,-34.67954907],[-58.80974337,-34.67955064],[-58.80970903,-34.67977101],[-58.80956671,-34.68014664],[-58.809534,-34.680233],[-58.80952717,-34.68027449],[-58.809484,-34.680537],[-58.80965,-34.680725],[-58.809895,-34.680931],[-58.810074,-34.680989],[-58.810354,-34.681028],[-58.810621,-34.681235],[-58.81068643,-34.6813215],[-58.810759,-34.681428],[-58.81080543,-34.68147875],[-58.81098586,-34.68171551],[-58.81106,-34.68185],[-58.811177,-34.682038],[-58.81120172,-34.68205405],[-58.81125,-34.682132],[-58.811383,-34.682263],[-58.812259,-34.682356],[-58.812769,-34.682421],[-58.813321,-34.682362],[-58.813637,-34.682272],[-58.813954,-34.682154],[-58.814302,-34.682223],[-58.814536,-34.682373],[-58.814723,-34.682644],[-58.81496203,-34.68318588],[-58.814974,-34.683213],[-58.815129,-34.683409],[-58.815294,-34.683643],[-58.815438,-34.683802],[-58.81562497,-34.68382977],[-58.81564,-34.683832],[-58.81594808,-34.68376728],[-58.81600072,-34.68376775],[-58.81621584,-34.68383166],[-58.81628131,-34.68387551],[-58.81629821,-34.68389563],[-58.816355,-34.684003],[-58.816439,-34.684081],[-58.816631,-34.684192],[-58.81680599,-34.68429159],[-58.81692943,-34.68438397],[-58.817025,-34.684515],[-58.8171212,-34.68463894],[-58.817186,-34.684753],[-58.817374,-34.685033],[-58.817518,-34.685189],[-58.817528,-34.685201],[-58.817606,-34.685286],[-58.817952,-34.685484],[-58.818311,-34.685589],[-58.8184314,-34.68559447],[-58.8185624,-34.68560043],[-58.818783,-34.685603],[-58.81896697,-34.68560092],[-58.819549,-34.685546],[-58.820102,-34.685393],[-58.82058021,-34.68512754],[-58.82073715,-34.68504041],[-58.820914,-34.684907],[-58.821052,-34.684736],[-58.821202,-34.684564],[-58.821364,-34.68443],[-58.821575,-34.68429],[-58.82184798,-34.68401104],[-58.82184802,-34.684011],[-58.82184808,-34.68401095],[-58.82185278,-34.68400758],[-58.82229906,-34.68368859],[-58.8223912,-34.68362272],[-58.822416,-34.683605],[-58.822427,-34.68358664],[-58.822591,-34.683313],[-58.82281,-34.682903],[-58.82293068,-34.68270292],[-58.823073,-34.682634],[-58.823351,-34.682571],[-58.82336825,-34.68257084],[-58.823673,-34.682568],[-58.823936,-34.682579],[-58.824343,-34.682587],[-58.82446033,-34.68259129],[-58.824692,-34.682615],[-58.824987,-34.682767],[-58.82525915,-34.68287906],[-58.825281,-34.682894],[-58.82543,-34.682959],[-58.82548951,-34.68298788],[-58.82562425,-34.68306025],[-58.825745,-34.683155],[-58.82597,-34.683376],[-58.826327,-34.683705],[-58.826538,-34.683874],[-58.826724,-34.684022],[-58.826954,-34.684214],[-58.82728,-34.68437],[-58.827626,-34.684461],[-58.827907,-34.684485],[-58.82812101,-34.68447787],[-58.828177,-34.684476],[-58.82844423,-34.68447507],[-58.82872047,-34.68452328],[-58.82872185,-34.68452408],[-58.828929,-34.684645],[-58.829281,-34.684901],[-58.82964,-34.685085],[-58.82970663,-34.68510862],[-58.830018,-34.685219],[-58.83030585,-34.6852674],[-58.830379,-34.685286],[-58.83055274,-34.68530681],[-58.830681,-34.685327],[-58.83071621,-34.68532639],[-58.83093,-34.685352],[-58.831514,-34.685358],[-58.832001,-34.685468],[-58.832131,-34.685513],[-58.83232102,-34.68557878],[-58.832339,-34.685585],[-58.832952,-34.685739],[-58.833608,-34.68593],[-58.833999,-34.686058],[-58.834345,-34.686162],[-58.83449702,-34.68616872],[-58.834775,-34.686181],[-58.835107,-34.686158],[-58.83578989,-34.68612879],[-58.83638863,-34.68610318],[-58.83658,-34.686095],[-58.837035,-34.685998],[-58.837528,-34.686053],[-58.83808,-34.686055],[-58.83868485,-34.68606942],[-58.838877,-34.686074],[-58.83924102,-34.68603349],[-58.839524,-34.686002],[-58.840919,-34.685763],[-58.842207,-34.68548],[-58.842788,-34.685337],[-58.84357509,-34.68528504],[-58.843606,-34.685283],[-58.84404604,-34.68527493],[-58.844315,-34.68527],[-58.84473,-34.685204],[-58.845136,-34.685006],[-58.8452154,-34.68496068],[-58.84531299,-34.68490498],[-58.845574,-34.684756],[-58.845894,-34.684646],[-58.8462853,-34.68464907],[-58.846315,-34.684653],[-58.84648582,-34.68468279],[-58.846745,-34.684728],[-58.847226,-34.684778],[-58.848055,-34.684747],[-58.848387,-34.684729],[-58.849297,-34.684693],[-58.849628,-34.684675],[-58.850086,-34.684657],[-58.850868,-34.684714],[-58.8509332,-34.68471514],[-58.85150024,-34.6847065],[-58.851599,-34.684705],[-58.852142,-34.684596],[-58.852557,-34.684548],[-58.853459,-34.684556],[-58.85418998,-34.68451381],[-58.8549,-34.684554],[-58.8555491,-34.68461928],[-58.85664,-34.684729],[-58.85798,-34.684786],[-58.858299,-34.684843],[-58.860294,-34.685206],[-58.86037993,-34.685156],[-58.86056543,-34.68504806],[-58.861332,-34.684602],[-58.8622972,-34.68404135],[-58.862785,-34.683758],[-58.86300011,-34.6836652],[-58.863696,-34.683365],[-58.86387076,-34.68324954],[-58.86461351,-34.68275884],[-58.8649673,-34.68256774],[-58.86532769,-34.68237308],[-58.86555,-34.682253],[-58.867168,-34.681549],[-58.86839508,-34.68084837],[-58.868429,-34.680829],[-58.86909705,-34.6803326],[-58.869293,-34.680187],[-58.86974339,-34.67990285],[-58.87059738,-34.67936406],[-58.871474,-34.678811],[-58.873828,-34.677021],[-58.876397,-34.674982],[-58.8775188,-34.6744177],[-58.877882,-34.674235],[-58.879102,-34.673687],[-58.880882,-34.673018],[-58.88173913,-34.67264035],[-58.882557,-34.67228],[-58.883346,-34.671757],[-58.88362456,-34.67116354],[-58.88376,-34.670875],[-58.88404,-34.669682],[-58.88443906,-34.6688559],[-58.884468,-34.668796],[-58.88445897,-34.66855308],[-58.884447,-34.668231],[-58.88430078,-34.66778323],[-58.884206,-34.667493],[-58.884162,-34.66714],[-58.884091,-34.666879],[-58.884008,-34.66656],[-58.884153,-34.666164],[-58.88414763,-34.66612375],[-58.88411418,-34.66587327],[-58.884106,-34.665812],[-58.88394,-34.665521],[-58.883775,-34.665414],[-58.88376797,-34.6653843],[-58.883722,-34.66519],[-58.883844,-34.664952],[-58.883892,-34.664671],[-58.883725,-34.664393],[-58.883485,-34.664165],[-58.883368,-34.663998],[-58.883311,-34.663807],[-58.883181,-34.663659],[-58.882974,-34.663528],[-58.88289864,-34.66338363],[-58.882891,-34.663369],[-58.88289501,-34.66331933],[-58.88289947,-34.66326413],[-58.882907,-34.663171],[-58.883016,-34.663024],[-58.88302268,-34.6630101],[-58.883089,-34.662872],[-58.88300423,-34.66268271],[-58.882986,-34.662642],[-58.88295,-34.662403],[-58.88287,-34.662111],[-58.882921,-34.661516],[-58.88291819,-34.66144334],[-58.882912,-34.661283],[-58.88287025,-34.66114613],[-58.882833,-34.661024],[-58.882771,-34.660833],[-58.8827563,-34.66067831],[-58.882752,-34.660633],[-58.882849,-34.660489],[-58.882909,-34.6604],[-58.882917,-34.6603],[-58.88285355,-34.66022278],[-58.88282948,-34.66019349],[-58.882811,-34.660171],[-58.8826885,-34.66005725],[-58.882671,-34.660041],[-58.882505,-34.659879],[-58.882437,-34.659706],[-58.8824441,-34.65956585],[-58.88244466,-34.65955467],[-58.882445,-34.659548],[-58.882515,-34.659425],[-58.88260298,-34.65936117],[-58.882617,-34.659351],[-58.882796,-34.659312],[-58.882901,-34.65928],[-58.882968,-34.659199],[-58.882963,-34.659103],[-58.88296087,-34.65909455],[-58.882923,-34.658944],[-58.882961,-34.658332],[-58.88297913,-34.65822256],[-58.88299375,-34.65813425],[-58.883014,-34.658012],[-58.88304068,-34.65796265],[-58.883147,-34.657766],[-58.883165,-34.657638],[-58.883143,-34.657527],[-58.88309958,-34.65745214],[-58.883085,-34.657427],[-58.88307506,-34.65726163],[-58.883066,-34.657111],[-58.8830534,-34.65708177],[-58.883016,-34.656995],[-58.882983,-34.656813],[-58.882899,-34.656614],[-58.8829317,-34.656367],[-58.882946,-34.656259],[-58.88292212,-34.65611713],[-58.882912,-34.656057],[-58.882845,-34.655833],[-58.882876,-34.655717],[-58.882962,-34.655621],[-58.883085,-34.655524],[-58.8830972,-34.65549752],[-58.88312,-34.655448],[-58.88311,-34.655369],[-58.88308512,-34.65532546],[-58.883046,-34.655257],[-58.882885,-34.655035],[-58.88286665,-34.65490298],[-58.882839,-34.654704],[-58.882783,-34.654324],[-58.882825,-34.65397],[-58.882785,-34.653707],[-58.882685,-34.653472],[-58.88251,-34.653219],[-58.88235846,-34.65309665],[-58.882266,-34.653022],[-58.881993,-34.652313],[-58.881846,-34.652018],[-58.88187511,-34.65182327],[-58.881888,-34.651737],[-58.88191613,-34.65146924],[-58.88191691,-34.65146099],[-58.8819237,-34.65138626],[-58.88194,-34.651209],[-58.8819799,-34.65100795],[-58.881991,-34.650952],[-58.8819396,-34.65087913],[-58.88190739,-34.65083348],[-58.8819,-34.650823],[-58.88183421,-34.65081659],[-58.881746,-34.650808],[-58.881613,-34.650816],[-58.881506,-34.65073],[-58.881447,-34.650632],[-58.881326,-34.650492],[-58.88126,-34.650354],[-58.881183,-34.649869],[-58.881263,-34.649741],[-58.881353,-34.649486],[-58.881332,-34.649308],[-58.881337,-34.648888],[-58.881408,-34.64878],[-58.88147693,-34.64855283],[-58.881479,-34.648546],[-58.88147748,-34.64853522],[-58.88147,-34.648482],[-58.88147955,-34.64846983],[-58.881521,-34.648417],[-58.881466,-34.648314],[-58.881449,-34.64823],[-58.88123393,-34.64809784],[-58.881187,-34.648069],[-58.881192,-34.64803],[-58.88125691,-34.64794204],[-58.881361,-34.647801],[-58.881358,-34.647711],[-58.881354,-34.647471],[-58.881391,-34.647353],[-58.881703,-34.647003],[-58.881629,-34.646795],[-58.881558,-34.646542],[-58.8815178,-34.6464055],[-58.881515,-34.646396],[-58.88154,-34.646318],[-58.88155415,-34.64630967],[-58.881647,-34.646255],[-58.88167,-34.646076],[-58.88168,-34.645887],[-58.88167953,-34.64582917],[-58.881678,-34.645642],[-58.881719,-34.645509],[-58.881828,-34.645332],[-58.88199349,-34.64513223],[-58.881997,-34.645128],[-58.882203,-34.644949],[-58.882338,-34.644671],[-58.88238587,-34.64450305],[-58.882395,-34.644471],[-58.882492,-34.644212],[-58.882619,-34.643943],[-58.88281,-34.643533],[-58.882965,-34.643131],[-58.88307,-34.64275],[-58.883051,-34.642565],[-58.88297433,-34.64246371],[-58.882886,-34.642347],[-58.88284132,-34.64230469],[-58.88262871,-34.64210338],[-58.882547,-34.642026],[-58.88239611,-34.6418554],[-58.882348,-34.641801],[-58.882276,-34.641663],[-58.882245,-34.6414],[-58.882167,-34.641158],[-58.88213625,-34.6410951],[-58.882123,-34.641068],[-58.882053,-34.640923],[-58.882007,-34.640826],[-58.882197,-34.640566],[-58.88219173,-34.64029805],[-58.882189,-34.640159],[-58.882144,-34.639889],[-58.882049,-34.639495],[-58.88214766,-34.63934507],[-58.882151,-34.63934],[-58.882212,-34.63927],[-58.88179953,-34.63672646],[-58.881726,-34.636273],[-58.88113,-34.63294],[-58.880958,-34.632179],[-58.881894,-34.630307],[-58.88142512,-34.62897795],[-58.881338,-34.628731],[-58.88162103,-34.62866363],[-58.884556,-34.627965],[-58.884309,-34.627195],[-58.88421962,-34.62716204],[-58.881171,-34.626038],[-58.88116537,-34.6260172],[-58.88101,-34.625443],[-58.88089653,-34.62538288],[-58.8801074,-34.62496476],[-58.879368,-34.624573],[-58.87396,-34.621835],[-58.871877,-34.620786],[-58.870337,-34.62001163],[-58.864113,-34.616882],[-58.86415733,-34.61681115],[-58.86425328,-34.61665779],[-58.864571,-34.61615],[-58.8649741,-34.61554469],[-58.86497412,-34.61554465],[-58.867009,-34.612489],[-58.8682383,-34.61056781],[-58.869317,-34.608882],[-58.870759,-34.606612],[-58.871653,-34.605168],[-58.872644,-34.603695],[-58.87304675,-34.60318684],[-58.873561,-34.602538],[-58.874613,-34.601258],[-58.875526,-34.600061],[-58.878295,-34.596356],[-58.880663,-34.593309],[-58.882927,-34.590393],[-58.885343,-34.587216],[-58.886885,-34.585221],[-58.887846,-34.583905],[-58.89004,-34.581035],[-58.890951,-34.579812],[-58.88846695,-34.57864658],[-58.885066,-34.577051],[-58.877826,-34.573023],[-58.87347854,-34.57067592],[-58.871895,-34.569821],[-58.868676,-34.567681],[-58.86844463,-34.56745995],[-58.867822,-34.567034],[-58.86759169,-34.56687668],[-58.866847,-34.566368],[-58.865871,-34.565701],[-58.864896,-34.565035],[-58.863921,-34.564368],[-58.863023,-34.563672],[-58.86240602,-34.56317443],[-58.860848,-34.562077],[-58.85599,-34.558141],[-58.853641,-34.555389],[-58.85016436,-34.55141077],[-58.850016,-34.551241],[-58.849102,-34.550243],[-58.84906751,-34.5502199],[-58.84890486,-34.550111],[-58.847501,-34.549171],[-58.846359,-34.547757],[-58.84673783,-34.54714571],[-58.846755,-34.547118],[-58.84676353,-34.54709164],[-58.846833,-34.546877],[-58.846778,-34.546748],[-58.846719,-34.546622],[-58.846655,-34.546496],[-58.846586,-34.546373],[-58.846512,-34.546251],[-58.846434,-34.546131],[-58.846352,-34.546014],[-58.846255,-34.5459],[-58.846153,-34.545789],[-58.846047,-34.545681],[-58.845937,-34.545575],[-58.845822,-34.545473],[-58.845704,-34.545374],[-58.845581,-34.545279],[-58.845455,-34.545186],[-58.845096,-34.544908],[-58.845053,-34.544881],[-58.845012,-34.544854],[-58.844971,-34.544825],[-58.844932,-34.544795],[-58.844894,-34.544764],[-58.844858,-34.544732],[-58.844823,-34.544699],[-58.844789,-34.544664],[-58.844757,-34.544629],[-58.844726,-34.544593],[-58.844696,-34.544556],[-58.844669,-34.544519],[-58.844643,-34.54448],[-58.844618,-34.544441],[-58.844595,-34.544401],[-58.844574,-34.544361],[-58.844555,-34.54432],[-58.844537,-34.544278],[-58.844511,-34.544222],[-58.844482,-34.544167],[-58.844451,-34.544112],[-58.844418,-34.544059],[-58.844383,-34.544006],[-58.844345,-34.543954],[-58.844306,-34.543904],[-58.844265,-34.543854],[-58.844221,-34.543806],[-58.844176,-34.543759],[-58.844129,-34.543713],[-58.84408,-34.543668],[-58.84403,-34.543625],[-58.843977,-34.543583],[-58.843927,-34.543546],[-58.843879,-34.543507],[-58.843832,-34.543467],[-58.843786,-34.543426],[-58.843743,-34.543384],[-58.843701,-34.54334],[-58.843661,-34.543296],[-58.843623,-34.54325],[-58.843587,-34.543203],[-58.843553,-34.543155],[-58.84352,-34.543106],[-58.84349,-34.543056],[-58.843462,-34.543006],[-58.843436,-34.542954],[-58.843412,-34.542902],[-58.84339,-34.54285],[-58.843371,-34.542796],[-58.843354,-34.542742],[-58.843353,-34.542712],[-58.843351,-34.542682],[-58.843347,-34.542652],[-58.843343,-34.542623],[-58.843337,-34.542593],[-58.84333,-34.542563],[-58.843321,-34.542534],[-58.843312,-34.542505],[-58.843301,-34.542476],[-58.843289,-34.542448],[-58.843276,-34.54242],[-58.843262,-34.542392],[-58.843246,-34.542365],[-58.84323,-34.542338],[-58.843212,-34.542312],[-58.843193,-34.542286],[-58.843173,-34.542261],[-58.843152,-34.542236],[-58.84313,-34.542212],[-58.843092,-34.54217],[-58.843055,-34.542128],[-58.84302,-34.542084],[-58.842986,-34.542039],[-58.842954,-34.541993],[-58.842924,-34.541947],[-58.842896,-34.5419],[-58.84287,-34.541852],[-58.842846,-34.541803],[-58.842823,-34.541754],[-58.842467,-34.54117],[-58.842171,-34.540564],[-58.841917,-34.540233],[-58.841671,-34.539899],[-58.841649,-34.539873],[-58.841627,-34.539847],[-58.841607,-34.539821],[-58.841588,-34.539794],[-58.84157,-34.539766],[-58.841553,-34.539738],[-58.841537,-34.539709],[-58.841522,-34.53968],[-58.841509,-34.53965],[-58.841497,-34.53962],[-58.841487,-34.53959],[-58.841477,-34.53956],[-58.841378,-34.539399],[-58.84119844,-34.53908087],[-58.841194,-34.539073],[-58.84119373,-34.53906717],[-58.841185,-34.538875],[-58.841118,-34.538679],[-58.84108,-34.538576],[-58.84105,-34.538161],[-58.840898,-34.537808],[-58.840826,-34.53763],[-58.840748,-34.537419],[-58.840584,-34.537088],[-58.840412,-34.536604],[-58.840382,-34.53625],[-58.840358,-34.536193],[-58.840291,-34.536031],[-58.840203,-34.535875],[-58.840184,-34.53572],[-58.840153,-34.535478],[-58.840065,-34.535282],[-58.840008,-34.534943],[-58.840004,-34.534838],[-58.83996,-34.534618],[-58.839906,-34.534379],[-58.839778,-34.533641],[-58.83977879,-34.53357864],[-58.839781,-34.533403],[-58.839818,-34.533212],[-58.83983493,-34.53314377],[-58.839852,-34.533075],[-58.839836,-34.532936],[-58.839757,-34.53283],[-58.839632,-34.532695],[-58.839494,-34.532603],[-58.839253,-34.5325],[-58.839068,-34.53246],[-58.838873,-34.532406],[-58.838505,-34.532268],[-58.838131,-34.532098],[-58.837911,-34.531924],[-58.837697,-34.531777],[-58.837559,-34.53166],[-58.837446,-34.531539],[-58.837351,-34.531407],[-58.83728,-34.531297],[-58.837245,-34.531201],[-58.837198,-34.5311],[-58.837169,-34.530995],[-58.837128,-34.530894],[-58.837062,-34.530803],[-58.836926,-34.530622],[-58.836816,-34.530496],[-58.836632,-34.530264],[-58.836358,-34.529916],[-58.8362423,-34.52984562],[-58.836021,-34.529482],[-58.83594563,-34.52937809],[-58.835815,-34.529198],[-58.835765,-34.52914],[-58.835716,-34.529081],[-58.83562872,-34.52905346],[-58.83553924,-34.52891548],[-58.835406,-34.52871],[-58.835018,-34.528413],[-58.83459,-34.527864],[-58.834176,-34.527165],[-58.83414138,-34.52713667],[-58.83386589,-34.52691125],[-58.832916,-34.526134],[-58.832901,-34.526003],[-58.832864,-34.525913],[-58.832773,-34.525799],[-58.832672,-34.525663],[-58.832581,-34.525554],[-58.832495,-34.525432],[-58.832351,-34.525241],[-58.832185,-34.525072],[-58.832153,-34.524991],[-58.832144,-34.524892],[-58.832015,-34.524755],[-58.83201429,-34.52475242],[-58.831973,-34.524602],[-58.831817,-34.524501],[-58.831762,-34.524505],[-58.831664,-34.5245],[-58.831556,-34.524431],[-58.83152,-34.524336],[-58.831451,-34.5242],[-58.831507,-34.524074],[-58.831449,-34.523957],[-58.831385,-34.523857],[-58.831338,-34.52373],[-58.831284,-34.523667],[-58.831144,-34.523575],[-58.831035,-34.523525],[-58.830781,-34.523405],[-58.83075316,-34.52339155],[-58.830543,-34.52329],[-58.830458,-34.523145],[-58.830352,-34.522932],[-58.830133,-34.522673],[-58.829994,-34.522474],[-58.829962,-34.522374],[-58.829948,-34.52223],[-58.829973,-34.521978],[-58.830025,-34.521802],[-58.83005316,-34.52178323],[-58.830151,-34.521718],[-58.83015218,-34.5216987],[-58.830133,-34.521679],[-58.83013501,-34.5216565],[-58.830144,-34.521556],[-58.830205,-34.521476],[-58.83023374,-34.52136966],[-58.830235,-34.521365],[-58.830212,-34.5213],[-58.830139,-34.521234],[-58.829997,-34.521136],[-58.829882,-34.521024],[-58.82984283,-34.52096448],[-58.829755,-34.520831],[-58.82975213,-34.52078544],[-58.829747,-34.520704],[-58.829768,-34.520547],[-58.829724,-34.520412],[-58.829623,-34.520292],[-58.829453,-34.520164],[-58.82937389,-34.52008175],[-58.829252,-34.519955],[-58.829102,-34.51975],[-58.82897667,-34.51964339],[-58.828928,-34.519602],[-58.828766,-34.519537],[-58.828743,-34.519528],[-58.82870389,-34.51947665],[-58.828628,-34.519377],[-58.82858,-34.519135],[-58.828479,-34.518781],[-58.82844683,-34.51867123],[-58.82841679,-34.51856869],[-58.828399,-34.518508],[-58.828333,-34.518254],[-58.828363,-34.518074],[-58.828398,-34.517901],[-58.828428,-34.517756],[-58.828374,-34.517602],[-58.82833091,-34.51756796],[-58.82828411,-34.517531],[-58.828255,-34.517508],[-58.82811426,-34.51743981],[-58.828083,-34.517412],[-58.82807388,-34.51741148],[-58.827892,-34.517244],[-58.82778894,-34.51718651],[-58.827787,-34.517121],[-58.8276482,-34.51704119],[-58.827587,-34.517006],[-58.82758826,-34.51698495],[-58.82759308,-34.51690437],[-58.827542,-34.516689],[-58.82754206,-34.51668426],[-58.827511,-34.516627],[-58.827481,-34.516419],[-58.82752053,-34.51627228],[-58.82749789,-34.5162023],[-58.82748,-34.516147],[-58.827306,-34.515934],[-58.82729071,-34.51590412],[-58.827129,-34.515588],[-58.82704,-34.515357],[-58.82695061,-34.51523148],[-58.826894,-34.515152],[-58.826684,-34.514947],[-58.826567,-34.51483055],[-58.826469,-34.514733],[-58.826468,-34.51473177],[-58.826318,-34.514548],[-58.82624386,-34.51437845],[-58.82621,-34.514301],[-58.82618347,-34.51418605],[-58.82617697,-34.51415787],[-58.826162,-34.514093],[-58.826139,-34.514025],[-58.826008,-34.513891],[-58.825952,-34.513865],[-58.825887,-34.513791],[-58.82585555,-34.51374946],[-58.825594,-34.513404],[-58.82555091,-34.51332554],[-58.82544664,-34.51313566],[-58.825432,-34.513109],[-58.825334,-34.512962],[-58.825302,-34.512906],[-58.82522753,-34.51281478],[-58.825182,-34.512759],[-58.825161,-34.512694],[-58.825152,-34.512529],[-58.82514404,-34.5124637],[-58.825142,-34.512447],[-58.824884,-34.511923],[-58.824819,-34.511874],[-58.824783,-34.511795],[-58.824776,-34.511694],[-58.82477676,-34.51167443],[-58.824784,-34.511489],[-58.82479089,-34.51142625],[-58.82479388,-34.51139907],[-58.824794,-34.511398],[-58.824813,-34.511255],[-58.824792,-34.511113],[-58.824757,-34.511019],[-58.824685,-34.510904],[-58.82465674,-34.51084805],[-58.824636,-34.510807],[-58.824614,-34.510765],[-58.824611,-34.510725],[-58.824618,-34.510676],[-58.824638,-34.510606],[-58.824684,-34.510546],[-58.82472,-34.510446],[-58.82474,-34.510388],[-58.824744,-34.510322],[-58.824736,-34.510262],[-58.82473588,-34.51026127],[-58.824726,-34.510201],[-58.824681,-34.510179],[-58.82465,-34.510156],[-58.824634,-34.510121],[-58.824646,-34.510071],[-58.82466311,-34.51004981],[-58.82468433,-34.51002354],[-58.824709,-34.509993],[-58.824727,-34.509909],[-58.824726,-34.509818],[-58.82471579,-34.50978201],[-58.824688,-34.509684],[-58.824604,-34.509454],[-58.8245695,-34.50936849],[-58.824533,-34.509278],[-58.824439,-34.509081],[-58.824344,-34.508964],[-58.824241,-34.50889],[-58.824202,-34.508824],[-58.824144,-34.508758],[-58.82406169,-34.50867991],[-58.824027,-34.508647],[-58.82394,-34.508563],[-58.823899,-34.508506],[-58.82386,-34.50844],[-58.82378923,-34.50838195],[-58.823771,-34.508367],[-58.82376566,-34.50836357],[-58.82371795,-34.50833295],[-58.82368386,-34.50831107],[-58.82356484,-34.50823467],[-58.82346914,-34.50833295],[-58.82287201,-34.50894619],[-58.82281853,-34.5090011],[-58.82280602,-34.50901395],[-58.82236,-34.509472],[-58.82213356,-34.50970422],[-58.82048091,-34.51139907],[-58.81995828,-34.51193504],[-58.81891129,-34.51300877],[-58.818052,-34.51389],[-58.8112816,-34.52084606],[-58.811087,-34.521046]]]]}}