{"type":"Feature","properties":{"slug":"moron-castelar","name":"Morón y Castelar","region":"oeste","sort":1},"geometry":{"type":"MultiPolygon","coordinates":[[[[-58.667381,-34.685988],[-58.66585884,-34.68723521],[-58.66573965,-34.68733287],[-58.66351089,-34.68915905],[-58.66303564,-34.68954845],[-58.66217024,-34.69025753],[-58.660793,-34.691386],[-58.66079543,-34.69139661],[-58.66079743,-34.69140537],[-58.661007,-34.692321],[-58.66100215,-34.69232185],[-58.661008,-34.692348],[-58.65927413,-34.69267904],[-58.6592466,-34.69268429],[-58.65855257,-34.69324895],[-58.6558805,-34.69542293],[-58.65571884,-34.69555445],[-58.65548611,-34.6957438],[-58.65539,-34.695822],[-58.654329,-34.696441],[-58.650096,-34.698984],[-58.64725284,-34.70071958],[-58.64513781,-34.70201067],[-58.64349576,-34.70301304],[-58.64232989,-34.70372473],[-58.64195904,-34.70394862],[-58.64103504,-34.70450643],[-58.64097431,-34.70454309],[-58.64066,-34.703768],[-58.63974613,-34.70152254],[-58.63937905,-34.70062058],[-58.63930427,-34.70063211],[-58.63868499,-34.7007506],[-58.638547,-34.700777],[-58.638094,-34.70038],[-58.637207,-34.699601],[-58.636301,-34.698785],[-58.635987,-34.698501],[-58.635637,-34.698198],[-58.634131,-34.696843],[-58.630809,-34.693816],[-58.628456,-34.69169],[-58.625844,-34.68934],[-58.62328338,-34.68691122],[-58.623125,-34.686761],[-58.62210152,-34.68583483],[-58.62210149,-34.68583479],[-58.62210145,-34.68583476],[-58.619391,-34.683382],[-58.618659,-34.682702],[-58.61727,-34.681443],[-58.615158,-34.679543],[-58.611023,-34.675773],[-58.60862361,-34.67355958],[-58.60862357,-34.67355955],[-58.60862353,-34.67355951],[-58.608262,-34.673226],[-58.604567,-34.669821],[-58.602201,-34.667664],[-58.60184913,-34.66735695],[-58.601675,-34.667205],[-58.600679,-34.666327],[-58.600204,-34.665922],[-58.598839,-34.664752],[-58.597429,-34.663426],[-58.596185,-34.662347],[-58.593959,-34.660454],[-58.59325,-34.659796],[-58.59013,-34.656927],[-58.587984906608625,-34.655],[-58.61,-34.655],[-58.61,-34.632],[-58.58,-34.632],[-58.58,-34.642872105554275],[-58.581876,-34.64317],[-58.577537,-34.642481],[-58.57026518,-34.64134565],[-58.570261,-34.641345],[-58.57028056,-34.64125608],[-58.57091638,-34.63836607],[-58.569714,-34.638368],[-58.568077,-34.638348],[-58.56638,-34.638267],[-58.565498,-34.638153],[-58.564377,-34.63799],[-58.56438467,-34.63788715],[-58.564318,-34.637873],[-58.564346,-34.637813],[-58.561718,-34.637279],[-58.56172721,-34.637258],[-58.56189497,-34.63687575],[-58.562059,-34.636502],[-58.56204138,-34.63649658],[-58.5620351,-34.63649465],[-58.56107029,-34.63619801],[-58.55965411,-34.63578517],[-58.558254,-34.635377],[-58.55617542,-34.63472469],[-58.55610707,-34.63470324],[-58.556117,-34.634695],[-58.557058,-34.633908],[-58.558526,-34.632705],[-58.55986093,-34.63152933],[-58.55997239,-34.63143117],[-58.560697,-34.630793],[-58.561819,-34.629877],[-58.562662,-34.629185],[-58.56448027,-34.62768391],[-58.56472,-34.627486],[-58.565417,-34.626928],[-58.565995,-34.626478],[-58.566712,-34.625903],[-58.570196,-34.627695],[-58.571122,-34.628178],[-58.571472,-34.628357],[-58.5722362,-34.62874353],[-58.57550876,-34.62425709],[-58.57604301,-34.62352467],[-58.576948,-34.622284],[-58.57792357,-34.62097507],[-58.579456,-34.618919],[-58.58160354,-34.61601062],[-58.58308699,-34.61400162],[-58.58335764,-34.61363507],[-58.583577,-34.613338],[-58.58487506,-34.61150364],[-58.5860115,-34.60989768],[-58.586755,-34.608847],[-58.58824156,-34.60684334],[-58.588799,-34.606092],[-58.58882398,-34.60610377],[-58.59121566,-34.60723086],[-58.59146208,-34.60734699],[-58.592765,-34.607961],[-58.59278838,-34.60794135],[-58.59357441,-34.60728065],[-58.59829,-34.603317],[-58.60022356,-34.6016902],[-58.6035635,-34.59888014],[-58.60510617,-34.59758222],[-58.608539,-34.594694],[-58.61155406,-34.59212247],[-58.61476291,-34.58938566],[-58.615398,-34.588844],[-58.61559095,-34.58880145],[-58.61602754,-34.58870518],[-58.61643192,-34.58861601],[-58.6165,-34.588601],[-58.61659839,-34.59016356],[-58.61665088,-34.59041531],[-58.616675,-34.590531],[-58.616873,-34.590716],[-58.61711869,-34.59263668],[-58.617158,-34.592944],[-58.617841,-34.595567],[-58.618035,-34.595968],[-58.61826519,-34.59616882],[-58.61851658,-34.59638813],[-58.61856378,-34.59651482],[-58.618831,-34.597232],[-58.619127,-34.598133],[-58.619013,-34.598784],[-58.619175,-34.59941],[-58.61916,-34.600261],[-58.619421,-34.601115],[-58.619718,-34.603898],[-58.619433,-34.604561],[-58.6190828,-34.60500987],[-58.618205,-34.606135],[-58.618353,-34.607583],[-58.618247,-34.607781],[-58.619173,-34.609904],[-58.618598,-34.611429],[-58.619576,-34.612489],[-58.61948034,-34.61294547],[-58.619054,-34.61498],[-58.619295,-34.617015],[-58.6187606,-34.61809691],[-58.618194,-34.619244],[-58.61823009,-34.61965029],[-58.61823219,-34.61967397],[-58.61830562,-34.62050068],[-58.61831,-34.62055],[-58.61842706,-34.62077076],[-58.618576,-34.621102],[-58.618363,-34.6211],[-58.618451,-34.621659],[-58.61850479,-34.62200275],[-58.61855286,-34.62265165],[-58.618636,-34.623774],[-58.61886735,-34.62397049],[-58.61897396,-34.62406103],[-58.619618,-34.624608],[-58.61959264,-34.6249173],[-58.61954226,-34.6255317],[-58.6195009,-34.626036],[-58.619495,-34.626108],[-58.619488,-34.626195],[-58.619604,-34.627501],[-58.61996272,-34.6287067],[-58.62,-34.628832],[-58.619749,-34.629056],[-58.61994,-34.629726],[-58.620123,-34.630386],[-58.6202,-34.630686],[-58.620232,-34.630826],[-58.620348,-34.631284],[-58.620379,-34.631419],[-58.62044825,-34.63149719],[-58.621068,-34.632197],[-58.621677,-34.632982],[-58.621808,-34.633151],[-58.62393533,-34.63303184],[-58.629181,-34.632738],[-58.6315588,-34.63255617],[-58.635471,-34.632257],[-58.63776152,-34.63211074],[-58.63879105,-34.632045],[-58.64150682,-34.63187159],[-58.649002,-34.631393],[-58.65222547,-34.63149799],[-58.652717,-34.631514],[-58.65327652,-34.6315853],[-58.653486,-34.631612],[-58.65349125,-34.63164732],[-58.65354966,-34.63204064],[-58.65355448,-34.63207304],[-58.65356204,-34.63212399],[-58.65362444,-34.63254409],[-58.65363659,-34.6326259],[-58.65371792,-34.63317403],[-58.65383393,-34.63345996],[-58.65410761,-34.63413504],[-58.65428713,-34.63457785],[-58.654423,-34.634913],[-58.65453455,-34.635255],[-58.655273,-34.637519],[-58.65547795,-34.63834528],[-58.65559274,-34.63880806],[-58.65611867,-34.64092844],[-58.656153,-34.641058],[-58.65619447,-34.64123402],[-58.65659082,-34.64283195],[-58.65659936,-34.64286641],[-58.65676337,-34.64352761],[-58.657992,-34.648481],[-58.660315,-34.657816],[-58.660438,-34.658319],[-58.66090533,-34.66019059],[-58.661842,-34.663716],[-58.66235118,-34.66597552],[-58.6624886,-34.66651476],[-58.662803,-34.667624],[-58.66346,-34.670205],[-58.663772,-34.67147],[-58.66400627,-34.67247015],[-58.66422494,-34.67332822],[-58.664703,-34.675153],[-58.66529746,-34.67744147],[-58.665315,-34.677509],[-58.66532522,-34.67755222],[-58.6659,-34.679982],[-58.66646,-34.682195],[-58.66670256,-34.68324297],[-58.66712786,-34.68496378],[-58.667245,-34.685363],[-58.66736493,-34.68591413],[-58.667381,-34.685988]]],[[[-58.58543912,-34.65262938],[-58.585,-34.652242047403504],[-58.585,-34.652242047403504],[-58.58543912,-34.65262938]]]]}}