{"type":"Feature","properties":{"slug":"nunez","name":"Núñez","region":"caba","sort":8},"geometry":{"type":"Polygon","coordinates":[[[-58.45462410795005,-34.5286039348028],[-58.45462410795005,-34.5286039348028],[-58.45458643803189,-34.52864942408376],[-58.45451663648301,-34.52873371458146],[-58.45445650990267,-34.52880632167484],[-58.45441037164092,-34.52886203677918],[-58.454374271949966,-34.52890562955893],[-58.454330930359774,-34.52895904427089],[-58.45429085780686,-34.52900843010605],[-58.45419404084997,-34.529127748044175],[-58.45404996228834,-34.52930531075897],[-58.45394297018414,-34.52934266233971],[-58.45381434702646,-34.529387565281475],[-58.45371036119518,-34.52942386708364],[-58.4535756185827,-34.52947090600232],[-58.453400247398044,-34.52952881270961],[-58.45324567343239,-34.52957985200114],[-58.45309667548796,-34.529629049883184],[-58.452992393914485,-34.52966348264864],[-58.4529234923975,-34.5296862331976],[-58.45281547183533,-34.529721900336455],[-58.45263489982296,-34.52978152284231],[-58.45254864352284,-34.52980843560354],[-58.45243743762305,-34.52984313275433],[-58.45226365819008,-34.52989735309879],[-58.45212570175306,-34.52994039620261],[-58.45203617334318,-34.529981549319594],[-58.45195093067193,-34.53002073233169],[-58.45188619828286,-34.53006715204006],[-58.4518629535772,-34.530095006686224],[-58.45182361944009,-34.53014214160227],[-58.451788892011734,-34.53019772314159],[-58.45174723145729,-34.530264401096],[-58.45169198036715,-34.53035283059303],[-58.451666079661024,-34.53042603794619],[-58.45167423154891,-34.53049809063946],[-58.451679009059305,-34.53054031791505],[-58.4516961663972,-34.53057844589412],[-58.45171998987577,-34.53063138767528],[-58.45176100391692,-34.53070468453357],[-58.451785329865984,-34.53074815776417],[-58.451804584773285,-34.53078256843216],[-58.45182898645528,-34.5308261769156],[-58.45185588236092,-34.53087424279169],[-58.45189445287498,-34.53093501260868],[-58.451930354231266,-34.53099157694033],[-58.45195730853435,-34.53103404469724],[-58.451989622417216,-34.53108495665615],[-58.45200657133322,-34.531111886736525],[-58.452042396022506,-34.53116880840965],[-58.452042396022506,-34.53116880840965],[-58.452085829974855,-34.53122202096595],[-58.45217174165336,-34.531327274699514],[-58.45218395518205,-34.531342238693284],[-58.45221590531485,-34.531381381805105],[-58.452236900669654,-34.53140710394276],[-58.45226234621152,-34.5314382781328],[-58.452270138277996,-34.531447824107545],[-58.45227020797639,-34.53144790974992],[-58.45228460615151,-34.53146555028425],[-58.45228614814824,-34.531467439426976],[-58.45228988581063,-34.531472018539866],[-58.45229971765324,-34.531484064369344],[-58.452302062354335,-34.53148693654504],[-58.45230274191465,-34.53148776953005],[-58.45230276696245,-34.53148780108246],[-58.45230451048155,-34.531490184627465],[-58.45234465609525,-34.53154509089403],[-58.4523854170589,-34.53160083823853],[-58.45249027586487,-34.531744250175976],[-58.4525333337802,-34.531803139165376],[-58.45257257253361,-34.53185680490296],[-58.452600653141246,-34.531895209297566],[-58.45263839565299,-34.53194682772865],[-58.45266871863728,-34.53198829897653],[-58.45268445079352,-34.53200981573848],[-58.452688117914214,-34.532014830656045],[-58.45269080094152,-34.53201849979057],[-58.452690991522225,-34.53201876032113],[-58.452694248818716,-34.53202321458257],[-58.45269858643595,-34.53202914728715],[-58.45269999237731,-34.53203107016494],[-58.45270038007303,-34.53203160024095],[-58.452700398586465,-34.53203162638408],[-58.452700646880366,-34.532032010415925],[-58.452708280733155,-34.532043805755784],[-58.45271213701013,-34.53204976422628],[-58.45272821078502,-34.53207460279111],[-58.4532190448707,-34.53283304563158],[-58.45413535224778,-34.53417828301314],[-58.454411986222304,-34.534521749150755],[-58.45451982873735,-34.53475162577327],[-58.45451982873736,-34.534751625773275],[-58.45451982873736,-34.534751625773275],[-58.45466751058878,-34.53494840272232],[-58.45475870659688,-34.53502610630136],[-58.45491245977915,-34.53515711125131],[-58.454898045136616,-34.53520481134496],[-58.45496648619892,-34.53527636720969],[-58.455099775614336,-34.535315133306355],[-58.45519539250042,-34.535369558244604],[-58.45519539250042,-34.535369558244604],[-58.45519539250043,-34.535369558244604],[-58.45525994850468,-34.535384826461595],[-58.45538905697449,-34.535453524019466],[-58.455437470728974,-34.535497412466135],[-58.455508796886846,-34.53554543271898],[-58.45554714865475,-34.53555983824157],[-58.455575192910885,-34.53557427333054],[-58.45560435100863,-34.53558928172986],[-58.45675392601345,-34.53617675071987],[-58.456880731227685,-34.536241629905476],[-58.45798446258171,-34.536748626282446],[-58.45798446258178,-34.53674862628242],[-58.45853187504567,-34.53700007290183],[-58.45854022021847,-34.53698660066455],[-58.45874338742616,-34.53708014625611],[-58.4587614408234,-34.53708845813013],[-58.45878365302069,-34.53709868479658],[-58.45878693060559,-34.537100193914675],[-58.45879214489592,-34.5371025946203],[-58.45879218628781,-34.537102613551916],[-58.45884718742898,-34.537127938593386],[-58.458717967963096,-34.53721685376504],[-58.45887403351801,-34.537343254676294],[-58.45920762752341,-34.53761344094141],[-58.45944479730046,-34.53780552914966],[-58.45828635090432,-34.538604380921726],[-58.457496490004765,-34.53901104663837],[-58.45474932991871,-34.54033260908041],[-58.45321757368411,-34.540799405708455],[-58.45306259299125,-34.540842281112646],[-58.45285561231659,-34.540896490086205],[-58.452641055825836,-34.54096154406855],[-58.452583778398854,-34.54097886276194],[-58.45234615583327,-34.54106046357546],[-58.45170894058859,-34.541325905101395],[-58.450051399013425,-34.54223347138216],[-58.44927718554516,-34.54265892258678],[-58.44940842392648,-34.542764350028364],[-58.44996708454129,-34.54354902230885],[-58.450425125247,-34.544141621620426],[-58.4507517078152,-34.54453544294681],[-58.4521263973128,-34.54629085569269],[-58.45217736495556,-34.54639121479827],[-58.4525546144379,-34.546880130361174],[-58.45284954102299,-34.54726235161876],[-58.45366571826496,-34.548319979434915],[-58.45382093380409,-34.54857373065386],[-58.45396344180229,-34.54877039673046],[-58.45412346169102,-34.54899122858818],[-58.454163356747124,-34.54920356072899],[-58.45415975850297,-34.549411029992044],[-58.454025182677995,-34.54952510662964],[-58.45339854137066,-34.55005667664728],[-58.45339553634792,-34.550059225647416],[-58.45300863878128,-34.5505104719913],[-58.45428017372657,-34.551171291749775],[-58.45546014848977,-34.551794345885675],[-58.455640680596616,-34.551889672713905],[-58.45574399543923,-34.551944226462446],[-58.45649204616874,-34.552332167348496],[-58.45727985135021,-34.552740739315766],[-58.4574076069801,-34.5528069438283],[-58.45759485684104,-34.55290392670583],[-58.45819022984604,-34.55321241052538],[-58.45853604903127,-34.55339158451287],[-58.458756751523055,-34.55350589147198],[-58.45947418838436,-34.553882050995625],[-58.46041165667683,-34.55437356759148],[-58.461355776534454,-34.554868526825445],[-58.46253491929363,-34.55548665259607],[-58.4628393912865,-34.55562039014813],[-58.463414628108495,-34.55592131323152],[-58.46373416935081,-34.55608849965775],[-58.4643438019598,-34.556407446792775],[-58.46527698639074,-34.556895614915156],[-58.46621954550503,-34.5573887055559],[-58.46718280151224,-34.557892634213985],[-58.467759772648776,-34.55819445250813],[-58.46822114891659,-34.55843401740545],[-58.46918578969931,-34.55893483100514],[-58.469651203254436,-34.55842712036059],[-58.4700699664083,-34.557950748666286],[-58.47087360351467,-34.557036526429535],[-58.471557463770345,-34.55616934890123],[-58.471851430394125,-34.55579650392062],[-58.472450927811735,-34.55502306220701],[-58.47274446085441,-34.55464443958179],[-58.47298511697805,-34.55432923057593],[-58.472985138764926,-34.554329201728464],[-58.47358759304927,-34.55354026114664],[-58.47443734115173,-34.55242741425036],[-58.47357428978319,-34.551950084689786],[-58.4727050335101,-34.551469227582494],[-58.471865069453564,-34.55100455998838],[-58.47100919687966,-34.55053115543397],[-58.47015895148508,-34.55006077242987],[-58.46930429013961,-34.549587989487215],[-58.46837465220388,-34.54908231498778],[-58.46819097058801,-34.54894654457668],[-58.46822756660625,-34.54890083789491],[-58.46851020332554,-34.54854616929439],[-58.46855471310996,-34.54849032108433],[-58.46866923346269,-34.54835354570761],[-58.46884951716631,-34.54812037010525],[-58.468977065615306,-34.547960334234205],[-58.469130617012354,-34.547767672422545],[-58.46940235214841,-34.54741708659196],[-58.46994113595287,-34.5467220421368],[-58.47043250710375,-34.54607263202276],[-58.47101416013939,-34.54528560539832],[-58.471538616104155,-34.544575976618454],[-58.472095485006015,-34.543823383683375],[-58.472693444859516,-34.54301536138047],[-58.47323752889332,-34.542280158943946],[-58.473787814837756,-34.54153650254515],[-58.47435749186781,-34.54076664442551],[-58.474928859632094,-34.53999459922243],[-58.4754205521294,-34.539343995530864],[-58.475453480201736,-34.53930042427003],[-58.47548818021474,-34.53925450910118],[-58.47554617176805,-34.53917777344715],[-58.47568128567383,-34.538998989720056],[-58.47576220017738,-34.53889192206709],[-58.47584686857838,-34.53877988618344],[-58.47590796773996,-34.53869903860281],[-58.475954554668476,-34.53863739298881],[-58.47588189411218,-34.53860530322075],[-58.47534075941196,-34.538366327873895],[-58.47526809934043,-34.5383342395209],[-58.47524704722116,-34.53832494240977],[-58.47470987902528,-34.538087713914194],[-58.47463783298964,-34.538055896087485],[-58.47463721946895,-34.538055625136025],[-58.474413819450085,-34.537956963815844],[-58.47432333376052,-34.537917001632884],[-58.47412610833158,-34.53782989946846],[-58.474081672260375,-34.537810274759615],[-58.47405344922897,-34.537797810332485],[-58.47340750533298,-34.53751253269246],[-58.4733348454958,-34.5374804425306],[-58.47331861757762,-34.537473275473566],[-58.47119857551182,-34.53653693416448],[-58.4711259181476,-34.536504843165496],[-58.47109662764746,-34.536491906241366],[-58.46801249295802,-34.53512965331996],[-58.46783784087111,-34.53505250635629],[-58.46759704447495,-34.53494614156313],[-58.467487966879474,-34.53489795929518],[-58.467404885480285,-34.53486126019419],[-58.46738656728926,-34.53485316858592],[-58.46738258861063,-34.534851411102345],[-58.46723055985096,-34.534784255785645],[-58.46722612757057,-34.53478229801749],[-58.467183862426864,-34.53476362800368],[-58.46691073217272,-34.534642978417345],[-58.46690909813351,-34.534642256611754],[-58.46690841072686,-34.53464195296301],[-58.46690790731062,-34.5346417305885],[-58.46690677668767,-34.53464123115737],[-58.46690558716508,-34.53464070570843],[-58.466905122016726,-34.53464050023805],[-58.46690342178642,-34.534639749193666],[-58.466902799723265,-34.53463947440913],[-58.46690237928667,-34.53463928868922],[-58.46690156334109,-34.53463892826075],[-58.466901100340735,-34.53463872373919],[-58.466900626600605,-34.53463851447347],[-58.466900056993296,-34.53463826286025],[-58.466899753055664,-34.53463812860155],[-58.46689924104773,-34.53463790243176],[-58.46689857986906,-34.53463761036864],[-58.46689830560753,-34.5346374892188],[-58.4668974320626,-34.5346371033469],[-58.46689735467918,-34.53463706916423],[-58.466896258876,-34.53463658511392],[-58.46689587111114,-34.534636413826156],[-58.46689503368616,-34.53463604390951],[-58.46689385835164,-34.534635524727705],[-58.46689354881792,-34.53463538799704],[-58.466892699352975,-34.53463501276195],[-58.466892299548164,-34.5346348361557],[-58.46689153605845,-34.534634498898555],[-58.466890382203445,-34.53463398920486],[-58.46688997810276,-34.53463381070101],[-58.466888406411655,-34.53463311643607],[-58.46688806205831,-34.53463296432446],[-58.466886957663455,-34.53463247647881],[-58.46688608496633,-34.53463209098129],[-58.46688497627562,-34.53463160123802],[-58.4668846366707,-34.53463145122391],[-58.466882826385614,-34.53463065156446],[-58.46688265443521,-34.5346305756086],[-58.46688163471537,-34.53463012516647],[-58.46688050409269,-34.53462962573509],[-58.4668800539801,-34.53462942690628],[-58.466879313270184,-34.53462909971156],[-58.46687868476338,-34.53462882208043],[-58.46687773253502,-34.53462840145135],[-58.46687679149888,-34.53462798576621],[-58.466876621696436,-34.53462791075915],[-58.46687636377083,-34.53462779682532],[-58.46687532771522,-34.53462733916711],[-58.46687446920612,-34.53462695993674],[-58.46687429940367,-34.53462688492968],[-58.46687345293459,-34.53462651101773],[-58.46687300542249,-34.53462631333758],[-58.466872151661825,-34.53462593620473],[-58.46687113194214,-34.53462548576255],[-58.46687061563846,-34.534625257695],[-58.46686983021694,-34.534624910749685],[-58.46686921934626,-34.53462464090887],[-58.46686829419356,-34.53462423223987],[-58.46686809516758,-34.53462414432386],[-58.466867956736614,-34.53462408317455],[-58.466866897901404,-34.53462361545375],[-58.46686598094531,-34.5346232104054],[-58.466865773722745,-34.534623118868666],[-58.4668656352918,-34.534623057719365],[-58.466864743263386,-34.53462266368233],[-58.46686365950056,-34.534622184950166],[-58.46686285559529,-34.53462182983989],[-58.46686242227116,-34.53462163842698],[-58.46686239474303,-34.53462162626697],[-58.466862068873574,-34.53462148232016],[-58.46686080326836,-34.534620923262445],[-58.46686053415055,-34.53462080438464],[-58.46686007245062,-34.53462060043723],[-58.46685974658118,-34.53462045649043],[-58.46685848097599,-34.534619897432705],[-58.46685764569929,-34.53461952846462],[-58.46685532425474,-34.534618503009256],[-58.46685274918055,-34.53461736551758],[-58.46685169678936,-34.53461690064311],[-58.46685042773612,-34.53461634006211],[-58.46684937534493,-34.5346158751876],[-58.46684753453673,-34.53461506204429],[-58.46684521224469,-34.53461403621428],[-58.46684317840201,-34.53461313780142],[-58.46684085741027,-34.534612112545666],[-58.46683973752784,-34.534611617858005],[-58.466837416536244,-34.534610592602185],[-58.46683413687287,-34.53460914387046],[-58.4668318154289,-34.53460811841463],[-58.46682946606165,-34.53460708062417],[-58.466827801500074,-34.53460634533415],[-58.46682771552491,-34.53460630735617],[-58.46682714461776,-34.53460605516826],[-58.46682548005621,-34.53460531987822],[-58.46682539408106,-34.53460528190023],[-58.466793632154065,-34.534591251634886],[-58.46679352854285,-34.534591205866484],[-58.46679343612387,-34.53459116504204],[-58.46679334240468,-34.53459112364324],[-58.466793212565634,-34.534591066289124],[-58.466793117998726,-34.534591024515834],[-58.46679303976769,-34.53459098995864],[-58.46679291897289,-34.53459093659969],[-58.46679275561443,-34.53459086443895],[-58.46679262792331,-34.534590808033656],[-58.46679250797627,-34.534590755049166],[-58.46679244263287,-34.53459072618488],[-58.46679238932946,-34.53459070263902],[-58.46679229001413,-34.53459065876822],[-58.46679223541049,-34.534590634648026],[-58.46679217351529,-34.5345906073069],[-58.46679208838785,-34.53459056970336],[-58.46679200670863,-34.53459053362298],[-58.46679192288146,-34.53459049659382],[-58.466791858838285,-34.534590468303854],[-58.466791748783244,-34.53459041968899],[-58.46679164217639,-34.53459037259729],[-58.46679153212136,-34.5345903239824],[-58.46679146547774,-34.534590294543754],[-58.466791352427045,-34.53459024460562],[-58.46679131071103,-34.5345902261783],[-58.46679123892381,-34.534590194467576],[-58.466791207099845,-34.53459018040989],[-58.46679112672084,-34.534590144903866],[-58.46679105708155,-34.534590114141935],[-58.4667910209617,-34.534590098186634],[-58.466790974102075,-34.53459007748725],[-58.466790883831074,-34.5345900376116],[-58.46679079655574,-34.53458999905928],[-58.466790710580604,-34.53458996108127],[-58.4667905975299,-34.5345899111431],[-58.466790551518024,-34.53458989081816],[-58.46679043417144,-34.53458983898238],[-58.46679035678812,-34.534589804799644],[-58.46679030693286,-34.53458978277694],[-58.46679026996527,-34.53458976644716],[-58.4667901869858,-34.53458972979242],[-58.46679015776229,-34.53458971688347],[-58.46679012164242,-34.534589700928144],[-58.466790058446975,-34.53458967301268],[-58.4667899638801,-34.534589631239434],[-58.46678991402483,-34.53458960921673],[-58.466789860721406,-34.53458958567087],[-58.46678976830246,-34.53458954484644],[-58.46678967887913,-34.53458950534528],[-58.466789601495805,-34.534589471162526],[-58.46678957012434,-34.534589457304754],[-58.46678953745265,-34.5345894428726],[-58.4667894600693,-34.534589408689875],[-58.46678942739762,-34.534589394257715],[-58.466789320790745,-34.53458934716602],[-58.466789221475445,-34.53458930329521],[-58.46678914409208,-34.53458926911247],[-58.466789031041415,-34.53458921917432],[-58.46678891753822,-34.534589169036266],[-58.46678881607496,-34.534589124216645],[-58.46678873439572,-34.534589088136265],[-58.46678865271648,-34.53458905205592],[-58.46678855340118,-34.5345890081851],[-58.46678847517015,-34.53458897362791],[-58.46678838060325,-34.534588931854614],[-58.46678822928474,-34.53458886501233],[-58.46678803540252,-34.53458877936826],[-58.466787947279464,-34.53458874044146],[-58.4667878359242,-34.53458869125222],[-58.46678772671688,-34.53458864301182],[-58.4667876385938,-34.534588604085],[-58.46678754617486,-34.53458856326055],[-58.46678747653557,-34.53458853249862],[-58.466787440415715,-34.53458851654328],[-58.466787344548564,-34.53458847419569],[-58.466787281353135,-34.534588446280196],[-58.466787248681435,-34.53458843184806],[-58.46678719407776,-34.53458840772786],[-58.4667871386264,-34.534588383233206],[-58.46678710250652,-34.53458836727788],[-58.46678702512318,-34.53458833309516],[-58.466786947739855,-34.53458829891241],[-58.46678690947202,-34.534588282008265],[-58.466786837684815,-34.534588250297546],[-58.46678667003049,-34.53458817623915],[-58.46678631064185,-34.53458801748552],[-58.4667859250254,-34.53458784714623],[-58.466785155092715,-34.534587507041934],[-58.466785104784925,-34.53458748481936],[-58.46678501666188,-34.534587445892555],[-58.46678495991029,-34.5345874208235],[-58.46678487263492,-34.53458738227114],[-58.46678478106368,-34.53458734182116],[-58.46678470368037,-34.534587307638404],[-58.46678462629703,-34.53458727345568],[-58.46678451624197,-34.53458722484078],[-58.466784348587645,-34.53458715078241],[-58.466784071725996,-34.534587028483614],[-58.46678398919905,-34.53458699202878],[-58.466783603582606,-34.534586821689444],[-58.46678277904626,-34.53458645746494],[-58.466781749435505,-34.53458600265238],[-58.46678170387615,-34.53458598252735],[-58.466779382433444,-34.53458495707052],[-58.46677854500947,-34.53458458715306],[-58.46677621712301,-34.53458355884974],[-58.466774939479,-34.534582994472686],[-58.46677388968912,-34.53458253074625],[-58.46677261718876,-34.53458196864129],[-58.4667700442648,-34.53458083209671],[-58.466767722822354,-34.53457980663964],[-58.46676448097673,-34.534578374610284],[-58.46676215998695,-34.53457734935303],[-58.46675767661759,-34.53457536890161],[-58.46675535432775,-34.534574343069856],[-58.466752436203706,-34.534573054038454],[-58.46675225650945,-34.534572974661586],[-58.466752054035545,-34.5345728852222],[-58.4667517883662,-34.534572767867296],[-58.46675147668504,-34.53457263018746],[-58.46675120457187,-34.5345725099861],[-58.46675070890058,-34.53457229103178],[-58.4667501143665,-34.5345720284065],[-58.466750079546884,-34.534572013025496],[-58.466749934672286,-34.534571949029626],[-58.466749733046086,-34.534571859964686],[-58.466749552051624,-34.53457178001346],[-58.46674946692426,-34.53457174240991],[-58.4667491565433,-34.5345716053044],[-58.46674902370864,-34.53457154662697],[-58.4667488831299,-34.53457148452869],[-58.46674838745861,-34.534571265574336],[-58.46674775810496,-34.534570987568046],[-58.46674737378891,-34.53457081780297],[-58.466747231909956,-34.53457075513035],[-58.46674670271927,-34.53457052136939],[-58.466745437963354,-34.53456996268494],[-58.46674505234705,-34.53456979234548],[-58.46674311652151,-34.534568937227434],[-58.46674295661132,-34.5345688665898],[-58.46674066914145,-34.53456785613873],[-58.46674063516954,-34.53456784113224],[-58.466738347699746,-34.53456683068116],[-58.46673739247713,-34.53456640872768],[-58.46673507103548,-34.53456538327001],[-58.46673305827939,-34.53456449416893],[-58.466730735990176,-34.53456346833673],[-58.46672762828065,-34.53456209555819],[-58.46672530683926,-34.53456107010031],[-58.466723686991116,-34.5345603545595],[-58.46672136554985,-34.53455932910159],[-58.4667153362695,-34.53455666576734],[-58.466715266630274,-34.534556635005366],[-58.46671517076323,-34.534556592657694],[-58.46671506630439,-34.53455654651474],[-58.46671491368579,-34.53455647909801],[-58.46671479159089,-34.53455642516464],[-58.46671399413071,-34.53455607289982],[-58.4667130148284,-34.53455564030927],[-58.46671294518918,-34.534555609547304],[-58.46671284932216,-34.53455556719963],[-58.4667127448633,-34.53455552105668],[-58.46671259224469,-34.53455545363991],[-58.466712470149815,-34.53455539970653],[-58.46671167268964,-34.53455504744172],[-58.46671099647666,-34.5345547487358],[-58.46670867503568,-34.53455372327766],[-58.46670714246309,-34.534553046289],[-58.46670482147474,-34.53455202103067],[-58.466684356351195,-34.534542980896674],[-58.46668203491089,-34.534541955438],[-58.46668020185001,-34.53454114571298],[-58.4666778795621,-34.53454011987975],[-58.46667034953647,-34.53453679361198],[-58.46666802809651,-34.534535768153034],[-58.4666653408246,-34.53453458109363],[-58.466663019384754,-34.534533555634596],[-58.46665413733036,-34.53452963212801],[-58.466651816343315,-34.53452860686868],[-58.46658182182516,-34.5344976878636],[-58.46657950038734,-34.534496662402944],[-58.46652243025487,-34.53447145249866],[-58.466504841575365,-34.53446368293768],[-58.46650252059248,-34.53446265767461],[-58.46642495233284,-34.5344283928965],[-58.466424270525984,-34.53442809171678],[-58.46642263135194,-34.53442736763194],[-58.46642194954508,-34.534427066452196],[-58.46631502439815,-34.53437983351653],[-58.466129219219404,-34.5342977560464],[-58.46612736638502,-34.5342969375742],[-58.4661255088023,-34.534296117004416],[-58.466123649524256,-34.53429529568567],[-58.4661217973657,-34.53429447751187],[-58.46589591798772,-34.5341946970678],[-58.46589587659566,-34.53419467813859],[-58.46498820757206,-34.53379371262462],[-58.46465897732669,-34.5336482735714],[-58.464650749944326,-34.53364463906756],[-58.464618648255,-34.533630457912885],[-58.46461861643168,-34.53363044385471],[-58.464612608360184,-34.53362778974397],[-58.4646125765369,-34.53362777568575],[-58.46459952521051,-34.53362201016261],[-58.46459348531694,-34.533619341992754],[-58.464565979514724,-34.53360719108514],[-58.46455993962327,-34.533604522913585],[-58.46450718839056,-34.53358121960425],[-58.46450114850288,-34.53357855142982],[-58.46445008590448,-34.533555994051035],[-58.46444404602042,-34.53355332587371],[-58.464381194282524,-34.533525560481635],[-58.46437515440289,-34.533522892300915],[-58.46430496459165,-34.53349188517498],[-58.46429892471685,-34.53348921699046],[-58.46424475199453,-34.533465285543215],[-58.46423871212359,-34.53346261735571],[-58.46417146454154,-34.533432909875124],[-58.464165425522985,-34.53343024205847],[-58.46414371167754,-34.53342064968558],[-58.464138582299135,-34.53341838371526],[-58.46413767265928,-34.53341798186983],[-58.46413254340721,-34.533415715703875],[-58.464115414276094,-34.53340814869226],[-58.464109374409965,-34.533405480503674],[-58.46380669635763,-34.53327176797607],[-58.46380442528942,-34.5332707646935],[-58.463803639891715,-34.53327041773084],[-58.46380065781139,-34.53326910034654],[-58.46379940383166,-34.53326854637978],[-58.46379838674334,-34.53326809706383],[-58.46379760134568,-34.53326775010111],[-58.46379757995269,-34.533267725528866],[-58.46378602532843,-34.53325445373433],[-58.463763875318875,-34.53322901192489],[-58.463240061564115,-34.53262734643898],[-58.463193789849925,-34.53257419703289],[-58.46315803816743,-34.53253313133614],[-58.463157797826916,-34.532532855271846],[-58.4631248432751,-34.53249500239257],[-58.46309501134738,-34.53246073623907],[-58.4629286187854,-34.53226961038939],[-58.46282697829458,-34.53215286108593],[-58.46267746439657,-34.531981121264955],[-58.46266521575382,-34.531967051744545],[-58.462516928657095,-34.53179671977932],[-58.46243299527214,-34.531700308766034],[-58.46234803577171,-34.53160271842059],[-58.4623444991484,-34.53159865600475],[-58.46234188591749,-34.53159565397674],[-58.462224183717034,-34.53146045251683],[-58.46222048480062,-34.531456203130475],[-58.46171348084343,-34.530873815257266],[-58.46168811487434,-34.53084467791323],[-58.46168811253868,-34.530844675233034],[-58.46168793745626,-34.53084447411636],[-58.46165144841936,-34.53080255923959],[-58.46146822166806,-34.53059208522831],[-58.46141990317229,-34.53053658200221],[-58.46139897975265,-34.53051254704475],[-58.461380287215185,-34.53049107471087],[-58.461374651921794,-34.53048460138146],[-58.46128531664229,-34.53038198070032],[-58.46127740189685,-34.53037288890647],[-58.4612604230485,-34.53035338509472],[-58.461201220404064,-34.53028537819939],[-58.46113489956333,-34.53020919436742],[-58.461123574701396,-34.53019618542188],[-58.461111156934784,-34.53018192104346],[-58.46110909442405,-34.53017955182185],[-58.46110629612942,-34.53017633739949],[-58.461102420986,-34.53017188599213],[-58.46110048978024,-34.53016966760086],[-58.461078052135846,-34.53014389329111],[-58.46107289342538,-34.53013796743443],[-58.46107289339617,-34.530137967393905],[-58.46107216913619,-34.53013696232353],[-58.46106641634161,-34.530128982964754],[-58.46106080837167,-34.530121204055405],[-58.461058063500815,-34.53011739659827],[-58.46105521859544,-34.530113449939016],[-58.46104853203726,-34.5301041753396],[-58.46104052398676,-34.530093067229856],[-58.461008671412735,-34.530048883921225],[-58.46100829085233,-34.530048356038364],[-58.46100419058744,-34.530042667577746],[-58.46100415885286,-34.53004261924944],[-58.46100413645382,-34.530042584501906],[-58.4610029883696,-34.53004080348161],[-58.461002367351504,-34.53003983974842],[-58.46099501014933,-34.53002842656776],[-58.46099430079503,-34.53002732646531],[-58.46099344850127,-34.5300260043035],[-58.46095339972667,-34.52996387665646],[-58.46094701481451,-34.52995397173515],[-58.460942958123916,-34.52994767858515],[-58.46094141729433,-34.529945288293696],[-58.46094115178739,-34.529944876229855],[-58.46094107663635,-34.52994475723926],[-58.460938469233476,-34.52994020224832],[-58.46093037259745,-34.52992605162283],[-58.46092974632957,-34.52992495703725],[-58.46092898444089,-34.52992362541478],[-58.460925634803836,-34.52991777074267],[-58.46091931048007,-34.52990671734517],[-58.46091619418701,-34.52990127071202],[-58.460914110542284,-34.52989762893327],[-58.4609074145871,-34.529885925466104],[-58.460896885613536,-34.52986752331749],[-58.46089009411027,-34.52985565316659],[-58.460888443127644,-34.52985276758794],[-58.46088595872744,-34.529848425366104],[-58.46088438718683,-34.52984567863527],[-58.46088371828435,-34.5298445095308],[-58.46088371352444,-34.52984450121144],[-58.46088369096864,-34.52984446088707],[-58.4608835341339,-34.52984414718532],[-58.46088344392294,-34.52984397052269],[-58.460883412562936,-34.52984390816133],[-58.46088015338376,-34.52983742707842],[-58.46088002277722,-34.52983716732056],[-58.46087883086836,-34.52983479717297],[-58.460875345011104,-34.52982786532469],[-58.46085951465475,-34.529796385641156],[-58.46083418024101,-34.52974600629301],[-58.46083371670561,-34.5297450847016],[-58.46083254456616,-34.529742753822624],[-58.46083218641905,-34.529742041622725],[-58.46083217804176,-34.529742024963895],[-58.460832169710855,-34.52974200749586],[-58.46083185604481,-34.52974128904745],[-58.46083098583948,-34.529739294158745],[-58.46082780234763,-34.52973199789605],[-58.46082275101958,-34.529720420690275],[-58.460786630789364,-34.52963763557556],[-58.46078662938173,-34.529637632349306],[-58.4607252230119,-34.52949583115594],[-58.46067914148118,-34.52940230582442],[-58.460656497442166,-34.52935634825589],[-58.46058058121881,-34.52921944325255],[-58.46049761486628,-34.529085369438526],[-58.46047483279979,-34.529052160517985],[-58.46040775088683,-34.52895437650033],[-58.460311158117165,-34.52882670601103],[-58.46005716276944,-34.528509709677046],[-58.45979966540014,-34.52819465528654],[-58.45973779589842,-34.52812252712436],[-58.45967282228746,-34.52805229274895],[-58.459665689636,-34.52804489357321],[-58.45966046282593,-34.528038982187425],[-58.459600169554186,-34.52797079199353],[-58.459569078939474,-34.527929401699524],[-58.45954159211803,-34.52789280902021],[-58.45950666937961,-34.52783738241708],[-58.45948626773928,-34.527775654338],[-58.459473171222676,-34.52771258244698],[-58.45946750286237,-34.5276487589919],[-58.459469315983235,-34.527584779822796],[-58.45947859420325,-34.52752124619481],[-58.459481183053526,-34.52749935316571],[-58.45947999578052,-34.52747737798796],[-58.459475567786384,-34.527458001372935],[-58.45947505632855,-34.52745576326602],[-58.45947280330948,-34.527450305131175],[-58.459466463794094,-34.52743494709911],[-58.45945439242615,-34.52741534955981],[-58.45929878847121,-34.52720641395445],[-58.45928628177357,-34.52719126454413],[-58.45928117017499,-34.52718507284339],[-58.45927323293041,-34.52717545869629],[-58.45925381320549,-34.52715193615235],[-58.45920406516786,-34.5271003788173],[-58.45915065851815,-34.52705277322109],[-58.459149870003515,-34.52705207007629],[-58.45914986089833,-34.52705206237599],[-58.45914982099364,-34.52705202680582],[-58.45914707643084,-34.527049919154535],[-58.45914077376622,-34.52704507910454],[-58.459133685813384,-34.52703963600155],[-58.45909955335853,-34.527013424402284],[-58.4590957907006,-34.52701053491376],[-58.45909340920845,-34.52700870559482],[-58.45909321534612,-34.527008556851634],[-58.45909142375338,-34.527007181202606],[-58.459091419966924,-34.52700717846027],[-58.45909138127794,-34.52700714874953],[-58.45907342618603,-34.52699528963099],[-58.45903168721234,-34.52696772152623],[-58.45903110178275,-34.5269673348533],[-58.45902906948683,-34.526965992547986],[-58.459029036813206,-34.52696597181387],[-58.459027113426615,-34.52696475300869],[-58.45902393210628,-34.52696273760315],[-58.45901933837979,-34.526959827106566],[-58.45901483096385,-34.52695697129433],[-58.459014730129056,-34.5269569074003],[-58.45901468765339,-34.526956880355804],[-58.45900461547078,-34.52695049875524],[-58.458974028844544,-34.52693111983818],[-58.45894574648887,-34.526913200651556],[-58.45894493955828,-34.52691268939474],[-58.4589084811176,-34.52688958996766],[-58.45890669947012,-34.52688846114655],[-58.45890666832796,-34.52688844141542],[-58.458906406325546,-34.52688827292223],[-58.45890523421922,-34.526887478939045],[-58.458904997314576,-34.52688731794618],[-58.45890119292735,-34.52688473260531],[-58.45890017797032,-34.52688404287266],[-58.45888791407185,-34.52687570871415],[-58.458886227192,-34.526874562294495],[-58.45884447122543,-34.5268461863028],[-58.458810063254674,-34.526822803686926],[-58.458809627825666,-34.526822507782434],[-58.458788918100254,-34.526808434068485],[-58.458787013215485,-34.52680713956498],[-58.458786725413496,-34.52680695235781],[-58.45878668648087,-34.52680692681461],[-58.45878216300995,-34.52680398464139],[-58.45877851059606,-34.52680160884755],[-58.458755436708074,-34.52678659991858],[-58.458739482287356,-34.526776222001374],[-58.45873937487618,-34.52677615213331],[-58.45873932631737,-34.526776120372226],[-58.45873141728932,-34.52677097593749],[-58.45871014704313,-34.5267571402098],[-58.45870815042106,-34.52675584146],[-58.4587081145093,-34.52675582159097],[-58.45870163007116,-34.526752233917534],[-58.45865248661623,-34.52672504368556],[-58.45864147932683,-34.5267189540212],[-58.45862666608477,-34.52671075821773],[-58.45862476200739,-34.526709704738195],[-58.45857468627978,-34.52668638903908],[-58.45855358887373,-34.52667656620268],[-58.45854547799756,-34.526672790079026],[-58.458539410788724,-34.52666996518126],[-58.45853851147222,-34.52666954645866],[-58.4585374077733,-34.52666903229385],[-58.45853739652444,-34.52666902733793],[-58.45853734133678,-34.52666900164251],[-58.45852382974242,-34.52666379691684],[-58.45851185685427,-34.52665918490583],[-58.45845869009198,-34.52663870480648],[-58.45844640355275,-34.52663397196617],[-58.45844620983953,-34.52663391033347],[-58.45844056267018,-34.52663211360411],[-58.458322811179286,-34.52659464917108],[-58.45819657844101,-34.52656156766544],[-58.45817465839811,-34.526557006548586],[-58.458068164926566,-34.52653484735144],[-58.45793803784771,-34.526514587400484],[-58.45780667095089,-34.5265008590417],[-58.45771268417221,-34.526496438656025],[-58.45761856629678,-34.5264980379644],[-58.457524879306106,-34.526505647077265],[-58.45743218082799,-34.52651922185218],[-58.457341026315426,-34.52653868028803],[-58.45725195924476,-34.52656390613018],[-58.457165512205165,-34.52659474887052],[-58.45704275156428,-34.5266275611294],[-58.45692250087635,-34.526666215585735],[-58.45680516311604,-34.526710583363176],[-58.456719458022626,-34.52674828843891],[-58.45671542363932,-34.52675033808102],[-58.456636738966154,-34.526790314187416],[-58.45655732507341,-34.52683650017718],[-58.45612550373653,-34.5271045546447],[-58.45599372500568,-34.527184920431694],[-58.45563903925433,-34.527401225566926],[-58.4556095990659,-34.52741479840078],[-58.455582730077616,-34.52743163457846],[-58.455558958383456,-34.52745140511188],[-58.455538748002105,-34.52747372421889],[-58.455444216038124,-34.527592970586106],[-58.45506710364767,-34.52806105641961],[-58.45504809203799,-34.52808465465768],[-58.45504763670929,-34.52808521802265],[-58.45492464877928,-34.52823673155437],[-58.45483914246702,-34.52834206894317],[-58.454766400495096,-34.52843168166163],[-58.45471403833556,-34.52849618725144],[-58.45468691660271,-34.52852959966505],[-58.454673544179606,-34.5285460733131],[-58.454654423435485,-34.52856962821146],[-58.45464292026506,-34.52858379972817],[-58.45463981135833,-34.52858762969703],[-58.45463930591585,-34.528588252551494],[-58.45463866757678,-34.52858903945735],[-58.4546377111576,-34.52859021756261],[-58.45463721878717,-34.52859082148787],[-58.45463697478617,-34.52859106666041],[-58.45462410795005,-34.52860393480279],[-58.45462410795005,-34.52860393480279],[-58.45462410795005,-34.5286039348028]]]}}