{"type":"Feature","properties":{"slug":"olivos-vicente-lopez","name":"Olivos y Vicente López","region":"norte","sort":0},"geometry":{"type":"MultiPolygon","coordinates":[[[[-58.47928522,-34.49439745],[-58.47935304,-34.49441886],[-58.4794168,-34.49441376],[-58.47944227,-34.49441172],[-58.4795315,-34.49441172],[-58.47952436,-34.49446883],[-58.4794851,-34.49448668],[-58.4794851,-34.49456877],[-58.47950651,-34.49464729],[-58.47950295,-34.49469726],[-58.47944227,-34.4947151],[-58.47941372,-34.49476507],[-58.47940301,-34.49480077],[-58.47942085,-34.49485787],[-58.47945655,-34.49488286],[-58.47951365,-34.49494353],[-58.47952079,-34.4949935],[-58.47956005,-34.49502562],[-58.47962787,-34.49506132],[-58.47964928,-34.4950863],[-58.47964928,-34.49510058],[-58.4796243,-34.49510415],[-58.47958504,-34.49509701],[-58.47949581,-34.49509344],[-58.47943513,-34.49510415],[-58.47942085,-34.49515055],[-58.4793923,-34.49520051],[-58.4793459,-34.49521122],[-58.47930902,-34.49521122],[-58.4792995,-34.49521122],[-58.4792531,-34.49522907],[-58.47921741,-34.49522193],[-58.47918172,-34.49521836],[-58.47913175,-34.49524691],[-58.47908892,-34.49525762],[-58.47903895,-34.49526119],[-58.47894615,-34.49526476],[-58.47887834,-34.49525405],[-58.47883194,-34.49523977],[-58.47875698,-34.49523977],[-58.47869631,-34.49526119],[-58.47866062,-34.4953183],[-58.47862849,-34.49535399],[-58.47858209,-34.4954111],[-58.4785464,-34.4954682],[-58.4785,-34.4955146],[-58.47843219,-34.49548605],[-58.47836794,-34.4954682],[-58.47834653,-34.4955146],[-58.47836437,-34.49557885],[-58.4783965,-34.4956074],[-58.4785,-34.49563239],[-58.47854997,-34.49566094],[-58.47859637,-34.49569306],[-58.47871415,-34.49573589],[-58.4788248,-34.49576802],[-58.47885335,-34.495793],[-58.47876055,-34.4958394],[-58.4786856,-34.49585725],[-58.47866775,-34.4958858],[-58.47863206,-34.49592863],[-58.47868203,-34.49595004],[-58.47873557,-34.49595718],[-58.47876412,-34.49596789],[-58.47876769,-34.4959786],[-58.47874985,-34.49600001],[-58.47872843,-34.49602857],[-58.47865705,-34.49603571],[-58.47859637,-34.49607497],[-58.4785,-34.49608924],[-58.47846788,-34.49610352],[-58.47846431,-34.49613207],[-58.47847502,-34.49615349],[-58.47853926,-34.4961642],[-58.47862492,-34.4961749],[-58.47872486,-34.49619989],[-58.47880338,-34.49623558],[-58.47887834,-34.49625343],[-58.47895686,-34.49627484],[-58.47901397,-34.49632838],[-58.47907107,-34.49634623],[-58.47909606,-34.49637835],[-58.47907107,-34.49641761],[-58.4790675,-34.49643545],[-58.4790211,-34.49646758],[-58.47898898,-34.49652825],[-58.478964,-34.49657822],[-58.47893901,-34.49660678],[-58.47890332,-34.49660678],[-58.47884621,-34.49659964],[-58.47879268,-34.49658893],[-58.47878554,-34.49661748],[-58.47882123,-34.49665318],[-58.47883849,-34.49668523],[-58.47884621,-34.49669958],[-58.47886406,-34.49674241],[-58.47891046,-34.4967888],[-58.47894972,-34.49685305],[-58.47898898,-34.49688874],[-58.47899969,-34.49692443],[-58.47899969,-34.4969637],[-58.47899255,-34.49701009],[-58.47898779,-34.497044],[-58.47899374,-34.49708564],[-58.47908892,-34.49715108],[-58.47923169,-34.49720462],[-58.47926738,-34.49727005],[-58.47920194,-34.49734143],[-58.47906512,-34.4972641],[-58.47899969,-34.4972522],[-58.47886882,-34.4972522],[-58.47882123,-34.497276],[-58.47875579,-34.4972879],[-58.47867251,-34.49724626],[-58.47859518,-34.49719272],[-58.47855354,-34.49712728],[-58.47844052,-34.49713323],[-58.47838103,-34.49715703],[-58.4782799,-34.49708564],[-58.47827412,-34.49708323],[-58.47820852,-34.4970559],[-58.47813119,-34.49707375],[-58.47793488,-34.49703805],[-58.4778516,-34.4970321],[-58.47777427,-34.49698452],[-58.47769693,-34.49691908],[-58.4776434,-34.49687744],[-58.47757796,-34.4968477],[-58.47745899,-34.49681795],[-58.47734002,-34.4968239],[-58.47723294,-34.49685959],[-58.47709017,-34.49690718],[-58.4769712,-34.49694882],[-58.47693551,-34.49699046],[-58.47685817,-34.49707375],[-58.47679869,-34.49714513],[-58.4767273,-34.4972522],[-58.47665592,-34.49737118],[-58.47658454,-34.49752584],[-58.476531,-34.49761507],[-58.47648936,-34.49771025],[-58.47647746,-34.49781138],[-58.47647151,-34.49791845],[-58.47647151,-34.49819209],[-58.47647746,-34.49829917],[-58.47648936,-34.49840029],[-58.47647746,-34.49845978],[-58.47646556,-34.49853711],[-58.47645367,-34.49863824],[-58.47648936,-34.49873937],[-58.47653695,-34.49879291],[-58.47660238,-34.49884049],[-58.47666187,-34.49890593],[-58.47675705,-34.49897731],[-58.47680781,-34.4990027],[-58.47686412,-34.49903085],[-58.47710802,-34.49910818],[-58.47723889,-34.49917362],[-58.47736527,-34.49927802],[-58.47737571,-34.49928664],[-58.4774114,-34.49936398],[-58.47745304,-34.49944131],[-58.47748278,-34.49951269],[-58.47747683,-34.49957813],[-58.47731622,-34.49955433],[-58.47729837,-34.49957813],[-58.47724484,-34.4996971],[-58.47722586,-34.49973295],[-58.4771913,-34.49979823],[-58.47714966,-34.499941],[-58.47712922,-34.50004831],[-58.47712586,-34.50006592],[-58.47712586,-34.50022653],[-58.47714371,-34.50032766],[-58.47715561,-34.50045853],[-58.47714966,-34.50055371],[-58.47709017,-34.50063699],[-58.47706638,-34.50076191],[-58.47704258,-34.50092252],[-58.47703663,-34.50108908],[-58.47703069,-34.50124375],[-58.47703663,-34.50137462],[-58.47699499,-34.50144006],[-58.47693551,-34.50149359],[-58.47690576,-34.50158282],[-58.47688197,-34.50168395],[-58.47687602,-34.50174344],[-58.47684628,-34.50183267],[-58.47681653,-34.50195759],[-58.47678084,-34.50212415],[-58.476763,-34.50224907],[-58.47674515,-34.50232046],[-58.47670946,-34.50243348],[-58.47667377,-34.50258815],[-58.47664402,-34.50272497],[-58.47660833,-34.50279635],[-58.47656669,-34.50286178],[-58.47657859,-34.50290937],[-58.47660833,-34.50298671],[-58.47665592,-34.50304024],[-58.47676894,-34.50307594],[-58.47681653,-34.50313542],[-58.47676894,-34.5032306],[-58.4767273,-34.50326629],[-58.47666187,-34.50324845],[-58.47657264,-34.50328414],[-58.47653695,-34.50329603],[-58.4765191,-34.50335552],[-58.47652505,-34.50340311],[-58.47658454,-34.50344475],[-58.47664997,-34.50349234],[-58.47665592,-34.50353398],[-58.47662618,-34.50360537],[-58.47657859,-34.50373029],[-58.47654884,-34.50380762],[-58.476531,-34.50383736],[-58.47637633,-34.50392064],[-58.47628115,-34.50395039],[-58.47618598,-34.50399203],[-58.4761027,-34.50404557],[-58.47600752,-34.50405746],[-58.4758469,-34.50405151],[-58.47575172,-34.50403367],[-58.4756268,-34.50402177],[-58.47548998,-34.50402772],[-58.4754067,-34.50408126],[-58.47531747,-34.50415859],[-58.47522824,-34.50430136],[-58.47513307,-34.50445602],[-58.47485943,-34.50493786],[-58.4747464,-34.50511037],[-58.47465122,-34.50531263],[-58.47483325,-34.50542863],[-58.47510927,-34.50558091],[-58.47519397,-34.50572491],[-58.47520445,-34.50574272],[-58.47530915,-34.50595211],[-58.47539481,-34.50614247],[-58.47542336,-34.5063233],[-58.47538886,-34.50641908],[-58.47544239,-34.50650236],[-58.47547832,-34.50653469],[-58.47550188,-34.5065559],[-58.47556137,-34.50666297],[-58.47554947,-34.506776],[-58.47552568,-34.50690092],[-58.47556732,-34.50700205],[-58.47562085,-34.50704964],[-58.47564465,-34.50716861],[-58.47558516,-34.50729948],[-58.47546619,-34.50735896],[-58.47531747,-34.50733517],[-58.47525204,-34.50739466],[-58.4751939,-34.50743535],[-58.47513307,-34.50747794],[-58.47504384,-34.50753743],[-58.47491296,-34.5076326],[-58.47478209,-34.50770399],[-58.47460363,-34.50776347],[-58.47449061,-34.50781701],[-58.47436569,-34.5078646],[-58.47433595,-34.50788839],[-58.47428836,-34.50790624],[-58.47421697,-34.50799547],[-58.47412179,-34.50806091],[-58.47408015,-34.50813824],[-58.47398022,-34.50846542],[-58.47396594,-34.50864387],[-58.4739588,-34.50878664],[-58.47392311,-34.50892941],[-58.47392311,-34.50902935],[-58.47396594,-34.50912928],[-58.47417295,-34.50922208],[-58.47433714,-34.50927919],[-58.47459412,-34.50937199],[-58.4746021,-34.50937571],[-58.47470119,-34.50942196],[-58.4747583,-34.50947907],[-58.47468692,-34.50960756],[-58.47451559,-34.50962897],[-58.474453,-34.5096197],[-58.47432286,-34.50960042],[-58.47420864,-34.50958614],[-58.47403732,-34.50957186],[-58.47383031,-34.50955759],[-58.47361616,-34.50955045],[-58.47341628,-34.50955045],[-58.47328779,-34.50959328],[-58.47318786,-34.50966466],[-58.47310933,-34.50984312],[-58.47312361,-34.50991451],[-58.47316644,-34.51002158],[-58.47316644,-34.5101001],[-58.47308792,-34.51005727],[-58.47303081,-34.51002158],[-58.47295943,-34.50991451],[-58.47290946,-34.50982885],[-58.47288804,-34.50973605],[-58.47287377,-34.5096718],[-58.4728238,-34.50965039],[-58.47270958,-34.50962183],[-58.47259537,-34.50962183],[-58.47240977,-34.50963611],[-58.47228842,-34.50973605],[-58.4722099,-34.50980743],[-58.47210282,-34.50978601],[-58.47194578,-34.50982885],[-58.47186012,-34.50990023],[-58.47177515,-34.51005953],[-58.4717459,-34.51011438],[-58.47167452,-34.51025715],[-58.47163169,-34.51034995],[-58.47156744,-34.51040706],[-58.47153175,-34.51044275],[-58.47148178,-34.51054268],[-58.47143895,-34.51064976],[-58.47140326,-34.5107497],[-58.47137471,-34.51079967],[-58.4713176,-34.5108425],[-58.47128191,-34.51085677],[-58.47112486,-34.51091388],[-58.47103563,-34.51103464],[-58.47086431,-34.51117741],[-58.47080065,-34.51122234],[-58.47070251,-34.51129162],[-58.47059606,-34.51137608],[-58.47058948,-34.51137788],[-58.47047527,-34.51144212],[-58.47044672,-34.51148495],[-58.47038961,-34.51162058],[-58.47037758,-34.511777],[-58.47037533,-34.51180618],[-58.47037533,-34.51199178],[-58.4703731,-34.51199869],[-58.47030395,-34.51221307],[-58.4702754,-34.51237725],[-58.47022543,-34.51247719],[-58.47011835,-34.51256285],[-58.47003269,-34.51260568],[-58.46993275,-34.51264851],[-58.46977571,-34.51269848],[-58.46964722,-34.51271275],[-58.46942593,-34.51276986],[-58.46926888,-34.51276272],[-58.46914753,-34.51276272],[-58.46897621,-34.51280555],[-58.46881916,-34.5128698],[-58.46869067,-34.51293404],[-58.46859788,-34.51301257],[-58.46848366,-34.51316961],[-58.46841228,-34.51332665],[-58.46836945,-34.51344801],[-58.46834803,-34.5135765],[-58.46834089,-34.5136693],[-58.46836945,-34.51380492],[-58.46836231,-34.51388345],[-58.46837659,-34.51395483],[-58.46836945,-34.51401194],[-58.46835517,-34.51407618],[-58.46841942,-34.51416184],[-58.46846938,-34.51421895],[-58.4684908,-34.51430461],[-58.46853363,-34.51439027],[-58.46857646,-34.51446166],[-58.46861215,-34.51451876],[-58.46861929,-34.5146187],[-58.46863357,-34.51469009],[-58.46870495,-34.51477574],[-58.46879775,-34.51483285],[-58.46888646,-34.51486833],[-58.46890483,-34.51487568],[-58.46891196,-34.51488996],[-58.46896193,-34.5149899],[-58.46896907,-34.51516122],[-58.4689191,-34.5153254],[-58.468862,-34.51546103],[-58.46881203,-34.51555383],[-58.46880149,-34.51557021],[-58.46874778,-34.51565377],[-58.46865498,-34.51581081],[-58.46856218,-34.51591789],[-58.46851221,-34.51603924],[-58.4684908,-34.51613918],[-58.46849794,-34.51625339],[-58.46851221,-34.51633191],[-58.46855505,-34.5164604],[-58.46860501,-34.51658176],[-58.46862643,-34.51663886],[-58.46869781,-34.51670311],[-58.46875492,-34.51676735],[-58.46884772,-34.51685302],[-58.46891196,-34.51690298],[-58.46901904,-34.51695295],[-58.46917608,-34.51698864],[-58.46933313,-34.5170172],[-58.46948303,-34.51703147],[-58.46955442,-34.51704575],[-58.46961153,-34.5170743],[-58.46966863,-34.51721707],[-58.46973288,-34.51750261],[-58.46978999,-34.5177239],[-58.46978999,-34.51798802],[-58.46980426,-34.51808796],[-58.46976857,-34.51828783],[-58.4697186,-34.51838777],[-58.46964008,-34.5184306],[-58.46949731,-34.51845915],[-58.46942593,-34.51845915],[-58.46939024,-34.5184877],[-58.46943307,-34.51854481],[-58.46945448,-34.51859478],[-58.46944734,-34.5186162],[-58.46923319,-34.51875182],[-58.46911898,-34.51890887],[-58.46899762,-34.51906591],[-58.468862,-34.5192872],[-58.46869067,-34.51955846],[-58.46861929,-34.51964412],[-58.46849794,-34.51976547],[-58.46843369,-34.51985827],[-58.468398,-34.51990824],[-58.46837659,-34.51994393],[-58.46835517,-34.5200296],[-58.46832662,-34.52010812],[-58.46831948,-34.52021519],[-58.46839086,-34.52037224],[-58.46845511,-34.52047931],[-58.46851221,-34.52062208],[-58.46854077,-34.52075771],[-58.46853363,-34.52085765],[-58.4684908,-34.5208862],[-58.46841228,-34.52087906],[-58.46836231,-34.52091476],[-58.46838372,-34.52099328],[-58.46839086,-34.52111463],[-58.46832662,-34.52113604],[-58.46817671,-34.52121457],[-58.46817671,-34.52127881],[-58.46824096,-34.52136447],[-58.46831948,-34.52144299],[-58.46842411,-34.52150839],[-58.46843369,-34.52151438],[-58.46841942,-34.52158576],[-58.46836231,-34.52163573],[-58.46829092,-34.52171425],[-58.46820526,-34.52178564],[-58.46816243,-34.52193554],[-58.46810533,-34.52206403],[-58.46804822,-34.52218539],[-58.46796256,-34.52233529],[-58.46789831,-34.52249234],[-58.46782693,-34.52255658],[-58.46779124,-34.52265652],[-58.46777696,-34.52282784],[-58.46772699,-34.52294205],[-58.46766275,-34.52296347],[-58.46747001,-34.52312052],[-58.4674129,-34.52322045],[-58.46734152,-34.52325614],[-58.46723444,-34.52326328],[-58.46712737,-34.5232847],[-58.46699888,-34.52332039],[-58.46685611,-34.52335608],[-58.46672048,-34.52340605],[-58.4665563,-34.52349171],[-58.46643495,-34.52357737],[-58.46635642,-34.52364875],[-58.46624221,-34.52373442],[-58.46612799,-34.52384149],[-58.46604947,-34.52394143],[-58.46596381,-34.5240842],[-58.46589957,-34.52416986],[-58.46580677,-34.52424124],[-58.46577108,-34.52429835],[-58.46568542,-34.52438401],[-58.46563545,-34.52446967],[-58.46559975,-34.52448395],[-58.46558548,-34.52442684],[-58.46544715,-34.52443342],[-58.46543557,-34.52443398],[-58.46537846,-34.52446967],[-58.4652928,-34.52446967],[-58.46517145,-34.52449108],[-58.46500727,-34.52455533],[-58.46499374,-34.52456209],[-58.46492161,-34.52459816],[-58.46481453,-34.52469096],[-58.46475743,-34.52475521],[-58.46469318,-34.52486228],[-58.46465788,-34.52492405],[-58.46463607,-34.52496222],[-58.46460038,-34.5250336],[-58.46455755,-34.52510499],[-58.464529,-34.52517637],[-58.46447189,-34.52529058],[-58.46440764,-34.52541194],[-58.46432198,-34.52551901],[-58.46420777,-34.52561181],[-58.46412925,-34.52569033],[-58.46408576,-34.52575122],[-58.46405786,-34.52579027],[-58.46398648,-34.52587593],[-58.46389368,-34.52596873],[-58.46380088,-34.52607581],[-58.46366525,-34.52617574],[-58.46355818,-34.52624713],[-58.4634511,-34.52628282],[-58.46336544,-34.52633993],[-58.46322981,-34.52638989],[-58.46316557,-34.52642559],[-58.46303707,-34.52648269],[-58.46296569,-34.52651125],[-58.4628372,-34.52657549],[-58.4627444,-34.52661832],[-58.46263019,-34.52671112],[-58.46253739,-34.52683247],[-58.46253025,-34.52686817],[-58.4625017,-34.52695383],[-58.462466,-34.52709659],[-58.462466,-34.52717512],[-58.46245887,-34.52726792],[-58.46242317,-34.52732502],[-58.46234465,-34.52741782],[-58.46228754,-34.52742496],[-58.46226084,-34.52741542],[-58.46218761,-34.52738927],[-58.46211622,-34.52737499],[-58.46210909,-34.52731075],[-58.46218047,-34.52723936],[-58.46223758,-34.52712515],[-58.46223758,-34.52701807],[-58.46220902,-34.526911],[-58.46215192,-34.52681106],[-58.46204484,-34.52675395],[-58.46191635,-34.52669684],[-58.46178786,-34.52663974],[-58.46165937,-34.52661118],[-58.46148091,-34.52660405],[-58.46130245,-34.52656122],[-58.46113827,-34.52656122],[-58.46109224,-34.52655879],[-58.46100264,-34.52655408],[-58.4609027,-34.52655408],[-58.46075993,-34.52658263],[-58.46063719,-34.52658263],[-58.46056719,-34.52658263],[-58.4603459,-34.52662546],[-58.46021028,-34.52666115],[-58.46001754,-34.5267254],[-58.45994616,-34.52678251],[-58.45990332,-34.52681106],[-58.45980361,-34.52694575],[-58.45973649,-34.52703641],[-58.45964979,-34.52707976],[-58.45962957,-34.5272459],[-58.45961065,-34.52742496],[-58.45960506,-34.52746811],[-58.45959386,-34.52755442],[-58.4595759,-34.52769294],[-58.46025088,-34.52866659],[-58.46348608,-34.53333328],[-58.46353159,-34.53339892],[-58.47586598,-34.53871887],[-58.49914739,-34.54876037],[-58.50077015,-34.54946028],[-58.50995803,-34.56920183],[-58.50995804,-34.56920186],[-58.50995973,-34.56920514],[-58.51013482,-34.56895737],[-58.5105486,-34.56837182],[-58.510817,-34.567992],[-58.51217352,-34.5667892],[-58.513182,-34.565895],[-58.514328,-34.564417],[-58.51600943,-34.56210003],[-58.516852,-34.560939],[-58.51831344,-34.55901138],[-58.519106,-34.557966],[-58.520722,-34.555713],[-58.520983,-34.555385],[-58.522797,-34.553072],[-58.524613,-34.55044],[-58.52580656,-34.54712786],[-58.525933,-34.546777],[-58.526614,-34.545029],[-58.526691,-34.544985],[-58.529017,-34.542373],[-58.52897768,-34.54235397],[-58.527575,-34.541675],[-58.52873993,-34.53932813],[-58.528876,-34.539054],[-58.52922345,-34.5384141],[-58.52980789,-34.53733772],[-58.529811,-34.537332],[-58.533597,-34.539701],[-58.535354,-34.541563],[-58.5377667,-34.54414867],[-58.537781,-34.544164],[-58.542637,-34.539923],[-58.54445,-34.538303],[-58.54582,-34.537093],[-58.548805,-34.534481],[-58.553764,-34.530205],[-58.55375961,-34.53020121],[-58.55211333,-34.5287816],[-58.55193973,-34.52863191],[-58.55193966,-34.52863185],[-58.5519396,-34.52863179],[-58.546857,-34.524249],[-58.5466626,-34.52410666],[-58.54589,-34.523541],[-58.54585,-34.52343],[-58.54524614,-34.5229112],[-58.54280002,-34.52080961],[-58.540653,-34.518965],[-58.53869,-34.517247],[-58.538531,-34.517365],[-58.537116,-34.518527],[-58.534317,-34.516498],[-58.533063,-34.515605],[-58.532151,-34.515002],[-58.53212457,-34.51498672],[-58.53056,-34.514082],[-58.53123,-34.513086],[-58.526278,-34.510762],[-58.524662,-34.510034],[-58.52103615,-34.50838062],[-58.519969,-34.507894],[-58.51843154,-34.50721874],[-58.515791,-34.506059],[-58.514166,-34.50531],[-58.51219281,-34.50440786],[-58.51219276,-34.50440783],[-58.51219271,-34.50440781],[-58.50718,-34.502116],[-58.50213989,-34.49981935],[-58.49879709,-34.49829612],[-58.497603,-34.497752],[-58.495187,-34.496637],[-58.49364881,-34.49594364],[-58.49364879,-34.49594363],[-58.49364876,-34.49594362],[-58.491003,-34.494751],[-58.48837338,-34.49357257],[-58.487272,-34.493079],[-58.48661657,-34.49277548],[-58.48650977,-34.49272602],[-58.484387,-34.491743],[-58.481375,-34.490519],[-58.481115,-34.490438],[-58.48104542,-34.49041054],[-58.47939957,-34.48976107],[-58.47936732,-34.48979735],[-58.47932449,-34.48982591],[-58.47926738,-34.48988301],[-58.47923407,-34.48994488],[-58.47920551,-34.4900115],[-58.47915792,-34.49009241],[-58.47906512,-34.49023279],[-58.47894615,-34.49048264],[-58.47891046,-34.4906373],[-58.47886882,-34.49076817],[-58.47883908,-34.4908931],[-58.47881528,-34.49100017],[-58.47877959,-34.49115484],[-58.47877364,-34.49129165],[-58.47880338,-34.49144632],[-58.47882123,-34.49165452],[-58.47881528,-34.49189842],[-58.47877959,-34.49198765],[-58.478732,-34.49215421],[-58.47867251,-34.49226723],[-58.47862492,-34.49240405],[-58.47854164,-34.49252897],[-58.47850595,-34.492642],[-58.4785,-34.49274908],[-58.4785,-34.49290374],[-58.47850595,-34.49304056],[-58.47854164,-34.49314763],[-58.47858923,-34.49323686],[-58.47872605,-34.49334989],[-58.47882718,-34.49341532],[-58.47894615,-34.49345102],[-58.47903538,-34.49345696],[-58.47909963,-34.49346946],[-58.47912104,-34.49351942],[-58.4791496,-34.49356225],[-58.47919599,-34.49359438],[-58.47922098,-34.49363721],[-58.47923169,-34.49368004],[-58.47927095,-34.49371573],[-58.47932092,-34.49372644],[-58.47937802,-34.49374785],[-58.47938159,-34.49378354],[-58.47939944,-34.49382995],[-58.47945298,-34.49384779],[-58.47946368,-34.49386921],[-58.47944227,-34.49390847],[-58.47941015,-34.49393345],[-58.47938516,-34.49394773],[-58.47930307,-34.49395844],[-58.47927809,-34.49397985],[-58.47924596,-34.4940084],[-58.47922455,-34.49401554],[-58.47917101,-34.49404053],[-58.47916387,-34.49406908],[-58.47919243,-34.4941012],[-58.47926024,-34.49415117],[-58.47928166,-34.49420828],[-58.47924596,-34.49422613],[-58.47919599,-34.49422969],[-58.47915673,-34.49426182],[-58.47917815,-34.49428323],[-58.47923169,-34.49434391],[-58.47928522,-34.49439745]]]]}}