{"type":"Feature","properties":{"slug":"once-abasto","name":"Once y Abasto","region":"caba","sort":17},"geometry":{"type":"Polygon","coordinates":[[[-58.39293533370779,-34.599642149302134],[-58.39277006293219,-34.60081207200118],[-58.39275189990416,-34.600940372632536],[-58.39259677331877,-34.60199170783177],[-58.392577414768674,-34.602122824662686],[-58.392391551116624,-34.603160338101695],[-58.392290813782616,-34.6044410023412],[-58.392210115485604,-34.60549111142756],[-58.39219839523505,-34.60565195243636],[-58.392126431371004,-34.60664460073984],[-58.39211659499741,-34.60679354044274],[-58.39204678205647,-34.607856683600275],[-58.39203798016522,-34.60799139944647],[-58.391965082244596,-34.60917411943598],[-58.391956407021986,-34.609292982933326],[-58.39195611909355,-34.60929693279127],[-58.391879586730795,-34.61034528277381],[-58.3918638388611,-34.6105608663448],[-58.39181098256765,-34.61128469148097],[-58.39179912519944,-34.61150440579574],[-58.3917900359257,-34.61167327619789],[-58.391789982643,-34.611675655916876],[-58.391789969242225,-34.611676026392864],[-58.39177087777308,-34.612460247401856],[-58.39176124486188,-34.612667849687355],[-58.39175369652899,-34.612829679062045],[-58.391714678442646,-34.61382973960693],[-58.39170492384749,-34.61407966615076],[-58.39168906858453,-34.61466446758074],[-58.39168892065374,-34.61466992378218],[-58.391688122333285,-34.61469938262313],[-58.39168120206098,-34.614921705705505],[-58.391673053569946,-34.615185225656745],[-58.39166476202498,-34.61551621048598],[-58.391663066969635,-34.615704873979745],[-58.391661844321035,-34.61583987531691],[-58.39167960226741,-34.616883349505414],[-58.39170141710722,-34.61816380098751],[-58.392032338931855,-34.618180543922506],[-58.39229765796183,-34.61819356279188],[-58.39300696497007,-34.61822836362196],[-58.393203218528434,-34.618238758139064],[-58.39450024868797,-34.618307385132034],[-58.39599396050404,-34.618386387698486],[-58.39751868015059,-34.61846700945269],[-58.398966997426044,-34.61854355786203],[-58.39924698473674,-34.61855835326176],[-58.400043327989216,-34.618608205344714],[-58.40029801544886,-34.6186241119852],[-58.40098421952514,-34.618672000803144],[-58.40225058111476,-34.6187604592109],[-58.403516778194955,-34.61884488946978],[-58.405038965710126,-34.61915915136865],[-58.406390991105255,-34.61943775039714],[-58.40778407763489,-34.61972480483476],[-58.40925570475488,-34.62002807487939],[-58.41008265891352,-34.620198439824435],[-58.41052275305638,-34.62028912541239],[-58.41081541807443,-34.62034087236108],[-58.41254739310853,-34.62064696103565],[-58.412638844488875,-34.61958776094854],[-58.412645603703076,-34.6193992399821],[-58.41268580750058,-34.618282059770266],[-58.41269112892961,-34.618074594829125],[-58.412757593806994,-34.616634322097866],[-58.412819897803075,-34.61544820627127],[-58.412873597839415,-34.614121027871846],[-58.413119844989794,-34.6134212612445],[-58.413317540373455,-34.612859574479046],[-58.41343889221667,-34.61261926847279],[-58.41356476245129,-34.61236994997255],[-58.414017790772796,-34.611555334311454],[-58.41447055478863,-34.61074128013696],[-58.41458650658843,-34.609381307705945],[-58.414625570387905,-34.60885117504709],[-58.414663514494634,-34.608194983540926],[-58.41410247688072,-34.607911937702106],[-58.41394055373985,-34.607351019713896],[-58.413911824862225,-34.60725128835602],[-58.41364846424978,-34.60612179871024],[-58.413415948173025,-34.605124083507015],[-58.4132324395128,-34.60433676974184],[-58.41322556735862,-34.60430730485336],[-58.413187089766375,-34.60414256684925],[-58.4129763305343,-34.603239579934666],[-58.41280762356229,-34.602516752814715],[-58.41259525892396,-34.601606932460776],[-58.412303652383585,-34.600357213455844],[-58.412282592406584,-34.60024861210603],[-58.41225771747433,-34.60011979746261],[-58.412127747539294,-34.59930127940675],[-58.41192253140976,-34.5980082151563],[-58.41029791226502,-34.59809787350611],[-58.409432614713864,-34.59809355414187],[-58.4094318952652,-34.598093550547986],[-58.40910363171661,-34.5980889556707],[-58.40872602716091,-34.598083669048606],[-58.408725306637606,-34.59808365895985],[-58.40858129188742,-34.59808125972506],[-58.40858057246066,-34.598081247739216],[-58.40815254739098,-34.59807411765968],[-58.40815182687461,-34.59807410565598],[-58.40806131492753,-34.5980727286106],[-58.40806059549537,-34.59807271766492],[-58.40663087515758,-34.598050954173594],[-58.406630154636126,-34.59805094320145],[-58.40588687665585,-34.598047474443376],[-58.4058861561212,-34.59804747107855],[-58.405590957298216,-34.59804609269107],[-58.40559023676358,-34.59804608932578],[-58.404874871438714,-34.59804274118402],[-58.40487415090419,-34.59804273780955],[-58.40473669305419,-34.59804209442754],[-58.404735972519696,-34.598042091054616],[-58.40451143371197,-34.598041070149826],[-58.404510717536766,-34.59804106689294],[-58.40372555901828,-34.598460200054525],[-58.403636243464724,-34.59850787952946],[-58.403449079923945,-34.59860779168946],[-58.403086845280896,-34.598801159713744],[-58.40254090564244,-34.599092583101424],[-58.40247845698195,-34.599125933466816],[-58.402012342973116,-34.59937478850392],[-58.40146800002244,-34.59944174106635],[-58.40121232404902,-34.59947318806702],[-58.40107435409538,-34.599489574153935],[-58.40107357896446,-34.59948966660514],[-58.4004810513927,-34.59956032387237],[-58.39992512198693,-34.59962661365755],[-58.398780957502964,-34.59975913519579],[-58.398727364249375,-34.599765342033365],[-58.39872726394246,-34.59976535365024],[-58.39865935689131,-34.59976402685869],[-58.39718998380497,-34.599735304535784],[-58.39664451719508,-34.59972459996603],[-58.39582073194652,-34.59970842818167],[-58.394716167935734,-34.59968689664386],[-58.39468941733719,-34.59968623077847],[-58.39440055559255,-34.599679042329086],[-58.39308373829616,-34.599645886452315],[-58.39293533370779,-34.599642149302134]]]}}