{"type":"Feature","properties":{"slug":"palermo-soho","name":"Palermo Soho","region":"caba","sort":0,"particion":{"base":"Palermo","areaBaseM2":15924169.23233388}},"geometry":{"type":"Polygon","coordinates":[[[-58.43743205249759,-34.58941289562273],[-58.437127092706724,-34.589617493049225],[-58.43617665075951,-34.5902551844947],[-58.43603943679221,-34.59034726772683],[-58.43531358652676,-34.59082732257302],[-58.4343660157657,-34.591454084199725],[-58.43413544570014,-34.59160649702565],[-58.43354228583283,-34.59200131892559],[-58.43344841199512,-34.59206380341887],[-58.433428536482026,-34.592077026947386],[-58.43236154574699,-34.59278706576656],[-58.431222361060016,-34.59354509413686],[-58.43074507709327,-34.59386270326436],[-58.43028520406779,-34.59416872832367],[-58.43021423197946,-34.59421300324105],[-58.430062459572284,-34.594307683558554],[-58.429351798650025,-34.59475073487385],[-58.42933302349945,-34.59476221017555],[-58.42917206724592,-34.59486061600765],[-58.428091967138194,-34.59552032038134],[-58.427026927258915,-34.59617086384167],[-58.42699185296127,-34.59619226401014],[-58.42695332660271,-34.596215770667236],[-58.42695151131967,-34.59621654084318],[-58.42624329429836,-34.59651711284868],[-58.42602719498809,-34.59661930265],[-58.425790630746036,-34.596708998682445],[-58.4165,-34.5858],[-58.4267,-34.5793],[-58.43743205249759,-34.58941289562273]]]}}