{"type":"Feature","properties":{"slug":"palermo-hollywood","name":"Palermo Hollywood","region":"caba","sort":1,"particion":{"base":"Palermo","areaBaseM2":15924169.23233388}},"geometry":{"type":"Polygon","coordinates":[[[-58.44471398167825,-34.58457559787213],[-58.444588211785494,-34.58467138375304],[-58.443479737138766,-34.585406573926896],[-58.44242770728873,-34.58610429859956],[-58.4414001026414,-34.58678582080942],[-58.44109180033733,-34.58699020545466],[-58.440159136113465,-34.587606662332234],[-58.439391686149506,-34.58811384770685],[-58.43861698700342,-34.58862588542126],[-58.43854826368863,-34.58866725228023],[-58.43853841959034,-34.58867318165427],[-58.43853690863584,-34.58867409088471],[-58.43850039170945,-34.58869607371202],[-58.43825254584401,-34.58886236469667],[-58.43822513538705,-34.58888076344439],[-58.438054098573446,-34.58899556510869],[-58.43743205249759,-34.58941289562273],[-58.4267,-34.5793],[-58.4345,-34.5757],[-58.44471398167825,-34.58457559787213]]]}}