{"type":"Feature","properties":{"slug":"pilar","name":"Pilar","region":"norte","sort":6},"geometry":{"type":"MultiPolygon","coordinates":[[[[-58.901265,-34.311097],[-58.901071,-34.311139],[-58.90095798,-34.31108086],[-58.90093843,-34.3110708],[-58.90080985,-34.31093857],[-58.90042888,-34.31143693],[-58.89985267,-34.3121907],[-58.89825636,-34.3142789],[-58.89752254,-34.31523885],[-58.8937059,-34.32023157],[-58.89133284,-34.32333587],[-58.88886314,-34.3265666],[-58.88602434,-34.33028017],[-58.885007,-34.331611],[-58.88413851,-34.33286545],[-58.88281595,-34.33477575],[-58.882588,-34.335105],[-58.8787,-34.340234],[-58.875441,-34.344556],[-58.87439054,-34.34594709],[-58.87288107,-34.34794601],[-58.86865401,-34.35354374],[-58.867688,-34.354823],[-58.86693309,-34.35580825],[-58.860891,-34.363694],[-58.86033038,-34.36443018],[-58.8582695,-34.36713641],[-58.853757,-34.373062],[-58.852505,-34.374685],[-58.84854349,-34.37989622],[-58.84417962,-34.38563672],[-58.842992,-34.387199],[-58.842718,-34.387007],[-58.84050799,-34.38563672],[-58.840202,-34.385447],[-58.83974211,-34.38593621],[-58.83937319,-34.38632864],[-58.83914211,-34.38658789],[-58.83907531,-34.38666283],[-58.837526,-34.388401],[-58.836898,-34.389123],[-58.835466,-34.390696],[-58.835649,-34.390816],[-58.831874,-34.395903],[-58.83013956,-34.39817048],[-58.829567,-34.398919],[-58.826553,-34.402886],[-58.82634704,-34.40315551],[-58.82613433,-34.40343384],[-58.82419769,-34.40596802],[-58.8236333,-34.40670655],[-58.82228185,-34.40847498],[-58.82178962,-34.40909978],[-58.8209644,-34.41014725],[-58.819593,-34.411888],[-58.81894227,-34.41278169],[-58.81864973,-34.41318345],[-58.81793451,-34.4141657],[-58.816989,-34.415404],[-58.816674,-34.415141],[-58.816482,-34.415041],[-58.81610543,-34.41492909],[-58.816096,-34.414924],[-58.8160886,-34.41492409],[-58.816021,-34.414904],[-58.815352,-34.414905],[-58.81486803,-34.41480271],[-58.814841,-34.414797],[-58.814445,-34.414654],[-58.81430581,-34.41458992],[-58.81371116,-34.41431616],[-58.813618,-34.41427],[-58.81328059,-34.41416815],[-58.81281763,-34.41401696],[-58.81279835,-34.41401067],[-58.812732,-34.413989],[-58.81258015,-34.41385395],[-58.812289,-34.413595],[-58.812172,-34.413514],[-58.81213106,-34.41350393],[-58.812046,-34.413483],[-58.811987,-34.413493],[-58.811862,-34.413534],[-58.811722,-34.413603],[-58.811499,-34.413652],[-58.81145226,-34.41366156],[-58.811411,-34.41367],[-58.811196,-34.413676],[-58.810978,-34.413683],[-58.810723,-34.413697],[-58.81047,-34.413752],[-58.810351,-34.413779],[-58.81012972,-34.41383752],[-58.810109,-34.413843],[-58.8100799,-34.41383956],[-58.809999,-34.41383],[-58.80974208,-34.41381521],[-58.809721,-34.413814],[-58.809061,-34.413777],[-58.80867532,-34.4136842],[-58.808663,-34.41368],[-58.80863205,-34.41366973],[-58.80845402,-34.41361066],[-58.80834093,-34.41357313],[-58.808223,-34.413534],[-58.80819736,-34.41352296],[-58.808007,-34.413441],[-58.807881,-34.413359],[-58.807702,-34.413252],[-58.807559,-34.413176],[-58.807371,-34.413],[-58.80719,-34.412903],[-58.806996,-34.412699],[-58.806911,-34.412556],[-58.806238,-34.412356],[-58.80622263,-34.41234912],[-58.805715,-34.412122],[-58.805325,-34.412008],[-58.80516912,-34.41199304],[-58.80495675,-34.41197266],[-58.804929,-34.41197],[-58.80491613,-34.41196024],[-58.8047894,-34.41186418],[-58.80477073,-34.41185582],[-58.804436,-34.411706],[-58.80389232,-34.41156535],[-58.80372056,-34.41153597],[-58.80332,-34.411486],[-58.80286782,-34.41115877],[-58.80284696,-34.41115362],[-58.802498,-34.411105],[-58.801744,-34.411111],[-58.801489,-34.411035],[-58.80127989,-34.41084876],[-58.80126951,-34.41083952],[-58.80118523,-34.41078094],[-58.80109202,-34.4107301],[-58.80093876,-34.41069485],[-58.800618,-34.410681],[-58.800279,-34.410567],[-58.799902,-34.410397],[-58.799537,-34.410377],[-58.798926,-34.410447],[-58.79881732,-34.41044076],[-58.798508,-34.410423],[-58.798174,-34.410272],[-58.79796904,-34.41014337],[-58.797884,-34.41009],[-58.79752473,-34.40980144],[-58.797508,-34.409788],[-58.797388,-34.409666],[-58.796718,-34.408987],[-58.79662893,-34.40890518],[-58.796263,-34.408569],[-58.795634,-34.408074],[-58.794978,-34.407598],[-58.79476321,-34.40744441],[-58.794613,-34.407337],[-58.794428,-34.407272],[-58.79438051,-34.4072616],[-58.79428009,-34.40723961],[-58.794268,-34.40724],[-58.79425056,-34.40723314],[-58.794154,-34.407212],[-58.79406569,-34.40715239],[-58.794034,-34.407131],[-58.79388815,-34.40695842],[-58.793843,-34.406905],[-58.79315414,-34.40621517],[-58.793133,-34.406194],[-58.79307672,-34.40613205],[-58.79281413,-34.40584296],[-58.79270628,-34.40572423],[-58.79269682,-34.40562152],[-58.792693,-34.40558],[-58.7926932,-34.40557967],[-58.7927648,-34.40546153],[-58.792793,-34.405415],[-58.79286194,-34.40534838],[-58.792882,-34.405329],[-58.79287,-34.4052],[-58.79286194,-34.40518104],[-58.79285075,-34.40515472],[-58.792816,-34.405073],[-58.792723,-34.404955],[-58.79226576,-34.40468451],[-58.792248,-34.404674],[-58.79224454,-34.40466882],[-58.79217745,-34.40456847],[-58.792125,-34.40449],[-58.79199388,-34.40416881],[-58.79192139,-34.40399124],[-58.791907,-34.403956],[-58.79190234,-34.40391204],[-58.79188272,-34.40372705],[-58.791879,-34.403692],[-58.791752,-34.403403],[-58.79168358,-34.40332986],[-58.791578,-34.403217],[-58.79158396,-34.40316014],[-58.791604,-34.402969],[-58.791671,-34.402837],[-58.791636,-34.402731],[-58.791575,-34.402654],[-58.79154557,-34.40258533],[-58.791392,-34.402227],[-58.791169,-34.401494],[-58.791063,-34.401406],[-58.790762,-34.401346],[-58.790474,-34.401335],[-58.790154,-34.401245],[-58.789964,-34.401017],[-58.789632,-34.400856],[-58.78943,-34.400751],[-58.78931,-34.400687],[-58.789201,-34.400531],[-58.78914,-34.400433],[-58.789017,-34.400304],[-58.78881322,-34.40017512],[-58.788715,-34.400113],[-58.78855233,-34.39994047],[-58.78846536,-34.39984824],[-58.788418,-34.399798],[-58.788323,-34.399672],[-58.787943,-34.399818],[-58.78781408,-34.39987345],[-58.786462,-34.400455],[-58.785603,-34.400827],[-58.784933,-34.40115],[-58.7846738,-34.40125976],[-58.784345,-34.401399],[-58.78431073,-34.40141407],[-58.782142,-34.402368],[-58.78201357,-34.40242254],[-58.77986,-34.403337],[-58.779437,-34.403516],[-58.77912109,-34.40365085],[-58.77837305,-34.40397017],[-58.77807425,-34.40409773],[-58.77804336,-34.40411091],[-58.777666,-34.404272],[-58.777744,-34.404402],[-58.777569,-34.40469],[-58.77748747,-34.40482378],[-58.77746,-34.404859],[-58.77678334,-34.40572146],[-58.77345377,-34.40996527],[-58.772711,-34.410912],[-58.7723729,-34.41134165],[-58.77202175,-34.41178789],[-58.767578,-34.417435],[-58.76309,-34.423186],[-58.763059,-34.423225],[-58.76271,-34.423649],[-58.76212578,-34.42440417],[-58.75976135,-34.42746049],[-58.75849158,-34.42910183],[-58.75798796,-34.42975282],[-58.757355,-34.430571],[-58.755268,-34.433152],[-58.752624,-34.436547],[-58.750985,-34.438806],[-58.750452,-34.439526],[-58.75019801,-34.43984813],[-58.74812059,-34.44248294],[-58.744962,-34.446489],[-58.74311941,-34.44887255],[-58.74103548,-34.4515683],[-58.74067936,-34.45202897],[-58.740643,-34.452076],[-58.74022123,-34.45262534],[-58.73976377,-34.45322117],[-58.7393927,-34.45370448],[-58.7373926,-34.45630956],[-58.73737636,-34.45633071],[-58.73731318,-34.45641566],[-58.73736826,-34.45644199],[-58.73832131,-34.45689748],[-58.73915894,-34.45732078],[-58.740503,-34.458],[-58.74175786,-34.45865395],[-58.74306172,-34.45933342],[-58.744337,-34.459981],[-58.74433636,-34.45999768],[-58.74432568,-34.46027703],[-58.744029,-34.460925],[-58.744117,-34.46355],[-58.74419884,-34.46359392],[-58.74699719,-34.46509584],[-58.749224,-34.466291],[-58.75199095,-34.46774979],[-58.752016,-34.467763],[-58.75224227,-34.4674764],[-58.75323985,-34.46621278],[-58.753681,-34.465654],[-58.756207,-34.462412],[-58.75823069,-34.46347248],[-58.75963394,-34.46420782],[-58.75963397,-34.46420784],[-58.759848,-34.46432],[-58.76015162,-34.46448669],[-58.76015165,-34.4644867],[-58.76195,-34.465474],[-58.76441355,-34.46678369],[-58.764448,-34.466802],[-58.76449758,-34.46689072],[-58.76469197,-34.46723857],[-58.764695,-34.467244],[-58.76625703,-34.46655924],[-58.77008067,-34.46488305],[-58.770188,-34.464836],[-58.769464,-34.465742],[-58.76947294,-34.46575568],[-58.77023456,-34.46692151],[-58.77044563,-34.46724461],[-58.77089512,-34.46790017],[-58.77117719,-34.46831157],[-58.771196,-34.468339],[-58.77196504,-34.46875332],[-58.775157,-34.470473],[-58.77728222,-34.47162182],[-58.77728225,-34.47162183],[-58.77728228,-34.47162185],[-58.778559,-34.472312],[-58.77855668,-34.47231531],[-58.77832334,-34.47264804],[-58.778269,-34.472716],[-58.77828664,-34.47272551],[-58.77946593,-34.47336136],[-58.780298,-34.47381],[-58.78256142,-34.47499047],[-58.784081,-34.475783],[-58.78416209,-34.47583288],[-58.78454093,-34.47606592],[-58.784689,-34.476157],[-58.78473495,-34.47613437],[-58.785635,-34.475691],[-58.78666787,-34.47519673],[-58.78948,-34.473851],[-58.78951433,-34.47383546],[-58.791113,-34.473112],[-58.7914085,-34.47292369],[-58.79202,-34.472534],[-58.795266,-34.470339],[-58.798724,-34.468011],[-58.79979535,-34.46729666],[-58.80126185,-34.46631885],[-58.80126189,-34.46631882],[-58.80126193,-34.4663188],[-58.802145,-34.46573],[-58.803598,-34.464764],[-58.80431269,-34.46443847],[-58.80531977,-34.46397976],[-58.80544,-34.463925],[-58.808512,-34.46135],[-58.81069292,-34.45975143],[-58.81076132,-34.45970129],[-58.81079941,-34.45967337],[-58.811905,-34.458863],[-58.81403,-34.457295],[-58.81405208,-34.45727805],[-58.815019,-34.456536],[-58.81514758,-34.45649386],[-58.816935,-34.455908],[-58.817031,-34.455827],[-58.81737878,-34.45553121],[-58.8177,-34.455258],[-58.8182391,-34.45478105],[-58.820632,-34.452664],[-58.821327,-34.452102],[-58.821487,-34.452037],[-58.821687,-34.451956],[-58.82168677,-34.45196445],[-58.821682,-34.452144],[-58.82159808,-34.45229385],[-58.82157,-34.452344],[-58.821558,-34.452399],[-58.821544,-34.452591],[-58.821527,-34.453003],[-58.821589,-34.453343],[-58.821582,-34.453828],[-58.821523,-34.454065],[-58.821529,-34.454459],[-58.821549,-34.454569],[-58.821545,-34.454899],[-58.821521,-34.45499],[-58.82152,-34.455119],[-58.821418,-34.45531],[-58.821192,-34.455592],[-58.820912,-34.455909],[-58.820821,-34.456037],[-58.820273,-34.45648],[-58.820027,-34.456689],[-58.819915,-34.456808],[-58.81987,-34.456843],[-58.819512,-34.457142],[-58.81926424,-34.45737782],[-58.81919223,-34.45744636],[-58.819097,-34.457537],[-58.81909104,-34.45755417],[-58.818925,-34.458033],[-58.818789,-34.458215],[-58.818599,-34.45836],[-58.818476,-34.458496],[-58.818275,-34.458613],[-58.818075,-34.458721],[-58.817551,-34.458991],[-58.81750995,-34.45900767],[-58.817427,-34.45903],[-58.81736212,-34.45906287],[-58.817352,-34.459068],[-58.8173,-34.459099],[-58.817292,-34.459104],[-58.817234,-34.459151],[-58.817195,-34.459182],[-58.817171,-34.459214],[-58.817138,-34.459258],[-58.817085,-34.459304],[-58.817047,-34.45934],[-58.817015,-34.459374],[-58.81700239,-34.45938913],[-58.816985,-34.45941],[-58.816965,-34.459437],[-58.816958,-34.459446],[-58.816914,-34.459504],[-58.816882,-34.459543],[-58.816875,-34.45955],[-58.816847,-34.459581],[-58.816828,-34.459604],[-58.816822,-34.459611],[-58.816813,-34.459632],[-58.816791,-34.459666],[-58.816765,-34.45971],[-58.81673439,-34.4597553],[-58.81670822,-34.45979403],[-58.816665,-34.459858],[-58.81659385,-34.45994282],[-58.8165938,-34.45994288],[-58.81659375,-34.45994293],[-58.81659355,-34.45994312],[-58.816535,-34.460013],[-58.81648485,-34.46003522],[-58.81643448,-34.46005753],[-58.816307,-34.460114],[-58.816223,-34.460159],[-58.816152,-34.460216],[-58.816116,-34.460252],[-58.816087,-34.460275],[-58.816062,-34.460304],[-58.816036,-34.460352],[-58.816009,-34.460376],[-58.816005,-34.460406],[-58.81601288,-34.46041809],[-58.81602,-34.460429],[-58.816022,-34.460447],[-58.816032,-34.460468],[-58.816039,-34.460516],[-58.816049,-34.46057],[-58.816033,-34.460662],[-58.816022,-34.460695],[-58.816013,-34.460714],[-58.816009,-34.460728],[-58.816002,-34.460749],[-58.815999,-34.460773],[-58.815982,-34.460786],[-58.815968,-34.4608],[-58.815954,-34.460814],[-58.815936,-34.460833],[-58.815917,-34.46086],[-58.81590804,-34.46086506],[-58.815894,-34.460873],[-58.815881,-34.460891],[-58.815875,-34.460907],[-58.815863,-34.460928],[-58.815856,-34.460969],[-58.815853,-34.461014],[-58.815843,-34.461052],[-58.815829,-34.461077],[-58.81581556,-34.4612994],[-58.815809,-34.461408],[-58.81566155,-34.46155945],[-58.81555515,-34.46166874],[-58.815404,-34.461824],[-58.81536306,-34.46186751],[-58.81507287,-34.46217588],[-58.815069,-34.46218],[-58.81506829,-34.4621813],[-58.81492619,-34.46244206],[-58.81488527,-34.46251715],[-58.814869,-34.462547],[-58.81486563,-34.46255806],[-58.814714,-34.463056],[-58.814368,-34.463402],[-58.81389293,-34.46399241],[-58.813779,-34.464134],[-58.81379796,-34.46423991],[-58.813808,-34.464296],[-58.813801,-34.464343],[-58.81379,-34.46437],[-58.813788,-34.464402],[-58.813793,-34.464456],[-58.813807,-34.46449],[-58.813813,-34.464537],[-58.81382,-34.464597],[-58.81385,-34.464658],[-58.813868,-34.464713],[-58.813884,-34.464759],[-58.813903,-34.4648],[-58.81392,-34.464861],[-58.813925,-34.46491],[-58.813943,-34.464953],[-58.81396,-34.46498],[-58.813996,-34.464995],[-58.81404,-34.465034],[-58.814091,-34.465067],[-58.814154,-34.465111],[-58.814204,-34.465176],[-58.814237,-34.465241],[-58.814254,-34.465284],[-58.814264,-34.465325],[-58.814276,-34.465375],[-58.81428,-34.465436],[-58.814256,-34.465483],[-58.814225,-34.465516],[-58.814196,-34.465545],[-58.81418283,-34.46557793],[-58.81418,-34.465585],[-58.814165,-34.465655],[-58.81416362,-34.46566541],[-58.814158,-34.465708],[-58.814196,-34.465837],[-58.814219,-34.465912],[-58.814261,-34.465983],[-58.814333,-34.466073],[-58.814462,-34.466298],[-58.814438,-34.466355],[-58.81428989,-34.466453],[-58.814172,-34.466531],[-58.814098,-34.466585],[-58.813993,-34.466692],[-58.813981,-34.466828],[-58.81398822,-34.46684412],[-58.814114,-34.467125],[-58.81421852,-34.46757204],[-58.814244,-34.467681],[-58.81427548,-34.46774396],[-58.814351,-34.467895],[-58.814444,-34.468154],[-58.814546,-34.46847],[-58.814596,-34.468678],[-58.81459263,-34.46869796],[-58.814567,-34.46885],[-58.814587,-34.468972],[-58.81463776,-34.4690241],[-58.814663,-34.46905],[-58.81472,-34.469188],[-58.81472,-34.469376],[-58.814678,-34.469504],[-58.81465375,-34.4695795],[-58.814625,-34.469669],[-58.814624,-34.469766],[-58.814633,-34.469866],[-58.814704,-34.470014],[-58.81470564,-34.47001545],[-58.814817,-34.470114],[-58.814919,-34.470226],[-58.814983,-34.470421],[-58.815006,-34.470705],[-58.814965,-34.470958],[-58.814917,-34.471148],[-58.814729,-34.471281],[-58.81453426,-34.4713434],[-58.814342,-34.471405],[-58.8143306,-34.47143104],[-58.81406,-34.472049],[-58.814045,-34.472206],[-58.8141,-34.472461],[-58.81404,-34.472695],[-58.813739,-34.473068],[-58.813613,-34.473297],[-58.813642,-34.473541],[-58.813813,-34.473715],[-58.813801,-34.473814],[-58.813824,-34.474034],[-58.81371,-34.474172],[-58.813606,-34.47415667],[-58.813459,-34.474135],[-58.813336,-34.47418],[-58.81323825,-34.47427057],[-58.813227,-34.474281],[-58.813131,-34.474492],[-58.81313,-34.474718],[-58.813166,-34.474837],[-58.813217,-34.474992],[-58.81322,-34.475171],[-58.813151,-34.475352],[-58.812996,-34.475506],[-58.81294275,-34.4755733],[-58.812852,-34.475688],[-58.81282264,-34.47574971],[-58.812803,-34.475791],[-58.812788,-34.475853],[-58.812792,-34.47593],[-58.812775,-34.476001],[-58.812769,-34.476054],[-58.812742,-34.476115],[-58.812721,-34.47624],[-58.812706,-34.476392],[-58.812718,-34.476467],[-58.812714,-34.476598],[-58.812668,-34.476826],[-58.81261266,-34.47692087],[-58.812577,-34.476982],[-58.81257347,-34.47700808],[-58.812557,-34.47713],[-58.812538,-34.477305],[-58.81248005,-34.47741299],[-58.812406,-34.477551],[-58.812292,-34.477707],[-58.812132,-34.477872],[-58.81217194,-34.47802419],[-58.812211,-34.478173],[-58.812291,-34.478335],[-58.8124,-34.47856],[-58.812362,-34.478769],[-58.812286,-34.479056],[-58.81225915,-34.4791171],[-58.81217,-34.47932],[-58.81215072,-34.47943932],[-58.812112,-34.479679],[-58.812147,-34.480008],[-58.812117,-34.480266],[-58.812105,-34.480487],[-58.812134,-34.48073],[-58.81210106,-34.48106325],[-58.8121,-34.481074],[-58.812064,-34.481358],[-58.812151,-34.481626],[-58.81220952,-34.4817157],[-58.812258,-34.48179],[-58.81242,-34.481922],[-58.812476,-34.4821],[-58.812501,-34.482249],[-58.812473,-34.482597],[-58.81245129,-34.48268036],[-58.812448,-34.482693],[-58.812431,-34.48277],[-58.812433,-34.482945],[-58.81244264,-34.48296553],[-58.812479,-34.483043],[-58.812463,-34.483222],[-58.812428,-34.483357],[-58.812424,-34.483488],[-58.812373,-34.483604],[-58.81233,-34.483683],[-58.812216,-34.483863],[-58.8122013,-34.48387439],[-58.812003,-34.484028],[-58.811816,-34.484117],[-58.811651,-34.484145],[-58.811604,-34.48417],[-58.81159324,-34.4841966],[-58.81158276,-34.4842225],[-58.811551,-34.484301],[-58.811552,-34.484405],[-58.81156653,-34.48443995],[-58.811589,-34.484494],[-58.811736,-34.484735],[-58.811759,-34.484828],[-58.811746,-34.484966],[-58.811751,-34.485009],[-58.811717,-34.485112],[-58.811614,-34.485219],[-58.811417,-34.485441],[-58.81126098,-34.48559701],[-58.811186,-34.485672],[-58.81117569,-34.48569449],[-58.811153,-34.485744],[-58.811157,-34.485821],[-58.811186,-34.48591],[-58.811226,-34.485968],[-58.811245,-34.485997],[-58.81128,-34.486083],[-58.811343,-34.486105],[-58.811475,-34.486151],[-58.811589,-34.486173],[-58.811654,-34.486243],[-58.811724,-34.486337],[-58.81179816,-34.48644392],[-58.811844,-34.48651],[-58.811965,-34.486681],[-58.81198781,-34.48670755],[-58.812087,-34.486823],[-58.81207641,-34.48688476],[-58.812075,-34.486893],[-58.812072,-34.487052],[-58.81212448,-34.48729885],[-58.812126,-34.487306],[-58.81226,-34.487502],[-58.812335,-34.487623],[-58.812386,-34.487666],[-58.812429,-34.487746],[-58.812458,-34.487857],[-58.812493,-34.487959],[-58.81255,-34.488155],[-58.812575,-34.488278],[-58.812593,-34.488334],[-58.812605,-34.488433],[-58.812645,-34.488474],[-58.812694,-34.488578],[-58.812793,-34.48875],[-58.812958,-34.488912],[-58.813063,-34.489038],[-58.813138,-34.489204],[-58.813216,-34.489398],[-58.813335,-34.489907],[-58.813371,-34.48995],[-58.81337889,-34.49001741],[-58.81339404,-34.49014694],[-58.81343444,-34.49023352],[-58.813437,-34.490239],[-58.81346,-34.490315],[-58.813495,-34.490432],[-58.813501,-34.490494],[-58.813491,-34.490733],[-58.813485,-34.490831],[-58.813483,-34.490941],[-58.813489,-34.491025],[-58.813503,-34.491092],[-58.813519,-34.491148],[-58.813552,-34.491186],[-58.81361538,-34.49125805],[-58.81365901,-34.49130764],[-58.813669,-34.491319],[-58.8136764,-34.49132588],[-58.81381,-34.49145],[-58.81384069,-34.49148331],[-58.8139152,-34.49156417],[-58.813943,-34.491588],[-58.81403,-34.491647],[-58.814144,-34.491754],[-58.814155,-34.491786],[-58.814193,-34.49181],[-58.814241,-34.49185],[-58.814299,-34.491927],[-58.81434316,-34.49204284],[-58.814368,-34.492108],[-58.81438574,-34.49214008],[-58.81442,-34.492202],[-58.814455,-34.492309],[-58.814459,-34.492404],[-58.81445399,-34.4924381],[-58.81444762,-34.49248149],[-58.814443,-34.492513],[-58.814457,-34.492559],[-58.81447513,-34.49258027],[-58.814538,-34.492654],[-58.814665,-34.492791],[-58.814728,-34.492837],[-58.814793,-34.492929],[-58.81483038,-34.49295578],[-58.81488161,-34.49296842],[-58.814888,-34.49297],[-58.814946,-34.492975],[-58.814999,-34.492973],[-58.815033,-34.492964],[-58.815092,-34.492934],[-58.815157,-34.492903],[-58.815226,-34.492865],[-58.815257,-34.492842],[-58.81533,-34.492847],[-58.81538261,-34.49287128],[-58.81541,-34.492869],[-58.815547,-34.49293],[-58.8156,-34.492964],[-58.815653,-34.49301],[-58.815684,-34.493082],[-58.815827,-34.493331],[-58.815884,-34.493491],[-58.815903,-34.49363],[-58.81586298,-34.49371571],[-58.815804,-34.493842],[-58.815794,-34.493992],[-58.81583043,-34.49402748],[-58.81583818,-34.49403503],[-58.81585879,-34.4940551],[-58.815871,-34.494067],[-58.81592326,-34.49408544],[-58.81599,-34.494109],[-58.816193,-34.494126],[-58.81633238,-34.4941394],[-58.816376,-34.494163],[-58.816479,-34.49423],[-58.81650208,-34.49425501],[-58.816503,-34.494256],[-58.816642,-34.494406],[-58.816774,-34.494508],[-58.81681749,-34.49453505],[-58.816938,-34.49461],[-58.81702841,-34.49466096],[-58.817103,-34.494703],[-58.817192,-34.494735],[-58.817354,-34.494814],[-58.817431,-34.494844],[-58.817534,-34.494885],[-58.817649,-34.494942],[-58.81779,-34.495024],[-58.81788756,-34.49509242],[-58.817944,-34.495132],[-58.81805623,-34.49520523],[-58.818085,-34.495224],[-58.81815753,-34.49527381],[-58.818235,-34.495327],[-58.818355,-34.49541745],[-58.818369,-34.495428],[-58.81848458,-34.49549803],[-58.818539,-34.495531],[-58.81872959,-34.49564806],[-58.818736,-34.495652],[-58.8188,-34.49569],[-58.81887036,-34.49571649],[-58.818897,-34.495722],[-58.818986,-34.495786],[-58.81899897,-34.49579628],[-58.819154,-34.495895],[-58.819263,-34.495997],[-58.81927545,-34.49601775],[-58.819296,-34.496052],[-58.8193385,-34.49609845],[-58.81936765,-34.49611705],[-58.819435,-34.49616],[-58.81950053,-34.49621679],[-58.81954,-34.496251],[-58.81956006,-34.49626297],[-58.819597,-34.496285],[-58.819662,-34.496365],[-58.819709,-34.496426],[-58.81971,-34.496545],[-58.819669,-34.496603],[-58.81959592,-34.49666361],[-58.819587,-34.496671],[-58.819462,-34.496758],[-58.819406,-34.496841],[-58.81941023,-34.49686263],[-58.819423,-34.496928],[-58.819454,-34.497011],[-58.819485,-34.497151],[-58.819417,-34.497344],[-58.819358,-34.497472],[-58.819312,-34.497647],[-58.81929785,-34.49769204],[-58.81927756,-34.49775664],[-58.81884715,-34.4991269],[-58.81883994,-34.49914984],[-58.8188,-34.499277],[-58.818734,-34.499533],[-58.81878775,-34.49967308],[-58.818828,-34.499778],[-58.81888343,-34.50010116],[-58.818946,-34.500466],[-58.8189806,-34.50061694],[-58.819048,-34.500911],[-58.819115,-34.501369],[-58.81912103,-34.5014155],[-58.81915669,-34.50169063],[-58.819157,-34.501693],[-58.81915871,-34.50169698],[-58.819251,-34.501912],[-58.819538,-34.502238],[-58.819783,-34.502394],[-58.819934,-34.502683],[-58.819925,-34.502898],[-58.81999,-34.503134],[-58.820306,-34.503711],[-58.820475,-34.503884],[-58.82057,-34.503991],[-58.82059508,-34.50417954],[-58.820601,-34.504224],[-58.820687,-34.504393],[-58.820835,-34.504481],[-58.821078,-34.504582],[-58.821134,-34.504664],[-58.82123758,-34.50481502],[-58.82124873,-34.50483127],[-58.821324,-34.504941],[-58.821336,-34.50502],[-58.821356,-34.505096],[-58.821449,-34.505246],[-58.821586,-34.505363],[-58.821667,-34.505439],[-58.82175,-34.505547],[-58.821856,-34.505715],[-58.821924,-34.505816],[-58.821972,-34.505968],[-58.82199,-34.506028],[-58.82197296,-34.50607148],[-58.821961,-34.506102],[-58.82199,-34.506155],[-58.822034,-34.506215],[-58.8220414,-34.50621932],[-58.822082,-34.506243],[-58.822155,-34.50627],[-58.822239,-34.506297],[-58.82224387,-34.50630393],[-58.823547,-34.508159],[-58.823584,-34.508215],[-58.82356484,-34.50823467],[-58.82368386,-34.50831107],[-58.82371795,-34.50833295],[-58.82376566,-34.50836357],[-58.823771,-34.508367],[-58.82378923,-34.50838195],[-58.82386,-34.50844],[-58.823899,-34.508506],[-58.82394,-34.508563],[-58.824027,-34.508647],[-58.82406169,-34.50867991],[-58.824144,-34.508758],[-58.824202,-34.508824],[-58.824241,-34.50889],[-58.824344,-34.508964],[-58.824439,-34.509081],[-58.824533,-34.509278],[-58.8245695,-34.50936849],[-58.824604,-34.509454],[-58.824688,-34.509684],[-58.82471579,-34.50978201],[-58.824726,-34.509818],[-58.824727,-34.509909],[-58.824709,-34.509993],[-58.82468433,-34.51002354],[-58.82466311,-34.51004981],[-58.824646,-34.510071],[-58.824634,-34.510121],[-58.82465,-34.510156],[-58.824681,-34.510179],[-58.824726,-34.510201],[-58.82473588,-34.51026127],[-58.824736,-34.510262],[-58.824744,-34.510322],[-58.82474,-34.510388],[-58.82472,-34.510446],[-58.824684,-34.510546],[-58.824638,-34.510606],[-58.824618,-34.510676],[-58.824611,-34.510725],[-58.824614,-34.510765],[-58.824636,-34.510807],[-58.82465674,-34.51084805],[-58.824685,-34.510904],[-58.824757,-34.511019],[-58.824792,-34.511113],[-58.824813,-34.511255],[-58.824794,-34.511398],[-58.82479388,-34.51139907],[-58.82479089,-34.51142625],[-58.824784,-34.511489],[-58.82477676,-34.51167443],[-58.824776,-34.511694],[-58.824783,-34.511795],[-58.824819,-34.511874],[-58.824884,-34.511923],[-58.825142,-34.512447],[-58.82514404,-34.5124637],[-58.825152,-34.512529],[-58.825161,-34.512694],[-58.825182,-34.512759],[-58.82522753,-34.51281478],[-58.825302,-34.512906],[-58.825334,-34.512962],[-58.825432,-34.513109],[-58.82544664,-34.51313566],[-58.82555091,-34.51332554],[-58.825594,-34.513404],[-58.82585555,-34.51374946],[-58.825887,-34.513791],[-58.825952,-34.513865],[-58.826008,-34.513891],[-58.826139,-34.514025],[-58.826162,-34.514093],[-58.82617697,-34.51415787],[-58.82618347,-34.51418605],[-58.82621,-34.514301],[-58.82624386,-34.51437845],[-58.826318,-34.514548],[-58.826468,-34.51473177],[-58.826469,-34.514733],[-58.826567,-34.51483055],[-58.826684,-34.514947],[-58.826894,-34.515152],[-58.82695061,-34.51523148],[-58.82704,-34.515357],[-58.827129,-34.515588],[-58.82729071,-34.51590412],[-58.827306,-34.515934],[-58.82748,-34.516147],[-58.82749789,-34.5162023],[-58.82752053,-34.51627228],[-58.827481,-34.516419],[-58.827511,-34.516627],[-58.82754206,-34.51668426],[-58.827542,-34.516689],[-58.82759308,-34.51690437],[-58.82758826,-34.51698495],[-58.827587,-34.517006],[-58.8276482,-34.51704119],[-58.827787,-34.517121],[-58.82778894,-34.51718651],[-58.827892,-34.517244],[-58.82807388,-34.51741148],[-58.828083,-34.517412],[-58.82811426,-34.51743981],[-58.828255,-34.517508],[-58.82828411,-34.517531],[-58.82833091,-34.51756796],[-58.828374,-34.517602],[-58.828428,-34.517756],[-58.828398,-34.517901],[-58.828363,-34.518074],[-58.828333,-34.518254],[-58.828399,-34.518508],[-58.82841679,-34.51856869],[-58.82844683,-34.51867123],[-58.828479,-34.518781],[-58.82858,-34.519135],[-58.828628,-34.519377],[-58.82870389,-34.51947665],[-58.828743,-34.519528],[-58.828766,-34.519537],[-58.828928,-34.519602],[-58.82897667,-34.51964339],[-58.829102,-34.51975],[-58.829252,-34.519955],[-58.82937389,-34.52008175],[-58.829453,-34.520164],[-58.829623,-34.520292],[-58.829724,-34.520412],[-58.829768,-34.520547],[-58.829747,-34.520704],[-58.82975213,-34.52078544],[-58.829755,-34.520831],[-58.82984283,-34.52096448],[-58.829882,-34.521024],[-58.829997,-34.521136],[-58.830139,-34.521234],[-58.830212,-34.5213],[-58.830235,-34.521365],[-58.83023374,-34.52136966],[-58.830205,-34.521476],[-58.830144,-34.521556],[-58.83013501,-34.5216565],[-58.830133,-34.521679],[-58.83015218,-34.5216987],[-58.830151,-34.521718],[-58.83005316,-34.52178323],[-58.830025,-34.521802],[-58.829973,-34.521978],[-58.829948,-34.52223],[-58.829962,-34.522374],[-58.829994,-34.522474],[-58.830133,-34.522673],[-58.830352,-34.522932],[-58.830458,-34.523145],[-58.830543,-34.52329],[-58.83075316,-34.52339155],[-58.830781,-34.523405],[-58.831035,-34.523525],[-58.831144,-34.523575],[-58.831284,-34.523667],[-58.831338,-34.52373],[-58.831385,-34.523857],[-58.831449,-34.523957],[-58.831507,-34.524074],[-58.831451,-34.5242],[-58.83152,-34.524336],[-58.831556,-34.524431],[-58.831664,-34.5245],[-58.831762,-34.524505],[-58.831817,-34.524501],[-58.831973,-34.524602],[-58.83201429,-34.52475242],[-58.832015,-34.524755],[-58.832144,-34.524892],[-58.832153,-34.524991],[-58.832185,-34.525072],[-58.832351,-34.525241],[-58.832495,-34.525432],[-58.832581,-34.525554],[-58.832672,-34.525663],[-58.832773,-34.525799],[-58.832864,-34.525913],[-58.832901,-34.526003],[-58.832916,-34.526134],[-58.83386589,-34.52691125],[-58.83414138,-34.52713667],[-58.834176,-34.527165],[-58.83459,-34.527864],[-58.835018,-34.528413],[-58.835406,-34.52871],[-58.83553924,-34.52891548],[-58.83562872,-34.52905346],[-58.835716,-34.529081],[-58.835765,-34.52914],[-58.835815,-34.529198],[-58.83594563,-34.52937809],[-58.836021,-34.529482],[-58.8362423,-34.52984562],[-58.836358,-34.529916],[-58.836632,-34.530264],[-58.836816,-34.530496],[-58.836926,-34.530622],[-58.837062,-34.530803],[-58.837128,-34.530894],[-58.837169,-34.530995],[-58.837198,-34.5311],[-58.837245,-34.531201],[-58.83728,-34.531297],[-58.837351,-34.531407],[-58.837446,-34.531539],[-58.837559,-34.53166],[-58.837697,-34.531777],[-58.837911,-34.531924],[-58.838131,-34.532098],[-58.838505,-34.532268],[-58.838873,-34.532406],[-58.839068,-34.53246],[-58.839253,-34.5325],[-58.839494,-34.532603],[-58.839632,-34.532695],[-58.839757,-34.53283],[-58.839836,-34.532936],[-58.839852,-34.533075],[-58.83983493,-34.53314377],[-58.839818,-34.533212],[-58.839781,-34.533403],[-58.83977879,-34.53357864],[-58.839778,-34.533641],[-58.839906,-34.534379],[-58.83996,-34.534618],[-58.840004,-34.534838],[-58.840008,-34.534943],[-58.840065,-34.535282],[-58.840153,-34.535478],[-58.840184,-34.53572],[-58.840203,-34.535875],[-58.840291,-34.536031],[-58.840358,-34.536193],[-58.840382,-34.53625],[-58.840412,-34.536604],[-58.840584,-34.537088],[-58.840748,-34.537419],[-58.840826,-34.53763],[-58.840898,-34.537808],[-58.84105,-34.538161],[-58.84108,-34.538576],[-58.841118,-34.538679],[-58.841185,-34.538875],[-58.84119373,-34.53906717],[-58.841194,-34.539073],[-58.84119844,-34.53908087],[-58.841378,-34.539399],[-58.841477,-34.53956],[-58.841487,-34.53959],[-58.841497,-34.53962],[-58.841509,-34.53965],[-58.841522,-34.53968],[-58.841537,-34.539709],[-58.841553,-34.539738],[-58.84157,-34.539766],[-58.841588,-34.539794],[-58.841607,-34.539821],[-58.841627,-34.539847],[-58.841649,-34.539873],[-58.841671,-34.539899],[-58.841917,-34.540233],[-58.842171,-34.540564],[-58.842467,-34.54117],[-58.842823,-34.541754],[-58.842846,-34.541803],[-58.84287,-34.541852],[-58.842896,-34.5419],[-58.842924,-34.541947],[-58.842954,-34.541993],[-58.842986,-34.542039],[-58.84302,-34.542084],[-58.843055,-34.542128],[-58.843092,-34.54217],[-58.84313,-34.542212],[-58.843152,-34.542236],[-58.843173,-34.542261],[-58.843193,-34.542286],[-58.843212,-34.542312],[-58.84323,-34.542338],[-58.843246,-34.542365],[-58.843262,-34.542392],[-58.843276,-34.54242],[-58.843289,-34.542448],[-58.843301,-34.542476],[-58.843312,-34.542505],[-58.843321,-34.542534],[-58.84333,-34.542563],[-58.843337,-34.542593],[-58.843343,-34.542623],[-58.843347,-34.542652],[-58.843351,-34.542682],[-58.843353,-34.542712],[-58.843354,-34.542742],[-58.843371,-34.542796],[-58.84339,-34.54285],[-58.843412,-34.542902],[-58.843436,-34.542954],[-58.843462,-34.543006],[-58.84349,-34.543056],[-58.84352,-34.543106],[-58.843553,-34.543155],[-58.843587,-34.543203],[-58.843623,-34.54325],[-58.843661,-34.543296],[-58.843701,-34.54334],[-58.843743,-34.543384],[-58.843786,-34.543426],[-58.843832,-34.543467],[-58.843879,-34.543507],[-58.843927,-34.543546],[-58.843977,-34.543583],[-58.84403,-34.543625],[-58.84408,-34.543668],[-58.844129,-34.543713],[-58.844176,-34.543759],[-58.844221,-34.543806],[-58.844265,-34.543854],[-58.844306,-34.543904],[-58.844345,-34.543954],[-58.844383,-34.544006],[-58.844418,-34.544059],[-58.844451,-34.544112],[-58.844482,-34.544167],[-58.844511,-34.544222],[-58.844537,-34.544278],[-58.844555,-34.54432],[-58.844574,-34.544361],[-58.844595,-34.544401],[-58.844618,-34.544441],[-58.844643,-34.54448],[-58.844669,-34.544519],[-58.844696,-34.544556],[-58.844726,-34.544593],[-58.844757,-34.544629],[-58.844789,-34.544664],[-58.844823,-34.544699],[-58.844858,-34.544732],[-58.844894,-34.544764],[-58.844932,-34.544795],[-58.844971,-34.544825],[-58.845012,-34.544854],[-58.845053,-34.544881],[-58.845096,-34.544908],[-58.845455,-34.545186],[-58.845581,-34.545279],[-58.845704,-34.545374],[-58.845822,-34.545473],[-58.845937,-34.545575],[-58.846047,-34.545681],[-58.846153,-34.545789],[-58.846255,-34.5459],[-58.846352,-34.546014],[-58.846434,-34.546131],[-58.846512,-34.546251],[-58.846586,-34.546373],[-58.846655,-34.546496],[-58.846719,-34.546622],[-58.846778,-34.546748],[-58.846833,-34.546877],[-58.84676353,-34.54709164],[-58.846755,-34.547118],[-58.84673783,-34.54714571],[-58.846359,-34.547757],[-58.847501,-34.549171],[-58.84890486,-34.550111],[-58.84906751,-34.5502199],[-58.849102,-34.550243],[-58.850016,-34.551241],[-58.85016436,-34.55141077],[-58.853641,-34.555389],[-58.85599,-34.558141],[-58.860848,-34.562077],[-58.86240602,-34.56317443],[-58.863023,-34.563672],[-58.863921,-34.564368],[-58.864896,-34.565035],[-58.865871,-34.565701],[-58.866847,-34.566368],[-58.86759169,-34.56687668],[-58.867822,-34.567034],[-58.86844463,-34.56745995],[-58.868676,-34.567681],[-58.871895,-34.569821],[-58.87347854,-34.57067592],[-58.877826,-34.573023],[-58.885066,-34.577051],[-58.88512271,-34.57697222],[-58.89706145,-34.5603861],[-58.900328,-34.555848],[-58.902138,-34.553268],[-58.9040324,-34.55059633],[-58.909908,-34.54231],[-58.912258,-34.539018],[-58.91671,-34.532757],[-58.926723,-34.518672],[-58.92842,-34.516204],[-58.9284988,-34.51624554],[-58.930044,-34.51706],[-58.934826,-34.519577],[-58.942582,-34.523642],[-58.949223,-34.527118],[-58.956834,-34.531133],[-58.96183481,-34.53371253],[-58.96189,-34.533741],[-58.961981,-34.533558],[-58.96321571,-34.53200057],[-58.964112,-34.53087],[-58.966144,-34.528332],[-58.96646258,-34.52792386],[-58.96864441,-34.52512871],[-58.96925,-34.524374],[-58.969776,-34.523701],[-58.970399,-34.522912],[-58.971056,-34.522084],[-58.97197,-34.520924],[-58.972223,-34.520628],[-58.97245872,-34.52025316],[-58.972711,-34.519852],[-58.973306,-34.519076],[-58.973901,-34.518299],[-58.974496,-34.517523],[-58.975091,-34.516747],[-58.975685,-34.515971],[-58.97628,-34.515195],[-58.976875,-34.514419],[-58.97752,-34.513577],[-58.978165,-34.512735],[-58.978809,-34.511893],[-58.979454,-34.511051],[-58.980099,-34.51021],[-58.980744,-34.509368],[-58.981413,-34.508496],[-58.982082,-34.507625],[-58.982751,-34.506753],[-58.98342,-34.505882],[-58.984089,-34.50501],[-58.98473,-34.504166],[-58.985371,-34.503322],[-58.986012,-34.502477],[-58.986653,-34.501633],[-58.987294,-34.500788],[-58.988042,-34.499803],[-58.98873,-34.498898],[-58.988844,-34.498747],[-58.989456,-34.49793],[-58.990067,-34.497113],[-58.990679,-34.496296],[-58.99129,-34.495479],[-58.991902,-34.494662],[-58.992438,-34.493978],[-58.993232,-34.492948],[-58.993858,-34.49215],[-58.994425,-34.491355],[-58.995105,-34.490468],[-58.99518901,-34.49051507],[-58.995928,-34.489564],[-58.997213,-34.487916],[-58.998629,-34.486097],[-58.99984967,-34.48453323],[-59.000233,-34.484035],[-59.000532,-34.483628],[-59.000683,-34.48342],[-59.00073718,-34.48343262],[-59.000771,-34.483388],[-59.001714,-34.48349],[-59.00182779,-34.48355688],[-59.003708,-34.484662],[-59.004147,-34.485218],[-59.003815,-34.485739],[-59.003483,-34.486275],[-59.003939,-34.48686],[-59.004876,-34.487292],[-59.005699,-34.487228],[-59.00572986,-34.48722868],[-59.0064808,-34.48724532],[-59.006692,-34.48725],[-59.007813,-34.487632],[-59.008983,-34.488182],[-59.01048839,-34.48828249],[-59.010541,-34.488286],[-59.01058324,-34.48823174],[-59.010671,-34.488119],[-59.01155,-34.486994],[-59.013229,-34.484853],[-59.014188,-34.483629],[-59.014975,-34.482604],[-59.015512,-34.481908],[-59.016158,-34.481077],[-59.017168,-34.479778],[-59.017278,-34.479657],[-59.021112,-34.474719],[-59.021892,-34.473709],[-59.0244424,-34.47044796],[-59.025,-34.469735],[-59.025017,-34.469712],[-59.026619,-34.467644],[-59.027226,-34.46686],[-59.028566,-34.465157],[-59.02914932,-34.46442522],[-59.02923,-34.46421],[-59.029563,-34.463783],[-59.030097,-34.463072],[-59.031191,-34.461617],[-59.031803,-34.460803],[-59.032415,-34.459989],[-59.033266,-34.458846],[-59.033801,-34.45812],[-59.034211,-34.457561],[-59.035234,-34.456208],[-59.036203,-34.454909],[-59.036812,-34.45409],[-59.037554,-34.453087],[-59.03781281,-34.45273715],[-59.03781283,-34.45273712],[-59.038296,-34.452084],[-59.039154,-34.450934],[-59.039836,-34.45003],[-59.040518,-34.449126],[-59.041199,-34.448223],[-59.04185,-34.447349],[-59.0425,-34.446474],[-59.04315,-34.4456],[-59.0438,-34.444726],[-59.044451,-34.443852],[-59.044434,-34.443722],[-59.045059,-34.442891],[-59.045684,-34.442061],[-59.046309,-34.441231],[-59.046934,-34.440401],[-59.047559,-34.439571],[-59.048211,-34.438722],[-59.048863,-34.437873],[-59.049515,-34.437023],[-59.050167,-34.436174],[-59.050819,-34.435325],[-59.051471,-34.434475],[-59.052122,-34.433626],[-59.05270526,-34.43292962],[-59.052782,-34.432838],[-59.05319706,-34.43234232],[-59.05316434,-34.43232164],[-59.05615144,-34.42836571],[-59.0562718,-34.42820631],[-59.05584174,-34.42798912],[-59.05579761,-34.42796684],[-59.055592,-34.427863],[-59.05608066,-34.42720038],[-59.05560086,-34.42702652],[-59.055271,-34.426907],[-59.054213,-34.426525],[-59.053156,-34.426142],[-59.052099,-34.425759],[-59.05173671,-34.42562773],[-59.051042,-34.425376],[-59.049985,-34.424994],[-59.049549,-34.42477],[-59.048476,-34.424209],[-59.047403,-34.423648],[-59.046331,-34.423087],[-59.045258,-34.422526],[-59.044186,-34.421966],[-59.043815,-34.421697],[-59.043679,-34.421625],[-59.04275,-34.421152],[-59.04332091,-34.42042964],[-59.043421,-34.420303],[-59.044274,-34.419243],[-59.04373115,-34.418981],[-59.043698,-34.418965],[-59.043606,-34.418914],[-59.042286,-34.418211],[-59.041621,-34.417852],[-59.0412474,-34.41765628],[-59.040071,-34.41704],[-59.04002436,-34.41701693],[-59.039978,-34.416994],[-59.040703,-34.416055],[-59.041427,-34.415117],[-59.04209312,-34.41425425],[-59.042152,-34.414178],[-59.041214,-34.413687],[-59.040276,-34.413196],[-59.039338,-34.412705],[-59.0384,-34.412214],[-59.037092,-34.411515],[-59.035784,-34.410816],[-59.03544544,-34.41065416],[-59.034579,-34.41024],[-59.033374,-34.409663],[-59.034196,-34.40856],[-59.035019,-34.407457],[-59.03453677,-34.40720267],[-59.033669,-34.406745],[-59.03324252,-34.4065199],[-59.03232,-34.406033],[-59.030996,-34.405349],[-59.029671,-34.404665],[-59.02902815,-34.40415646],[-59.028417,-34.403673],[-59.027073,-34.402971],[-59.026103,-34.402471],[-59.02513688,-34.40197252],[-59.025132,-34.40197],[-59.025816,-34.401029],[-59.0265,-34.400087],[-59.02664008,-34.4000412],[-59.026812,-34.399985],[-59.02735578,-34.39928541],[-59.02767144,-34.39887931],[-59.027695,-34.398849],[-59.028577,-34.397713],[-59.02848782,-34.39766722],[-59.02843933,-34.39764234],[-59.027899,-34.397365],[-59.02742,-34.397281],[-59.02616,-34.39661],[-59.025561,-34.396295],[-59.025288,-34.396147],[-59.02455875,-34.39570568],[-59.02402309,-34.39538151],[-59.023819,-34.395258],[-59.023044,-34.39484],[-59.021966,-34.394236],[-59.020887,-34.393632],[-59.019809,-34.393027],[-59.018631,-34.392397],[-59.017454,-34.391768],[-59.01732185,-34.39169732],[-59.016276,-34.391138],[-59.01536108,-34.3906406],[-59.01425,-34.39005627],[-59.012831,-34.38931],[-59.01209178,-34.38888225],[-59.010999,-34.388315],[-59.010002,-34.387795],[-59.009006,-34.387274],[-59.00814047,-34.38682257],[-59.008009,-34.386754],[-59.007013,-34.386234],[-59.00529,-34.385328],[-59.00480358,-34.38507368],[-59.003538,-34.384412],[-59.00293922,-34.38411238],[-59.002243,-34.383764],[-59.000948,-34.383117],[-58.999956,-34.382633],[-58.998965,-34.382149],[-58.998293,-34.381945],[-58.996974,-34.381281],[-58.995655,-34.380617],[-58.99447267,-34.38002893],[-58.994318,-34.379952],[-58.992981,-34.379286],[-58.993638,-34.378262],[-58.994294,-34.377239],[-58.993313,-34.376728],[-58.992331,-34.376217],[-58.99138052,-34.3757224],[-58.991349,-34.375706],[-58.990311,-34.375165],[-58.990363,-34.375103],[-58.990483,-34.374972],[-58.991135,-34.374219],[-58.99174614,-34.37351225],[-58.991787,-34.373465],[-58.990284,-34.372591],[-58.9901997,-34.3725441],[-58.990142,-34.372512],[-58.99012799,-34.37253138],[-58.98949448,-34.3721689],[-58.98723707,-34.37087728],[-58.98634,-34.370364],[-58.984527,-34.36931],[-58.9841454,-34.3690837],[-58.984011,-34.369004],[-58.98625614,-34.36632899],[-58.987479,-34.364872],[-58.99127552,-34.36041771],[-58.991577,-34.360064],[-58.993226,-34.358077],[-58.98991837,-34.35619989],[-58.98776,-34.354975],[-58.98751258,-34.35483307],[-58.983484,-34.352522],[-58.98186445,-34.35157898],[-58.980257,-34.350643],[-58.98024639,-34.35065558],[-58.98021969,-34.35068724],[-58.978939,-34.352206],[-58.97730968,-34.35410624],[-58.97730966,-34.35410628],[-58.97654976,-34.35499254],[-58.976317,-34.355264],[-58.97629575,-34.35528894],[-58.974084,-34.357885],[-58.972556,-34.359685],[-58.97171234,-34.36071752],[-58.970988,-34.361604],[-58.9704615,-34.36223886],[-58.97027116,-34.36246839],[-58.968554,-34.364539],[-58.967171,-34.366197],[-58.96714577,-34.36618151],[-58.96711801,-34.36616447],[-58.96707,-34.366135],[-58.96703957,-34.36617111],[-58.966975,-34.366109],[-58.96646597,-34.36672804],[-58.966156,-34.367105],[-58.965495,-34.367888],[-58.96543854,-34.36795584],[-58.96486,-34.368651],[-58.96418,-34.369449],[-58.963354,-34.370443],[-58.962553,-34.371385],[-58.96192862,-34.3721447],[-58.961764,-34.372345],[-58.96102637,-34.37321862],[-58.960945,-34.373315],[-58.959874,-34.374589],[-58.958965,-34.375667],[-58.958089,-34.376719],[-58.95743144,-34.3774705],[-58.957417,-34.377487],[-58.956835,-34.378124],[-58.95633144,-34.37873304],[-58.955756,-34.379429],[-58.95473,-34.380648],[-58.954302,-34.381168],[-58.953712,-34.381903],[-58.953017,-34.38273],[-58.95268019,-34.38311777],[-58.952237,-34.383628],[-58.95211716,-34.38376651],[-58.95181791,-34.38411238],[-58.951608,-34.384355],[-58.95065,-34.385496],[-58.949998,-34.386283],[-58.949365,-34.387037],[-58.94922748,-34.3872152],[-58.948743,-34.387843],[-58.948082,-34.388686],[-58.94773283,-34.3891094],[-58.947193,-34.389764],[-58.946304,-34.390848],[-58.945502,-34.391802],[-58.944704,-34.392754],[-58.94416832,-34.39339555],[-58.9438638,-34.39376026],[-58.943854,-34.393772],[-58.943246,-34.394526],[-58.942611,-34.395304],[-58.941981,-34.396063],[-58.941364,-34.396797],[-58.94071334,-34.39729974],[-58.940669,-34.397334],[-58.94003,-34.398127],[-58.939386,-34.398929],[-58.93925317,-34.39909183],[-58.938722,-34.399743],[-58.938062,-34.400551],[-58.937366,-34.401402],[-58.93714415,-34.40167675],[-58.93686103,-34.40202739],[-58.936737,-34.402181],[-58.936064,-34.402971],[-58.935373,-34.4038],[-58.93464,-34.404664],[-58.93400326,-34.40543268],[-58.933892,-34.405567],[-58.93364635,-34.40586143],[-58.9333839,-34.40617598],[-58.933207,-34.406388],[-58.93289065,-34.40676009],[-58.932594,-34.407109],[-58.931952,-34.407867],[-58.93193313,-34.40788961],[-58.931347,-34.408592],[-58.930696,-34.409339],[-58.930083,-34.410087],[-58.929478,-34.410804],[-58.928827,-34.411571],[-58.928146,-34.412364],[-58.927476,-34.413169],[-58.92719782,-34.41350092],[-58.92696035,-34.41378426],[-58.926803,-34.413972],[-58.926147,-34.414739],[-58.925466,-34.415542],[-58.92424,-34.416969],[-58.924115,-34.417036],[-58.92397126,-34.41706475],[-58.92391,-34.417077],[-58.923448,-34.417089],[-58.92341187,-34.41706029],[-58.923302,-34.416973],[-58.92329812,-34.41692086],[-58.92329556,-34.41688651],[-58.923286,-34.416758],[-58.92330509,-34.4166991],[-58.92331012,-34.41668358],[-58.923392,-34.416431],[-58.923553,-34.416141],[-58.92355361,-34.4161374],[-58.923593,-34.415905],[-58.923475,-34.415728],[-58.923255,-34.415619],[-58.92293987,-34.41563646],[-58.92267,-34.415699],[-58.92263701,-34.41569874],[-58.922282,-34.415696],[-58.921887,-34.41557],[-58.921696,-34.415324],[-58.92147,-34.415008],[-58.921269,-34.414838],[-58.921057,-34.414752],[-58.920705,-34.414699],[-58.920352,-34.414717],[-58.92030536,-34.41472779],[-58.920262,-34.41473],[-58.92001892,-34.41478623],[-58.919837,-34.414801],[-58.919672,-34.414768],[-58.919483,-34.414622],[-58.919362,-34.414416],[-58.919162,-34.414119],[-58.919036,-34.413981],[-58.918903,-34.413786],[-58.91890247,-34.41378426],[-58.91885,-34.413613],[-58.91890633,-34.4132139],[-58.918909,-34.413195],[-58.919055,-34.413013],[-58.919295,-34.412875],[-58.919821,-34.412636],[-58.9200769,-34.41250036],[-58.92027,-34.412398],[-58.920434,-34.412216],[-58.920483,-34.412019],[-58.920444,-34.411769],[-58.920319,-34.411599],[-58.920083,-34.411421],[-58.919486,-34.411015],[-58.919318,-34.410809],[-58.919195,-34.41046],[-58.919191,-34.410101],[-58.919298,-34.409718],[-58.919438,-34.409448],[-58.919704,-34.409011],[-58.920097,-34.408518],[-58.920423,-34.408246],[-58.92083,-34.408039],[-58.92106015,-34.40795601],[-58.92107937,-34.40794908],[-58.921393,-34.407836],[-58.92158569,-34.4077622],[-58.921769,-34.407692],[-58.921984,-34.4075],[-58.922038,-34.407247],[-58.921977,-34.407039],[-58.921831,-34.406858],[-58.92172335,-34.40676009],[-58.921621,-34.406667],[-58.921554,-34.40655],[-58.921544,-34.406384],[-58.921605,-34.406216],[-58.921794,-34.40608],[-58.922084,-34.405998],[-58.922255,-34.405945],[-58.922393,-34.405837],[-58.922475,-34.405697],[-58.922481,-34.405546],[-58.922407,-34.405366],[-58.922252,-34.405181],[-58.921873,-34.404939],[-58.921304,-34.404596],[-58.920674,-34.404226],[-58.920126,-34.403879],[-58.919937,-34.403716],[-58.919821,-34.403532],[-58.919756,-34.403242],[-58.919801,-34.403084],[-58.91986281,-34.40301017],[-58.919909,-34.402955],[-58.91995272,-34.40292791],[-58.920093,-34.402841],[-58.9201874,-34.40278343],[-58.920316,-34.402705],[-58.92034242,-34.40269826],[-58.92047165,-34.40266531],[-58.920567,-34.402641],[-58.92092585,-34.40256661],[-58.92092898,-34.40256592],[-58.92093531,-34.40256486],[-58.92123987,-34.40250981],[-58.92125692,-34.40250673],[-58.921355,-34.402489],[-58.921804,-34.402392],[-58.92189036,-34.40234974],[-58.922086,-34.402254],[-58.922309,-34.402066],[-58.922409,-34.401863],[-58.922511,-34.401582],[-58.922513,-34.401402],[-58.922466,-34.401117],[-58.92228,-34.400454],[-58.922254,-34.400113],[-58.922313,-34.399828],[-58.922461,-34.399583],[-58.92262,-34.399408],[-58.922686,-34.399243],[-58.92272509,-34.39906491],[-58.92274,-34.398997],[-58.92268,-34.398713],[-58.92254,-34.398391],[-58.9225,-34.39819],[-58.922514,-34.398046],[-58.92257666,-34.39789155],[-58.922585,-34.397871],[-58.92266448,-34.39778728],[-58.922735,-34.397713],[-58.922852,-34.397546],[-58.922901,-34.397391],[-58.922899,-34.397187],[-58.922788,-34.396962],[-58.922603,-34.396812],[-58.922383,-34.396698],[-58.922109,-34.396554],[-58.921974,-34.396419],[-58.92193,-34.396278],[-58.921907,-34.396046],[-58.921855,-34.395802],[-58.921777,-34.395562],[-58.921703,-34.395303],[-58.921668,-34.39506],[-58.921704,-34.394888],[-58.92176757,-34.39476154],[-58.921796,-34.394705],[-58.921964,-34.394524],[-58.922272,-34.39433],[-58.92262926,-34.39415077],[-58.922864,-34.394033],[-58.923419,-34.393753],[-58.92355108,-34.39366211],[-58.923621,-34.393614],[-58.92372,-34.39347],[-58.923756,-34.393316],[-58.92372,-34.393206],[-58.923615,-34.393103],[-58.923458,-34.393039],[-58.923174,-34.392983],[-58.922877,-34.39297],[-58.922198,-34.392922],[-58.921914,-34.392852],[-58.921759,-34.392732],[-58.921592,-34.392512],[-58.921358,-34.39205],[-58.921194,-34.391626],[-58.921197,-34.391374],[-58.92120513,-34.3913193],[-58.921234,-34.391125],[-58.921299,-34.391013],[-58.921398,-34.390918],[-58.921535,-34.390825],[-58.921732,-34.390728],[-58.921958,-34.390656],[-58.922027,-34.390628],[-58.92214484,-34.39059879],[-58.92220859,-34.39058299],[-58.922476,-34.390576],[-58.92251148,-34.39056427],[-58.9226,-34.390535],[-58.92261464,-34.39051865],[-58.92266,-34.390468],[-58.922662,-34.390363],[-58.922569,-34.390298],[-58.922421,-34.390241],[-58.922231,-34.390183],[-58.922041,-34.390114],[-58.921809,-34.389975],[-58.92177502,-34.38993997],[-58.921712,-34.389875],[-58.921642,-34.389727],[-58.921581,-34.389519],[-58.921571,-34.389305],[-58.92162,-34.389122],[-58.921711,-34.388965],[-58.921853,-34.388793],[-58.921983,-34.388647],[-58.922056,-34.388538],[-58.92205688,-34.38847604],[-58.922057,-34.388468],[-58.92208,-34.388338],[-58.922061,-34.3882],[-58.921986,-34.388094],[-58.92194,-34.388016],[-58.921924,-34.387928],[-58.92192008,-34.38788507],[-58.921905,-34.38772],[-58.921929,-34.387588],[-58.921985,-34.387479],[-58.922131,-34.387336],[-58.92235,-34.387211],[-58.922551,-34.387104],[-58.922739,-34.386986],[-58.922911,-34.386868],[-58.922988,-34.386763],[-58.923058,-34.386661],[-58.92308309,-34.38655011],[-58.923089,-34.386524],[-58.923065,-34.386411],[-58.922999,-34.386305],[-58.922877,-34.386185],[-58.922738,-34.386116],[-58.922492,-34.386019],[-58.922234,-34.385975],[-58.921962,-34.385937],[-58.921682,-34.385938],[-58.92149289,-34.38594827],[-58.921288,-34.385988],[-58.920947,-34.386062],[-58.92087703,-34.38607044],[-58.920806,-34.386079],[-58.920602,-34.386091],[-58.920475,-34.386079],[-58.920318,-34.386046],[-58.920158,-34.385974],[-58.920074,-34.385879],[-58.920037,-34.385766],[-58.92000922,-34.38552319],[-58.920006,-34.385495],[-58.92003,-34.385242],[-58.920118,-34.385067],[-58.9203,-34.384776],[-58.920489,-34.384581],[-58.920696,-34.384378],[-58.920867,-34.384232],[-58.92101084,-34.38414569],[-58.921052,-34.384121],[-58.92107262,-34.38411238],[-58.921363,-34.383991],[-58.921624,-34.383846],[-58.921877,-34.383707],[-58.92199569,-34.38360218],[-58.922031,-34.383571],[-58.922127,-34.383446],[-58.92217,-34.383333],[-58.922211,-34.383179],[-58.922191,-34.38307],[-58.92212,-34.382967],[-58.922024,-34.382864],[-58.921876,-34.382778],[-58.921673,-34.382671],[-58.921449,-34.382581],[-58.921051,-34.382423],[-58.920718,-34.382266],[-58.920481,-34.382154],[-58.920355,-34.382062],[-58.920203,-34.382025],[-58.919977,-34.382034],[-58.919756,-34.382056],[-58.91973896,-34.38206174],[-58.91956,-34.382122],[-58.91944,-34.382226],[-58.919393,-34.38229111],[-58.919344,-34.382359],[-58.91927776,-34.3824602],[-58.919236,-34.382524],[-58.919119,-34.382744],[-58.919049,-34.382863],[-58.918933,-34.383014],[-58.918838,-34.383076],[-58.918655,-34.38312],[-58.91862905,-34.3831176],[-58.918536,-34.383109],[-58.918393,-34.383044],[-58.918271,-34.382948],[-58.918217,-34.382849],[-58.918176,-34.382694],[-58.91818768,-34.38257018],[-58.918191,-34.382535],[-58.91824,-34.38237],[-58.91831,-34.382227],[-58.918401,-34.382076],[-58.91853,-34.381908],[-58.918664,-34.381786],[-58.918814,-34.381664],[-58.919045,-34.381515],[-58.919217,-34.38139],[-58.91941,-34.381265],[-58.919534,-34.381157],[-58.919611,-34.381098],[-58.919735,-34.381035],[-58.919812,-34.380927],[-58.91983562,-34.38087795],[-58.919851,-34.380846],[-58.91986922,-34.38080915],[-58.91984467,-34.38067826],[-58.919833,-34.380616],[-58.91974727,-34.38051719],[-58.919715,-34.38048],[-58.919564,-34.380423],[-58.919336,-34.380394],[-58.91902,-34.380435],[-58.918715,-34.380559],[-58.91851129,-34.38070567],[-58.918465,-34.380739],[-58.918324,-34.38093],[-58.918192,-34.38108],[-58.91816672,-34.38108487],[-58.918026,-34.381112],[-58.917768,-34.381065],[-58.917541,-34.38092],[-58.917284,-34.38068],[-58.917237,-34.380474],[-58.917281,-34.380181],[-58.917352,-34.379848],[-58.917583,-34.379598],[-58.91771003,-34.37952317],[-58.917948,-34.379383],[-58.918317,-34.379221],[-58.918656,-34.378988],[-58.91875161,-34.37884023],[-58.918849,-34.378776],[-58.91906,-34.378473],[-58.919208,-34.378113],[-58.91920981,-34.37793562],[-58.919211,-34.377819],[-58.91902,-34.37757],[-58.918632,-34.377391],[-58.918232,-34.377282],[-58.91793,-34.377132],[-58.917766,-34.376969],[-58.91775385,-34.37687012],[-58.917744,-34.37679],[-58.917712,-34.3766],[-58.917886,-34.376464],[-58.918064,-34.376399],[-58.918357,-34.376396],[-58.91858627,-34.37640494],[-58.91883312,-34.37641458],[-58.9190739,-34.37635801],[-58.91910786,-34.37631779],[-58.91911805,-34.37630573],[-58.919172,-34.376068],[-58.919078,-34.375873],[-58.91882,-34.375713],[-58.91881788,-34.37571211],[-58.918452,-34.375559],[-58.918307,-34.375345],[-58.918219,-34.375144],[-58.918178,-34.374979],[-58.918256,-34.374773],[-58.918365,-34.374627],[-58.91854415,-34.37448414],[-58.918597,-34.374442],[-58.918823,-34.374303],[-58.919095,-34.374148],[-58.919246,-34.373916],[-58.91925501,-34.37387111],[-58.919298,-34.373657],[-58.91929204,-34.37362675],[-58.919258,-34.373454],[-58.919081,-34.373225],[-58.91899429,-34.37315932],[-58.918846,-34.373047],[-58.9187378,-34.37301439],[-58.918535,-34.372899],[-58.918381,-34.372767],[-58.918245,-34.372599],[-58.91816276,-34.37239588],[-58.918162,-34.372394],[-58.91817429,-34.37233087],[-58.91817917,-34.37230581],[-58.918199,-34.372204],[-58.918339,-34.372006],[-58.91859544,-34.37187262],[-58.91868823,-34.37183872],[-58.91902451,-34.37184795],[-58.919172,-34.371852],[-58.919579,-34.371908],[-58.920058,-34.372007],[-58.920441,-34.372086],[-58.920861,-34.372047],[-58.9210741,-34.37198236],[-58.921161,-34.371917],[-58.92124509,-34.37173464],[-58.92125,-34.371724],[-58.921214,-34.371547],[-58.92101,-34.371339],[-58.920779,-34.371078],[-58.920515,-34.370877],[-58.920146,-34.370696],[-58.919813,-34.37058],[-58.919345,-34.37055],[-58.918798,-34.370557],[-58.918508,-34.370546],[-58.918209,-34.370529],[-58.917948,-34.370505],[-58.917744,-34.370468],[-58.91763057,-34.37043852],[-58.917567,-34.370422],[-58.917429,-34.370329],[-58.917326,-34.370193],[-58.917223,-34.370008],[-58.917143,-34.369838],[-58.91713405,-34.36981375],[-58.91712753,-34.36979608],[-58.917064,-34.369624],[-58.917,-34.369419],[-58.916813,-34.369107],[-58.91674356,-34.36899033],[-58.91671718,-34.368946],[-58.91667646,-34.36881043],[-58.916708,-34.368661],[-58.916794,-34.368487],[-58.91684768,-34.36842173],[-58.916933,-34.368318],[-58.91698524,-34.36818578],[-58.917014,-34.368113],[-58.91712062,-34.36797551],[-58.91715563,-34.36796527],[-58.917242,-34.36794],[-58.917465,-34.367779],[-58.91770257,-34.36762747],[-58.917757,-34.367608],[-58.91783425,-34.36754348],[-58.917835,-34.367543],[-58.918008,-34.36745],[-58.917947,-34.367133],[-58.91780675,-34.36699175],[-58.91780576,-34.36699091],[-58.917631,-34.366842],[-58.917217,-34.366672],[-58.916795,-34.366546],[-58.916043,-34.366194],[-58.915668,-34.365996],[-58.915302,-34.36587],[-58.915035,-34.365808],[-58.914742,-34.365855],[-58.914542,-34.366015],[-58.914295,-34.366245],[-58.914069,-34.366498],[-58.913842,-34.366578],[-58.913542,-34.366612],[-58.913295,-34.366543],[-58.912961,-34.366379],[-58.912772,-34.366249],[-58.91242,-34.366155],[-58.911977,-34.365993],[-58.911816,-34.365894],[-58.91162,-34.3657],[-58.91153798,-34.36558021],[-58.911481,-34.365497],[-58.91145996,-34.36536237],[-58.911451,-34.365305],[-58.911493,-34.365166],[-58.911625,-34.364999],[-58.911676,-34.364801],[-58.91189,-34.364554],[-58.912044,-34.364307],[-58.912111,-34.36414],[-58.912129,-34.363952],[-58.91210692,-34.36382733],[-58.912095,-34.36376],[-58.91208676,-34.36369822],[-58.912073,-34.363595],[-58.911989,-34.363548],[-58.911901,-34.363422],[-58.911862,-34.363294],[-58.911755,-34.363149],[-58.911675,-34.363037],[-58.911525,-34.362906],[-58.911226,-34.362846],[-58.910901,-34.36288],[-58.910628,-34.362989],[-58.910452,-34.363112],[-58.910352,-34.363296],[-58.91009,-34.363498],[-58.90984162,-34.36356977],[-58.909827,-34.363574],[-58.90981307,-34.36356787],[-58.909593,-34.363471],[-58.909383,-34.363365],[-58.90935182,-34.36330808],[-58.90932,-34.36325],[-58.90930139,-34.3631011],[-58.909294,-34.363042],[-58.909215,-34.362842],[-58.909048,-34.362599],[-58.908816,-34.362371],[-58.90853,-34.362121],[-58.90840742,-34.36198713],[-58.908378,-34.361955],[-58.90836102,-34.36188589],[-58.90835405,-34.36185752],[-58.90834907,-34.36183728],[-58.90833983,-34.36174692],[-58.90834461,-34.3617142],[-58.908367,-34.361561],[-58.90845,-34.361401],[-58.908757,-34.361168],[-58.909076,-34.360979],[-58.909282,-34.360895],[-58.909372,-34.360775],[-58.90943164,-34.36059608],[-58.909436,-34.360583],[-58.909253,-34.360296],[-58.90918202,-34.36022957],[-58.909097,-34.36015],[-58.908898,-34.360118],[-58.908649,-34.360223],[-58.908368,-34.360338],[-58.90811115,-34.36030552],[-58.908107,-34.360305],[-58.907858,-34.360165],[-58.90775109,-34.35997095],[-58.907739,-34.359949],[-58.907734,-34.359716],[-58.907915,-34.359503],[-58.908262,-34.359334],[-58.908707,-34.359239],[-58.908971,-34.359144],[-58.909269,-34.358992],[-58.90937357,-34.35892435],[-58.909572,-34.358796],[-58.909817,-34.35868],[-58.910061,-34.358635],[-58.910277,-34.358587],[-58.91057,-34.358465],[-58.910781,-34.358327],[-58.911084,-34.358138],[-58.911423,-34.357967],[-58.911668,-34.357861],[-58.911868,-34.357765],[-58.912331,-34.357675],[-58.91254556,-34.357639],[-58.912635,-34.357624],[-58.91268318,-34.35760662],[-58.912818,-34.357558],[-58.913001,-34.357486],[-58.913161,-34.35741],[-58.913268,-34.357296],[-58.913388,-34.357069],[-58.913541,-34.356855],[-58.913683,-34.356653],[-58.913866,-34.356577],[-58.914106,-34.356539],[-58.914243,-34.356587],[-58.914477,-34.356711],[-58.9145788,-34.3568058],[-58.914637,-34.35686],[-58.91485362,-34.35694983],[-58.914936,-34.356984],[-58.915037,-34.357059],[-58.91516843,-34.35714887],[-58.915271,-34.357219],[-58.91536434,-34.35723945],[-58.915449,-34.357258],[-58.915636,-34.357266],[-58.915798,-34.357227],[-58.916016,-34.357031],[-58.916127,-34.356904],[-58.916177,-34.356797],[-58.91615705,-34.35665916],[-58.91610979,-34.35658254],[-58.916079,-34.35654],[-58.91599656,-34.3563802],[-58.91598071,-34.35634948],[-58.915933,-34.356257],[-58.915851,-34.356117],[-58.915744,-34.356034],[-58.91553,-34.355908],[-58.915301,-34.355832],[-58.91508843,-34.35573923],[-58.9149,-34.355657],[-58.914663,-34.355484],[-58.91457858,-34.35538528],[-58.914538,-34.355315],[-58.91453544,-34.3553042],[-58.91451954,-34.35523725],[-58.914505,-34.355176],[-58.9145499,-34.35504129],[-58.914552,-34.355035],[-58.914677,-34.354885],[-58.914825,-34.354749],[-58.915003,-34.354595],[-58.915265,-34.35441],[-58.91546,-34.354215],[-58.915626,-34.354053],[-58.915853,-34.353956],[-58.915994,-34.353762],[-58.91619,-34.353476],[-58.916379,-34.35322],[-58.916524,-34.353121],[-58.91666525,-34.35305851],[-58.916969,-34.353016],[-58.917054,-34.352997],[-58.917292,-34.352949],[-58.917579,-34.35274],[-58.917817,-34.352568],[-58.91787803,-34.35246036],[-58.91798,-34.352307],[-58.917999,-34.35213],[-58.917991,-34.351948],[-58.917929,-34.351764],[-58.91790738,-34.35170135],[-58.917861,-34.351567],[-58.917747,-34.351373],[-58.917592,-34.351126],[-58.917425,-34.350921],[-58.91736786,-34.35086618],[-58.917204,-34.350709],[-58.91713656,-34.35064123],[-58.917,-34.350504],[-58.916838,-34.350342],[-58.916645,-34.350132],[-58.916454,-34.350001],[-58.916251,-34.349903],[-58.916055,-34.349883],[-58.915803,-34.349928],[-58.915585,-34.350069],[-58.915343,-34.350111],[-58.915122,-34.350098],[-58.914893,-34.350046],[-58.914682,-34.349919],[-58.914559,-34.34975],[-58.91453612,-34.349638],[-58.914521,-34.349564],[-58.91452076,-34.34956005],[-58.91447,-34.349367],[-58.914457,-34.34912],[-58.914456,-34.348851],[-58.914517,-34.348674],[-58.914629,-34.348528],[-58.914773,-34.348422],[-58.914872,-34.348284],[-58.915093,-34.348105],[-58.915296,-34.348027],[-58.915469,-34.347966],[-58.915768,-34.347954],[-58.916,-34.347928],[-58.916169,-34.347857],[-58.916247,-34.3478],[-58.916341,-34.347655],[-58.916385,-34.347495],[-58.91636993,-34.34743986],[-58.9163524,-34.34737572],[-58.916341,-34.347334],[-58.916268,-34.347233],[-58.91611,-34.347113],[-58.915788,-34.346936],[-58.91569973,-34.34686497],[-58.91566,-34.346833],[-58.915625,-34.346707],[-58.91562262,-34.34658192],[-58.915651,-34.346506],[-58.91573184,-34.34641992],[-58.915759,-34.346391],[-58.915931,-34.346282],[-58.916167,-34.3462],[-58.916267,-34.346019],[-58.916277,-34.34584],[-58.91627543,-34.34583697],[-58.91623335,-34.34575606],[-58.91619672,-34.34568562],[-58.916186,-34.345665],[-58.91614784,-34.34564311],[-58.91605,-34.345587],[-58.915865,-34.34555],[-58.915511,-34.345635],[-58.915091,-34.345736],[-58.914693,-34.345841],[-58.914307,-34.345865],[-58.914035,-34.345802],[-58.913846,-34.345653],[-58.913753,-34.345494],[-58.9137,-34.345319],[-58.91366,-34.345162],[-58.91364516,-34.34509474],[-58.91363583,-34.34505244],[-58.913615,-34.344958],[-58.91358592,-34.34482826],[-58.913576,-34.344784],[-58.913596,-34.344601],[-58.91359749,-34.34459677],[-58.91364163,-34.34447201],[-58.913671,-34.344389],[-58.913799,-34.344225],[-58.91384272,-34.34419445],[-58.914048,-34.344051],[-58.914337,-34.343915],[-58.914619,-34.34381],[-58.914942,-34.343802],[-58.91526,-34.343825],[-58.915627,-34.343869],[-58.915907,-34.343871],[-58.916312,-34.343859],[-58.916678,-34.343816],[-58.9167509,-34.34376614],[-58.91690626,-34.34365987],[-58.916928,-34.343645],[-58.91693589,-34.34361377],[-58.916973,-34.343467],[-58.917059,-34.343245],[-58.91712,-34.34297],[-58.917162,-34.342678],[-58.917192,-34.342381],[-58.9172103,-34.34218449],[-58.917219,-34.342091],[-58.917216,-34.341924],[-58.91717,-34.341723],[-58.91711389,-34.34161938],[-58.91709197,-34.3415789],[-58.91705466,-34.34145791],[-58.917022,-34.341352],[-58.9169345,-34.34119515],[-58.916916,-34.341162],[-58.916764,-34.340857],[-58.91666476,-34.3406604],[-58.916658,-34.340647],[-58.91662,-34.340498],[-58.916688,-34.340243],[-58.91692,-34.340213],[-58.91714469,-34.34022814],[-58.917291,-34.340238],[-58.917539,-34.340154],[-58.91765274,-34.34006603],[-58.91766567,-34.34005603],[-58.917667,-34.340055],[-58.917739,-34.33988],[-58.91773995,-34.3398728],[-58.91777049,-34.33964088],[-58.917771,-34.339637],[-58.9177701,-34.33963375],[-58.917738,-34.339518],[-58.917584,-34.339383],[-58.91747,-34.339248],[-58.917248,-34.33905],[-58.91718277,-34.33896438],[-58.916565,-34.338729],[-58.916258,-34.338545],[-58.91622322,-34.33850858],[-58.91615988,-34.33844224],[-58.915962,-34.338235],[-58.915611,-34.337734],[-58.915156,-34.337043],[-58.915013,-34.336889],[-58.914735,-34.33662],[-58.91467638,-34.33655951],[-58.914484,-34.336361],[-58.914388,-34.33624],[-58.91436354,-34.33618129],[-58.914348,-34.336144],[-58.91434205,-34.33603567],[-58.914339,-34.33598],[-58.91438,-34.335816],[-58.914443,-34.335684],[-58.914632,-34.335467],[-58.914798,-34.335309],[-58.915014,-34.335173],[-58.915244,-34.335109],[-58.915523,-34.335088],[-58.915847,-34.33508],[-58.916463,-34.335004],[-58.91715,-34.334981],[-58.917639,-34.334958],[-58.917957,-34.334872],[-58.91826,-34.334675],[-58.91835,-34.334492],[-58.918377,-34.334212],[-58.918344,-34.334],[-58.918213,-34.333784],[-58.917932,-34.333506],[-58.917714,-34.333377],[-58.917515,-34.333305],[-58.91731943,-34.33329274],[-58.91718,-34.333284],[-58.91692771,-34.33330715],[-58.916646,-34.333333],[-58.916431,-34.333359],[-58.916199,-34.333342],[-58.91603889,-34.33327925],[-58.915977,-34.333255],[-58.91586293,-34.33318277],[-58.915838,-34.333176],[-58.91568156,-34.33305519],[-58.915557,-34.332959],[-58.915477,-34.332726],[-58.915471,-34.332512],[-58.915616,-34.332243],[-58.915693,-34.332085],[-58.915813,-34.331851],[-58.916001,-34.331492],[-58.91612,-34.331307],[-58.916165,-34.33112],[-58.916212,-34.33082],[-58.91625,-34.330467],[-58.916336,-34.33026],[-58.916465,-34.329992],[-58.916762,-34.329586],[-58.916983,-34.329235],[-58.917229,-34.32894],[-58.917403,-34.328473],[-58.91738911,-34.32834276],[-58.917353,-34.328004],[-58.91715443,-34.32755458],[-58.917053,-34.327325],[-58.916996,-34.327025],[-58.916966,-34.326583],[-58.916916,-34.325927],[-58.916808,-34.325671],[-58.91665595,-34.32548655],[-58.91663035,-34.32545549],[-58.916625,-34.325449],[-58.91661539,-34.32544517],[-58.91633061,-34.32533181],[-58.916208,-34.325283],[-58.915901,-34.325258],[-58.915004,-34.325344],[-58.913915,-34.325493],[-58.91356,-34.32552],[-58.913336,-34.325606],[-58.913009,-34.325828],[-58.912544,-34.326105],[-58.912318,-34.326247],[-58.912044,-34.326317],[-58.911903,-34.326271],[-58.9118019,-34.32616241],[-58.911768,-34.326036],[-58.91177,-34.325769],[-58.911833,-34.325514],[-58.911859,-34.325287],[-58.911959,-34.325101],[-58.912379,-34.324918],[-58.912837,-34.324756],[-58.91325,-34.324629],[-58.913669,-34.324532],[-58.914055,-34.324406],[-58.91433,-34.324242],[-58.91457273,-34.32399156],[-58.914582,-34.323982],[-58.914683,-34.323696],[-58.91466,-34.323447],[-58.914502,-34.323175],[-58.914271,-34.322846],[-58.914217,-34.322617],[-58.914209,-34.322272],[-58.91437,-34.321921],[-58.914804,-34.321521],[-58.914928,-34.321263],[-58.914986,-34.321016],[-58.914931,-34.320724],[-58.914812,-34.320487],[-58.91467977,-34.32041679],[-58.91465629,-34.32040432],[-58.914586,-34.320367],[-58.914304,-34.32031],[-58.91394,-34.320255],[-58.913653,-34.320301],[-58.913316,-34.320579],[-58.913063,-34.320875],[-58.912912,-34.321148],[-58.912822,-34.321349],[-58.912657,-34.32145],[-58.912399,-34.321443],[-58.912127,-34.321332],[-58.911953,-34.321144],[-58.9118768,-34.32097715],[-58.911837,-34.32089],[-58.91173881,-34.32075567],[-58.911655,-34.320641],[-58.911469,-34.320434],[-58.911134,-34.32029],[-58.91089047,-34.32026193],[-58.910839,-34.320256],[-58.91076698,-34.32029825],[-58.910539,-34.320432],[-58.910337,-34.320539],[-58.910037,-34.320542],[-58.909594,-34.320391],[-58.90939191,-34.32019403],[-58.909357,-34.32016],[-58.90934334,-34.3200624],[-58.909323,-34.319917],[-58.90927,-34.319655],[-58.909186,-34.319433],[-58.909044,-34.319204],[-58.908836,-34.31893],[-58.908648,-34.318656],[-58.908557,-34.31843],[-58.908654,-34.318184],[-58.908903,-34.318059],[-58.909186,-34.31806],[-58.909548,-34.31806],[-58.909982,-34.318045],[-58.9104,-34.317981],[-58.910625,-34.317794],[-58.910832,-34.31756],[-58.910966,-34.317313],[-58.910964,-34.31705],[-58.910836,-34.316806],[-58.910599,-34.31662],[-58.91038376,-34.3165586],[-58.910197,-34.316415],[-58.908796,-34.315832],[-58.90856013,-34.31569581],[-58.90855758,-34.31569434],[-58.908557,-34.315694],[-58.908439,-34.315575],[-58.907969,-34.314755],[-58.90787108,-34.31459533],[-58.90777018,-34.3144308],[-58.907701,-34.314318],[-58.907575,-34.313982],[-58.907629,-34.313658],[-58.907842,-34.313306],[-58.908118,-34.313028],[-58.908198,-34.312784],[-58.908179,-34.312575],[-58.90814074,-34.31249308],[-58.90811177,-34.31243105],[-58.908094,-34.312393],[-58.907801,-34.312218],[-58.907485,-34.312189],[-58.907113,-34.312212],[-58.906707,-34.312345],[-58.906345,-34.312459],[-58.906006,-34.312538],[-58.905614,-34.312444],[-58.905179,-34.312259],[-58.904767,-34.312046],[-58.90476233,-34.31204179],[-58.90469282,-34.31197915],[-58.904605,-34.3119],[-58.904541,-34.311746],[-58.904566,-34.311528],[-58.90493,-34.311242],[-58.905195,-34.311018],[-58.905274,-34.310873],[-58.90525977,-34.31084468],[-58.90522445,-34.31077441],[-58.90498352,-34.31070709],[-58.90457153,-34.31070328],[-58.90391541,-34.31076813],[-58.90359879,-34.31086731],[-58.90333557,-34.31100082],[-58.90311432,-34.31115723],[-58.90272522,-34.31143951],[-58.90239716,-34.31138992],[-58.90226364,-34.31122971],[-58.90226746,-34.31093597],[-58.90233994,-34.31072998],[-58.90267182,-34.3102951],[-58.90291214,-34.31007385],[-58.90315247,-34.3098259],[-58.90330506,-34.30947113],[-58.90350342,-34.30915832],[-58.90353775,-34.3088913],[-58.9034047,-34.30868182],[-58.90332999,-34.30867322],[-58.903302,-34.30867],[-58.90318897,-34.30865031],[-58.902992,-34.308616],[-58.902743,-34.308621],[-58.90267267,-34.30864895],[-58.902514,-34.308712],[-58.902203,-34.30883],[-58.901956,-34.309081],[-58.901803,-34.309366],[-58.901783,-34.309704],[-58.901761,-34.309929],[-58.901615,-34.310172],[-58.901517,-34.310404],[-58.90151955,-34.31044165],[-58.90154,-34.310743],[-58.901511,-34.310957],[-58.901265,-34.311097]]]]}}