{"type":"Feature","properties":{"slug":"puerto-madero","name":"Puerto Madero","region":"caba","sort":12},"geometry":{"type":"Polygon","coordinates":[[[-58.35138613946574,-34.6193571308592],[-58.351401352203176,-34.61935629657919],[-58.351401352203446,-34.61935629657917],[-58.35140135227231,-34.61935629657375],[-58.351405015306426,-34.619356007587704],[-58.35140587876898,-34.61935593926219],[-58.35140658020005,-34.61935588412929],[-58.35140975389152,-34.61935563374861],[-58.351410318096086,-34.61935558907634],[-58.351412191533726,-34.61935544115908],[-58.3514130749414,-34.61935537174237],[-58.3514151147122,-34.61935521081952],[-58.351415424794226,-34.619355186318714],[-58.35141671046543,-34.61935508473612],[-58.35141746133816,-34.619355025688],[-58.35142007189778,-34.61935481973403],[-58.35142008766783,-34.61935481921061],[-58.35143721359631,-34.61935346756371],[-58.35143839136341,-34.61935337471271],[-58.3514385483333,-34.61935336231986],[-58.351438998671306,-34.6193533266783],[-58.351438998699926,-34.619353326676055],[-58.3514693332924,-34.619364231504],[-58.35151993493421,-34.61939345219195],[-58.35152290243626,-34.61939516581985],[-58.35165564401363,-34.61947181925944],[-58.35167776457914,-34.619484429824716],[-58.35168975603018,-34.61949126624781],[-58.351786765818076,-34.61954657127575],[-58.35192292259023,-34.61962419696412],[-58.351923270152184,-34.61962439469222],[-58.35198303163371,-34.61962704983372],[-58.3521732528969,-34.61963550009385],[-58.35221051170305,-34.61963715478056],[-58.35221965822539,-34.61963756153665],[-58.35222016869892,-34.61963742408437],[-58.35255312264363,-34.619547672345334],[-58.352569820954876,-34.61954317131243],[-58.35257011659912,-34.619543091480445],[-58.352570648933884,-34.61954294785529],[-58.352570996819516,-34.61954285426077],[-58.352571019663266,-34.61954289484536],[-58.35257123962267,-34.61954309698181],[-58.35257130375322,-34.61954315572381],[-58.352571368153974,-34.619543215165436],[-58.35258061838564,-34.61956010165171],[-58.352589077560296,-34.61957554345305],[-58.35269850298577,-34.619775295350834],[-58.35275605886077,-34.61977049608335],[-58.35291985095277,-34.61975768289463],[-58.35293614285678,-34.61975546842589],[-58.352938063865025,-34.61975151293449],[-58.352938118390405,-34.61975150757531],[-58.353031156246985,-34.61962354604381],[-58.35309082367113,-34.61954148249532],[-58.353523015718906,-34.61940939518165],[-58.353523045167826,-34.61940938618807],[-58.3535230866013,-34.61940937356785],[-58.35352314979826,-34.61940940697722],[-58.35352322180379,-34.6194094230718],[-58.3535234452003,-34.6194094721452],[-58.35359826786279,-34.619449340681605],[-58.35375422103413,-34.61953243844239],[-58.35389681389262,-34.61960841713699],[-58.35391927270924,-34.619620383861196],[-58.35396295273552,-34.619643657942774],[-58.35407905758946,-34.61970552182397],[-58.354079318004544,-34.619705660875645],[-58.35407953755245,-34.6197053645035],[-58.35425496112261,-34.619468550165074],[-58.35425497973363,-34.619468524963146],[-58.35425512483615,-34.61946832939839],[-58.35425530037362,-34.61946833766805],[-58.354277485329554,-34.61947049295849],[-58.35429366206559,-34.619472064165286],[-58.35482169796471,-34.61952335686452],[-58.35505192843565,-34.61954572186328],[-58.355070353246084,-34.61954751130245],[-58.355145559185225,-34.61955481729848],[-58.35514572096921,-34.61955450104385],[-58.355206411665044,-34.61943507715091],[-58.35521225765492,-34.619422942952085],[-58.3552179417854,-34.61941114482288],[-58.35540035839743,-34.61903251824166],[-58.35543301175164,-34.618964741471515],[-58.35550040975842,-34.61882484761465],[-58.35563083188343,-34.61853229544584],[-58.35581489828777,-34.61811940943076],[-58.355856470937645,-34.61801448569546],[-58.355894305631246,-34.617918997414435],[-58.35596030897388,-34.61775241549287],[-58.35600358896198,-34.61764318265423],[-58.35601620755281,-34.617610896798965],[-58.3560220275608,-34.61761699551176],[-58.35602919773519,-34.61762450975947],[-58.356039135744,-34.61763492455231],[-58.356044683675535,-34.61764073898686],[-58.356521635686555,-34.6181405661734],[-58.35653478168834,-34.61815434240872],[-58.357397754183225,-34.61905868350803],[-58.35827384302216,-34.61997674298509],[-58.359460671549016,-34.62122038662596],[-58.35950765255382,-34.62126961534986],[-58.35951876222175,-34.62128125668016],[-58.35986921290735,-34.621648474694744],[-58.35987078731428,-34.62165012398757],[-58.36003271599528,-34.62181979823344],[-58.36003540675691,-34.62182261751457],[-58.36012281152889,-34.62191420265164],[-58.36012323208061,-34.62191464366683],[-58.36016908245677,-34.62196268668264],[-58.36038071488959,-34.62218444044943],[-58.360392235304616,-34.62219651115077],[-58.360663382541794,-34.6224806224729],[-58.36066350995437,-34.62248075599005],[-58.36087876305581,-34.62270629943944],[-58.36095767950036,-34.62278898814589],[-58.36097485201769,-34.6228069813462],[-58.36123813184342,-34.623082843096135],[-58.36123927530531,-34.6230840420381],[-58.36127340278667,-34.62311980101604],[-58.361278333839074,-34.62312496756437],[-58.361291541394166,-34.623138807272014],[-58.36144015001722,-34.62329451671987],[-58.3615570046232,-34.62341695434095],[-58.361575081336966,-34.62343589466597],[-58.36159249256625,-34.62345413770244],[-58.36160323794756,-34.62346539636439],[-58.361629262321756,-34.62349266343257],[-58.36165569727364,-34.62352036171524],[-58.361666585000634,-34.62351326129932],[-58.361783827292705,-34.62363610418231],[-58.361793813671724,-34.62364656714437],[-58.36187529586174,-34.62373194156103],[-58.36192884456553,-34.62378804799246],[-58.36192952541572,-34.62378876234641],[-58.361929633022555,-34.62378887524845],[-58.361948863136156,-34.62380902350768],[-58.36196930208451,-34.62383043835953],[-58.36197125869689,-34.62383248844389],[-58.36200708715752,-34.62387002849088],[-58.36199619941167,-34.623877129838164],[-58.362021896242894,-34.623904054009934],[-58.36233664674461,-34.62423383565048],[-58.36242369834929,-34.62432504377598],[-58.36244584190133,-34.62434824476445],[-58.36246809001347,-34.62437155580832],[-58.36249815472175,-34.62440305587112],[-58.36260546468199,-34.624515488786564],[-58.36265672301735,-34.624569193425785],[-58.362836419466426,-34.624757468180874],[-58.362935259697,-34.624861026345506],[-58.36307817930633,-34.62501076667449],[-58.363201122687805,-34.62513957573468],[-58.36326035354605,-34.62513639544557],[-58.36336081862032,-34.62513100438643],[-58.36346037856143,-34.625125662081736],[-58.36346055194598,-34.625125657716545],[-58.36352656160801,-34.624994371474884],[-58.364158436612335,-34.6246918550707],[-58.364809060448046,-34.624321744132644],[-58.36550581992286,-34.62392538132948],[-58.36579132236112,-34.62399168476058],[-58.36584530197631,-34.62379912000557],[-58.365886934434144,-34.623309924569725],[-58.365935794679835,-34.62273578425293],[-58.36594169624673,-34.62266643831765],[-58.36597197652034,-34.622399528967875],[-58.366072526671026,-34.62151321882173],[-58.36619577952948,-34.62042661500818],[-58.366329356674626,-34.61924938318391],[-58.366456905985444,-34.6181246115076],[-58.366597705576716,-34.616883510982305],[-58.36673996253526,-34.61562966421397],[-58.36686051240289,-34.61458171841913],[-58.36699510255571,-34.61339645746859],[-58.36708399177779,-34.61260208982229],[-58.36713280696699,-34.61216584633402],[-58.367264636604624,-34.61100311704054],[-58.36762346485009,-34.6078540947853],[-58.36764462842153,-34.60766835737564],[-58.36773011870632,-34.60691807523731],[-58.36773150092235,-34.60690584043083],[-58.367926639762125,-34.605179049550706],[-58.368053031568884,-34.60406082238249],[-58.36811737177555,-34.60349134186359],[-58.36819120614775,-34.6028378137938],[-58.36831888156671,-34.60170803699531],[-58.36839501939852,-34.601034424917216],[-58.36863696833604,-34.60044080114444],[-58.369077897009,-34.59935901314343],[-58.36951785003697,-34.59832620408328],[-58.36889066191981,-34.598345174938274],[-58.368869352190124,-34.59834581919167],[-58.3688226428217,-34.598351837889396],[-58.36812186957484,-34.598442130527474],[-58.367986245292514,-34.59840681240611],[-58.367984059918,-34.59840563975151],[-58.3677832562577,-34.598297919614666],[-58.36736497419749,-34.598264703986615],[-58.36678798129423,-34.59831470971042],[-58.366612058702614,-34.598329955917265],[-58.36635819353601,-34.59831729143326],[-58.366085923426034,-34.59830370763309],[-58.36596656057131,-34.59829775233416],[-58.365074386087414,-34.59823259924799],[-58.36409433146843,-34.598161101536384],[-58.36386739661262,-34.59814112790318],[-58.36373645451173,-34.59810932982939],[-58.363239410879366,-34.59806631753711],[-58.36349987444694,-34.59732226785961],[-58.36350508973229,-34.59730736800658],[-58.36353785160485,-34.597191783763016],[-58.363437795770324,-34.597169356560286],[-58.36345172323722,-34.59713048870585],[-58.36328109797689,-34.597090362772825],[-58.36293526368737,-34.596933510750844],[-58.362123863969394,-34.596558920721954],[-58.3612268750134,-34.596150261072644],[-58.36101488044868,-34.59605352137029],[-58.36054900486943,-34.595840925182536],[-58.36012790630346,-34.595647944878294],[-58.359257451874186,-34.59524922321292],[-58.35853509351516,-34.595188862496784],[-58.35781849925939,-34.59515438053009],[-58.35769230708235,-34.59514830757202],[-58.357328011820435,-34.595097081204806],[-58.3573269164173,-34.59509700994258],[-58.35723872823349,-34.595091322870964],[-58.357108216064354,-34.59508290726366],[-58.356488933776454,-34.59503450590226],[-58.35644888912052,-34.59504385269384],[-58.35631675767924,-34.59506745425748],[-58.35625846192807,-34.59508464644989],[-58.35622030728514,-34.595088784759525],[-58.35614849504389,-34.59509657311503],[-58.35603982466916,-34.595114911738676],[-58.355937112463614,-34.59512559611926],[-58.355832668339055,-34.59515645002311],[-58.355731127858206,-34.595193345928706],[-58.35544208107028,-34.59531620889799],[-58.35538788897609,-34.59535954375395],[-58.35533665974372,-34.59540527538538],[-58.355288547247476,-34.595453266915875],[-58.3552044835596,-34.595546045317654],[-58.35511399931613,-34.595634597507285],[-58.355017405567835,-34.59571862086869],[-58.35496455147652,-34.595759512964044],[-58.35491503188452,-34.59579782542223],[-58.35486019675747,-34.59583552501101],[-58.35485934554756,-34.59583611022418],[-58.35480722852589,-34.59587194103819],[-58.35469436644495,-34.59594071473276],[-58.35454564185904,-34.596015796070155],[-58.354400336158236,-34.59609532519063],[-58.35428235446115,-34.596165161479625],[-58.35425864458809,-34.596179195912796],[-58.35412075586589,-34.5962672948387],[-58.35398685653609,-34.596359504963196],[-58.35395261861794,-34.59637631646496],[-58.35354629523764,-34.59663506376211],[-58.353442385181246,-34.59669698000774],[-58.35330085852175,-34.59685187913604],[-58.3530525666311,-34.59704484159514],[-58.353040117800866,-34.59706812580511],[-58.35289489814362,-34.597339714759954],[-58.35281548040499,-34.597488240522566],[-58.3526393128811,-34.59766457215803],[-58.3523880196584,-34.59794339097962],[-58.35211100706017,-34.59804092425822],[-58.35196374093359,-34.598171966738754],[-58.35179328680746,-34.59838646224608],[-58.35163734303262,-34.5985341907317],[-58.3515304937063,-34.59863426343967],[-58.3513313015082,-34.598770026992526],[-58.351158047783926,-34.598920124132526],[-58.35095020434574,-34.59905349394182],[-58.35085496823451,-34.59909633644199],[-58.3507834715073,-34.59912212365039],[-58.35067824379587,-34.59916603366682],[-58.3505894199361,-34.599243962516795],[-58.350497054921455,-34.59929634713673],[-58.350459893147125,-34.59934414673474],[-58.3503265871765,-34.59951561086168],[-58.350306409305595,-34.59953097945115],[-58.35021398669086,-34.599601367901],[-58.35001462274585,-34.59986114944989],[-58.349878920188104,-34.59996596421962],[-58.34973739110232,-34.60011370363008],[-58.349558405128676,-34.60023278781911],[-58.34935061232916,-34.60032560986396],[-58.34877882264922,-34.60084023800477],[-58.34861432268403,-34.60090924869126],[-58.34857453663146,-34.600953623437036],[-58.348416988319194,-34.601029508323705],[-58.348331896620486,-34.60107470298552],[-58.348263579920356,-34.6011109875261],[-58.34814838794994,-34.60119620654748],[-58.34800412339784,-34.60128840023487],[-58.347900891126244,-34.60141585741693],[-58.34779258148466,-34.601523080899526],[-58.34761507329086,-34.60161235088618],[-58.34749377402768,-34.60172671636654],[-58.34736269403995,-34.601822062351204],[-58.34730306887494,-34.60188667456809],[-58.34724871361087,-34.601935403310954],[-58.34722214626828,-34.60196419288142],[-58.34711794803709,-34.602087913876346],[-58.34703330924113,-34.602233164040285],[-58.34686305339833,-34.60231554125158],[-58.34682437429104,-34.60233872017849],[-58.346766258328856,-34.60243152308757],[-58.346751425989424,-34.60272486571837],[-58.34672105260288,-34.602755945657556],[-58.34666037563306,-34.60281803256431],[-58.34665635557405,-34.60286646056199],[-58.346673984551,-34.602881513753516],[-58.346674558221174,-34.60288211194423],[-58.34667524485819,-34.60288282719475],[-58.34671079274714,-34.602906088325234],[-58.346727892160146,-34.603053975632406],[-58.34666133568767,-34.60320893757445],[-58.34664683741819,-34.60326377971126],[-58.34658890312136,-34.60344021539725],[-58.346631955560866,-34.60359289784838],[-58.34656831864636,-34.60372162755175],[-58.34653917491209,-34.603936250607084],[-58.346547717340606,-34.604014964575086],[-58.34647245262764,-34.604208078821294],[-58.346481002790476,-34.604282022476795],[-58.34639417373252,-34.60449420597524],[-58.34636513516608,-34.604632508437525],[-58.34633757160588,-34.60472172270284],[-58.3463349276434,-34.6047336306544],[-58.34633348817697,-34.60473493941507],[-58.34632167241209,-34.60477318312329],[-58.34624405621861,-34.60481625070035],[-58.346180182435276,-34.60488275755167],[-58.34615656151023,-34.60491472090242],[-58.346116222250195,-34.60495812238106],[-58.34609792107855,-34.60497968677563],[-58.346083612135814,-34.604998126042254],[-58.34610762276085,-34.6050255901675],[-58.34611960203635,-34.605044668531775],[-58.34611236232413,-34.60506553037816],[-58.34609149892582,-34.60508323359011],[-58.34609620868135,-34.60511402393631],[-58.34610190797653,-34.6051224245026],[-58.34611228275049,-34.605122174700966],[-58.346117306798035,-34.60513887474598],[-58.346131695197926,-34.60516273836267],[-58.34613224628586,-34.60516714210073],[-58.34614802097342,-34.60519039341195],[-58.34613622573144,-34.605374028597026],[-58.34617365980116,-34.6054193798747],[-58.346158923032206,-34.60564355724654],[-58.346124108819616,-34.605786624399016],[-58.346115136664544,-34.60601319244762],[-58.34608904984632,-34.60610379805373],[-58.346068583669414,-34.6062993488699],[-58.34598525038663,-34.60647483607704],[-58.34597447501254,-34.606509556297894],[-58.34595022008688,-34.60655097583815],[-58.34588051566514,-34.60670939113965],[-58.34574469365506,-34.60688813649761],[-58.34562625088957,-34.607014427658875],[-58.3452076869719,-34.60723582955022],[-58.34515977017395,-34.60728373875723],[-58.34511236313545,-34.60733113821238],[-58.344930456848424,-34.60745975235417],[-58.344780365136714,-34.607528771756755],[-58.34470550610241,-34.607586324136534],[-58.34468290074158,-34.607598448457274],[-58.34460711874804,-34.607652624406356],[-58.34400383270256,-34.60794777771781],[-58.34361105909356,-34.60828129455787],[-58.34345515084863,-34.608381311873664],[-58.3432270600979,-34.60852895844213],[-58.34305957079837,-34.608657584852125],[-58.342684097364994,-34.60899111570975],[-58.34263036397778,-34.60903443003668],[-58.342482098348945,-34.609153946169954],[-58.342429959102255,-34.60919597521385],[-58.34221126119388,-34.60936826588504],[-58.34202572211123,-34.60946985106024],[-58.341722428498485,-34.60975336501321],[-58.34162007840583,-34.60980283547933],[-58.34161489840567,-34.60980025291829],[-58.341525361950936,-34.60983929468358],[-58.341471292246815,-34.60987475035462],[-58.34141316092575,-34.609931395236714],[-58.34128636791876,-34.61008683200916],[-58.34124669772133,-34.610143971220616],[-58.34122294407341,-34.61021215882821],[-58.34104579361816,-34.610439362897374],[-58.34101488705456,-34.61046189988031],[-58.341014239323265,-34.61047983208494],[-58.34086724732706,-34.61066835461807],[-58.34081901993767,-34.610884614602085],[-58.34079868032432,-34.610984765396736],[-58.340743507916464,-34.61123275105768],[-58.34070871886758,-34.6113507741943],[-58.340552185352045,-34.6118693569993],[-58.34042614416854,-34.612248447591604],[-58.34033928785002,-34.612463010704694],[-58.340278265965004,-34.61276346094607],[-58.340173836510914,-34.61315688214789],[-58.340058003207155,-34.61367026978056],[-58.33998269815521,-34.61387530453055],[-58.33994166611337,-34.61431172053666],[-58.33994418058527,-34.614562149167746],[-58.33986582955643,-34.61487450645146],[-58.339851151763966,-34.61504621202226],[-58.33985112775768,-34.61566781915369],[-58.33987707464778,-34.61609972445709],[-58.339971774119846,-34.61625679159276],[-58.33998642805592,-34.616281095150285],[-58.34014200055175,-34.616421968370844],[-58.34028966842063,-34.616549612098055],[-58.34028966842063,-34.616549612098055],[-58.340450282433,-34.61668844578997],[-58.34045098706631,-34.616688993661036],[-58.34067158476507,-34.61686038971786],[-58.34067331300857,-34.616861822007465],[-58.340718261518056,-34.616899073261],[-58.34076206121985,-34.61690877661255],[-58.340854933601385,-34.61694389474389],[-58.34115278623445,-34.61702138576532],[-58.34125530587002,-34.61703687814791],[-58.3415420326851,-34.617062811011074],[-58.34172584102368,-34.61707309405356],[-58.342094203358094,-34.61707728178495],[-58.342278282976494,-34.61707118059461],[-58.3424619800791,-34.61705962503855],[-58.34263634034159,-34.617084346575915],[-58.34272114141455,-34.61710534881796],[-58.34288322348943,-34.61716395386667],[-58.34303178468871,-34.61724335878114],[-58.343261158594494,-34.61731817861121],[-58.34349348734085,-34.617386486191556],[-58.34372849948945,-34.617448201913994],[-58.34397714836896,-34.617520591363984],[-58.34426187509022,-34.61760348342267],[-58.344636321410505,-34.617710099359485],[-58.344862487949804,-34.61773245468687],[-58.34501367634897,-34.61771856972116],[-58.34527956501875,-34.617614461742846],[-58.34539805135759,-34.61754871383488],[-58.34553216292245,-34.61750839961845],[-58.3456740588389,-34.617495876899376],[-58.34580529381664,-34.6175348520706],[-58.34594355622442,-34.617549839301915],[-58.346082509602645,-34.61754015282697],[-58.34618544312165,-34.6175539710945],[-58.34672340969373,-34.6174313559264],[-58.347025913499806,-34.61738963345581],[-58.34717908191375,-34.617360960462996],[-58.347292600510315,-34.61731039616883],[-58.347292916158445,-34.61730910410985],[-58.34729772888265,-34.617309076941716],[-58.34742334542081,-34.61728061772776],[-58.34749929886995,-34.61725096554836],[-58.347537963210826,-34.617217945395616],[-58.347610208518134,-34.61718816703492],[-58.34761095254955,-34.617170572035754],[-58.34764367662385,-34.61715331654633],[-58.34772449892008,-34.6171200036708],[-58.34781402464586,-34.6170509225495],[-58.34792370458313,-34.61701048138944],[-58.347932229556875,-34.61701149633708],[-58.348004466178494,-34.61702009836566],[-58.348008558259664,-34.61701925670168],[-58.34811989293779,-34.61699635674613],[-58.34822377960135,-34.61697260503343],[-58.34829884134812,-34.61693213087515],[-58.34839694143958,-34.61692029753477],[-58.34840339973481,-34.6169208859344],[-58.34853752602399,-34.61693311193582],[-58.34853752602399,-34.61693311193582],[-58.348537526024,-34.61693311193582],[-58.348540019598886,-34.61693232463822],[-58.34857002867319,-34.61692284559426],[-58.348653694942065,-34.61691815393891],[-58.348656126770194,-34.61691865921626],[-58.34874598345071,-34.61693732097753],[-58.348760174326344,-34.61693823691854],[-58.34885326433917,-34.616944245312744],[-58.348853416100724,-34.61694588534289],[-58.348918024943885,-34.616976361762624],[-58.34900904677861,-34.61698246773978],[-58.349172896827994,-34.616985631468445],[-58.34921290888269,-34.61701577223658],[-58.34931846268447,-34.61704597424626],[-58.34941675059311,-34.617064128044916],[-58.34948591298834,-34.61707924426092],[-58.349489517216576,-34.61710634063161],[-58.349540412005055,-34.61716659478632],[-58.34962777646663,-34.617184738228126],[-58.34970785443848,-34.61720588515709],[-58.34975148751026,-34.61725108079026],[-58.3498533760146,-34.61729934092977],[-58.34997342982175,-34.617377721201315],[-58.35004986275634,-34.61740187485337],[-58.35007162424358,-34.617465112069276],[-58.35016623891,-34.617507344526686],[-58.35017709316058,-34.61755853027104],[-58.350184224515694,-34.617669919242],[-58.35022783767676,-34.61773016635317],[-58.35018764522652,-34.61783248044654],[-58.35015847036518,-34.6178655670647],[-58.35014385637094,-34.61790167751658],[-58.35015833556528,-34.617964907957],[-58.35018738794735,-34.618022131240764],[-58.35017995842152,-34.618130496367826],[-58.3502053941184,-34.61816965428976],[-58.350225213841284,-34.61821116955621],[-58.350227567751034,-34.61821127715191],[-58.35015181120184,-34.618252333468],[-58.350051250117836,-34.61823756595272],[-58.34999319121858,-34.61820434451833],[-58.34992709854435,-34.61816652607361],[-58.349927098544335,-34.61816652607361],[-58.349927098544335,-34.61816652607361],[-58.34979982038545,-34.61822021253063],[-58.349847367733275,-34.618323104178614],[-58.34986766040566,-34.61836701765487],[-58.34986938992902,-34.61836844981523],[-58.34991789498997,-34.618408640509884],[-58.349988834172756,-34.61845272902869],[-58.35010712202843,-34.61848463279688],[-58.35010713559965,-34.61848471416152],[-58.350107290749605,-34.61848564434573],[-58.350112509160766,-34.618516968094],[-58.35012110470291,-34.61856855381862],[-58.350121794170526,-34.61857269162194],[-58.34997793938646,-34.61864608502925],[-58.34997367686602,-34.618721740780664],[-58.35025463186218,-34.61878314381273],[-58.350256142691585,-34.618781025976475],[-58.35034354891332,-34.618658495914474],[-58.35041456138086,-34.618648779446886],[-58.35053601065746,-34.61853149815511],[-58.35054595292308,-34.61853277203598],[-58.350728266000246,-34.61855613302088],[-58.3506926640376,-34.61863191582115],[-58.350550589568016,-34.61868803584954],[-58.35052335438829,-34.618722022922185],[-58.350521060620565,-34.61872488533797],[-58.35051779422021,-34.61872896151136],[-58.35040279203193,-34.61884613877444],[-58.35037570948102,-34.61893978016405],[-58.35044005101626,-34.61900197908199],[-58.350446616253834,-34.6190083256855],[-58.35044690831898,-34.61900836963846],[-58.35057380873174,-34.61902746683282],[-58.35057380873251,-34.619027466833664],[-58.35057509732588,-34.619028833121],[-58.35059160712792,-34.6190463383538],[-58.3506712798447,-34.6191308146679],[-58.35067128215902,-34.61913081712173],[-58.35068145736014,-34.61916887422879],[-58.35068305524135,-34.61917485059254],[-58.35083096424555,-34.61917987904822],[-58.35103830025808,-34.61919764859846],[-58.35115279113323,-34.61921549653611],[-58.351224318057554,-34.61922891859672],[-58.35125192082548,-34.61929763208328],[-58.351257519667705,-34.619314678536945],[-58.351258207582944,-34.61931677299002],[-58.351265711970676,-34.61933962112939],[-58.3512713393256,-34.61935665770833],[-58.35127133932558,-34.61935665770833],[-58.35127133932559,-34.61935665770834],[-58.3512713396992,-34.619356657703484],[-58.351292126318086,-34.61935638834207],[-58.35133077794014,-34.61935588647474],[-58.351355883757165,-34.619356125058985],[-58.351368303267314,-34.619356537925654],[-58.351368303267606,-34.61935653792564],[-58.35138613946574,-34.6193571308592]],[[-58.36448404935957,-34.612403923037775],[-58.364489450670604,-34.61240014505341],[-58.364495982826746,-34.6123952475193],[-58.36450035576059,-34.61238892128813],[-58.36450446185679,-34.61238235956999],[-58.36450687508394,-34.61237644820775],[-58.36450963063992,-34.61236870904244],[-58.36451127987657,-34.61236071297793],[-58.36453975878165,-34.612098333511746],[-58.36474874780906,-34.61211647773018],[-58.36472128281345,-34.61235730600875],[-58.364719944583165,-34.61236416022803],[-58.364718551030705,-34.61237262073335],[-58.36471864046064,-34.612378131187306],[-58.36471848567134,-34.612382718389576],[-58.364718786346344,-34.61239029957638],[-58.364720027336176,-34.612394688692646],[-58.36472205385061,-34.61240047384205],[-58.364725111199625,-34.612408578277055],[-58.36472961882978,-34.612414650279774],[-58.36473415916184,-34.61241980556441],[-58.36474121331211,-34.61242433008273],[-58.36474885264729,-34.61242817810679],[-58.3647545889598,-34.61243060575785],[-58.36476227380274,-34.61243284928989],[-58.36477301350004,-34.61243516289506],[-58.36478434001091,-34.61243634388797],[-58.36517780503206,-34.612468162907184],[-58.365424403718826,-34.61249120478113],[-58.36542968482378,-34.61249134693509],[-58.365435774612756,-34.61249174213519],[-58.36544041468406,-34.6124937037418],[-58.365444810260385,-34.61249497015719],[-58.365450036328426,-34.61249648783331],[-58.36545603838846,-34.61249917437212],[-58.36546117617463,-34.6125025254656],[-58.36546544151582,-34.61250700083168],[-58.36546970549858,-34.6125117051572],[-58.3654725854193,-34.61251591349311],[-58.3654743696537,-34.61252009120349],[-58.3654750140526,-34.61252469707589],[-58.3654756908751,-34.6125286160921],[-58.36547574874055,-34.612534123815834],[-58.36547467767176,-34.6125400606117],[-58.36547359516297,-34.612546455319865],[-58.36547186045029,-34.61255489753166],[-58.36517180076372,-34.615181265468195],[-58.36510642525337,-34.61572079280773],[-58.36490011676209,-34.617535875550324],[-58.364896546975466,-34.617557145267966],[-58.364896522546566,-34.61756952984974],[-58.36489443981874,-34.61757522874618],[-58.36489265691833,-34.61758001654939],[-58.36488751803461,-34.61758566430372],[-58.364881859600416,-34.61758992976269],[-58.364876499635145,-34.617593511284866],[-58.36487004416464,-34.61759592819043],[-58.3648652942125,-34.61759722600746],[-58.36485750990313,-34.61759755595558],[-58.36484640530035,-34.61759714496111],[-58.364836153047776,-34.61759605949047],[-58.36422746135839,-34.617550054914574],[-58.364218017043555,-34.617549900312966],[-58.364205550920055,-34.61754831901332],[-58.364196958688105,-34.617547718899615],[-58.364187769507524,-34.617548485753545],[-58.36418023924356,-34.61754973711552],[-58.36417212320477,-34.61755212739517],[-58.36416403006327,-34.6175536000479],[-58.36415640003245,-34.61755897802542],[-58.36414966705824,-34.61756184898271],[-58.364142834589124,-34.61756861759635],[-58.36413770710227,-34.617573808308634],[-58.36413396404376,-34.61757925074075],[-58.364130983930764,-34.61758768740676],[-58.364099601852246,-34.61786169699354],[-58.36388827477905,-34.617846528051786],[-58.36391697366938,-34.61759128118139],[-58.36391823736734,-34.617584880330206],[-58.36391898017035,-34.61757732433639],[-58.36391775277001,-34.6175706528328],[-58.36391597176172,-34.6175637438049],[-58.36391390345384,-34.617557288858265],[-58.36390883378851,-34.617548719440705],[-58.36390317780228,-34.617541745057494],[-58.3638977319651,-34.61753684050427],[-58.36389199692048,-34.617533076010716],[-58.36388596367311,-34.61752976558924],[-58.363878534273255,-34.617526893020916],[-58.36386967846706,-34.61752514155674],[-58.36386026714298,-34.61752384034881],[-58.363853059617504,-34.61752326207221],[-58.36321713185663,-34.61747772332655],[-58.36320659097169,-34.61747732075806],[-58.363198542546925,-34.617476958093526],[-58.36319165560278,-34.617474551962346],[-58.36318504669009,-34.617472149664586],[-58.363179832839855,-34.617469312224436],[-58.36317462935395,-34.61746601597006],[-58.363169250373296,-34.61745904718867],[-58.363166040280575,-34.61745371986928],[-58.3631634181544,-34.61744725544111],[-58.36316391872304,-34.61743808931782],[-58.36316497152923,-34.61742939148452],[-58.36316607070141,-34.617418401379624],[-58.36335847283929,-34.6157195987256],[-58.363733992990845,-34.61241480902847],[-58.36373540818012,-34.612405660768594],[-58.363736679755526,-34.612392606537796],[-58.36373779648621,-34.6123841404094],[-58.36374047523898,-34.61237869351039],[-58.36374260015023,-34.6123732335395],[-58.36374551193261,-34.61236894064838],[-58.363750947351456,-34.61236401611808],[-58.363758265874075,-34.61236074272289],[-58.36376528512262,-34.61235792159605],[-58.363778649283226,-34.6123563937742],[-58.363791393085556,-34.61235668901794],[-58.36380795707581,-34.61235890830222],[-58.364430349888,-34.612409795552274],[-58.36444249597978,-34.612411224230236],[-58.364452450143084,-34.61241214363148],[-58.364466080045666,-34.61241085212176],[-58.36447535743068,-34.61240693575502],[-58.36448404935957,-34.612403923037775]],[[-58.36525803315869,-34.60548736945927],[-58.36526514924429,-34.60548417332896],[-58.36527120052387,-34.605479794579495],[-58.36527671000548,-34.605475397366035],[-58.36528116585712,-34.605469584074534],[-58.365287733802205,-34.60546063192803],[-58.3652902748242,-34.605454294273706],[-58.365291442548056,-34.605447677878445],[-58.36529320295271,-34.6054348863224],[-58.365299058601266,-34.6054346314165],[-58.365326259681936,-34.60518769358565],[-58.36554884954629,-34.60520440238107],[-58.36551943423371,-34.60545103470805],[-58.3655257455883,-34.60545263077425],[-58.36552497882589,-34.60546224471867],[-58.36552415367943,-34.60546772379709],[-58.36552487955263,-34.60547532335973],[-58.36552575827015,-34.60547994565051],[-58.36552693513571,-34.605484116568206],[-58.36552814441848,-34.60548760333312],[-58.36553013071622,-34.60549226166684],[-58.36553348895292,-34.605497429501405],[-58.36553578347388,-34.60550141201608],[-58.36553926240635,-34.605504057770624],[-58.3655456542243,-34.6055095579556],[-58.365550781992326,-34.60551272154517],[-58.36555621934496,-34.60551497765136],[-58.36556162401068,-34.60551814867368],[-58.36556707253503,-34.60552017492591],[-58.36557343865567,-34.60552062622856],[-58.365584552851956,-34.60552078476598],[-58.36559614509566,-34.60552233638099],[-58.36560555460605,-34.605523122743435],[-58.36620177677037,-34.605570295903576],[-58.36620974842107,-34.60557195274947],[-58.366216934067225,-34.60557265977288],[-58.36622253516311,-34.605571938585385],[-58.36622967613437,-34.60557356321934],[-58.36623658488264,-34.605574263711326],[-58.36624205440588,-34.60557606189058],[-58.36624718247299,-34.60557899468729],[-58.36625205571741,-34.605581687503026],[-58.366255235441436,-34.60558478461119],[-58.36625841543519,-34.60558765005421],[-58.366262473925524,-34.605595364039154],[-58.366264969380495,-34.605600960243876],[-58.36626580455901,-34.605606497437165],[-58.366263599745075,-34.605617209074865],[-58.36626310996137,-34.60562683225818],[-58.36614053201598,-34.606705226501475],[-58.365985301065614,-34.60806040090494],[-58.36562425356907,-34.611212196383654],[-58.36556774664722,-34.611719371341486],[-58.36556663173388,-34.611726452907654],[-58.365566422768026,-34.61173172424618],[-58.3655653631564,-34.611737202229904],[-58.365563825727534,-34.61174106088],[-58.36556246658786,-34.61174721829466],[-58.365558394665236,-34.611751696894196],[-58.365555174478324,-34.6117559688494],[-58.36555052637663,-34.61176089138727],[-58.36554484880475,-34.611764177923696],[-58.36553831840481,-34.611767672004596],[-58.36553184194937,-34.61176979056095],[-58.365523185024976,-34.6117709329342],[-58.36551679711657,-34.6117709900125],[-58.36550685450493,-34.61176957222191],[-58.36549601629239,-34.61176950764578],[-58.36548551984383,-34.611768076789545],[-58.36517852535863,-34.61174287355011],[-58.364866057319105,-34.611718205974334],[-58.364852494297885,-34.61171743333054],[-58.36484475502038,-34.61171702415035],[-58.364837536059035,-34.61171731669459],[-58.36482940949583,-34.61171988369065],[-58.3648229659724,-34.611721800317824],[-58.36481648947716,-34.611724863524685],[-58.364810821389995,-34.61172840513653],[-58.36480572839727,-34.611731500107986],[-58.364801410838915,-34.61173622186743],[-58.36479668419851,-34.61174483382642],[-58.364793984007825,-34.611750968515615],[-58.36476474180638,-34.61201975834134],[-58.364548756990935,-34.61200328693237],[-58.364577337609305,-34.61174595908336],[-58.36457821003106,-34.61173656879273],[-58.364577899015615,-34.61172944641935],[-58.36457642527407,-34.61172367433413],[-58.3645749627064,-34.61171767329715],[-58.36457126462448,-34.611712077893074],[-58.36456725555732,-34.611707624336766],[-58.36456105485073,-34.61170243254617],[-58.36455425507008,-34.611698602316494],[-58.36454632744853,-34.61169520475662],[-58.364540558760645,-34.61169346485301],[-58.364532863907215,-34.611691451160894],[-58.36452348492305,-34.61169008693021],[-58.36388745755365,-34.61164071965647],[-58.36388112332347,-34.61163965532606],[-58.363869210657846,-34.61163915073817],[-58.36386122745904,-34.611637588380255],[-58.363852923452896,-34.61163716785983],[-58.363848538012064,-34.611635688660044],[-58.3638436213605,-34.61163350862349],[-58.36383736536941,-34.61162992037778],[-58.36383385484427,-34.61162708525316],[-58.363829558816,-34.61162285499084],[-58.363826369371345,-34.61161864996897],[-58.36382296925018,-34.611612832134306],[-58.36382182781862,-34.61160546119123],[-58.36382174989848,-34.61159949192246],[-58.363822800097545,-34.61159285922678],[-58.363866908758176,-34.61121148711436],[-58.3642494665767,-34.607922454106834],[-58.364390795726045,-34.606707314509194],[-58.36452976784463,-34.60547950582178],[-58.36453045462783,-34.605474927157964],[-58.36453151859355,-34.605466681817916],[-58.36453305760062,-34.60546143228513],[-58.36453485061723,-34.6054571051118],[-58.36453803957242,-34.60545234728768],[-58.364542302059384,-34.60544875857425],[-58.3645465307511,-34.60544609018441],[-58.36455073873518,-34.60544433762162],[-58.364557148011464,-34.60544331879421],[-58.36456382437258,-34.60544230739399],[-58.3645693598955,-34.60544264900491],[-58.36457878181208,-34.60544306947954],[-58.36459149162988,-34.60544447696541],[-58.365186690284006,-34.605491463156135],[-58.36519987234,-34.605489015579806],[-58.36520682439926,-34.60548902747915],[-58.365213998856504,-34.60548996531644],[-58.36522364165838,-34.6054916785569],[-58.365232233008996,-34.60549197842445],[-58.36524283700695,-34.6054912009077],[-58.365251537620324,-34.60548943750848],[-58.36525803315869,-34.60548736945927]],[[-58.36594715042449,-34.599164859067194],[-58.36595443398221,-34.59916245717939],[-58.3659603786254,-34.599158422648955],[-58.365964951111536,-34.599153217879135],[-58.36596870575561,-34.59914730934746],[-58.36597224806351,-34.599139331882434],[-58.36597522733933,-34.59913088432724],[-58.3659767895525,-34.59912425200747],[-58.36598846832689,-34.59912375922957],[-58.36603490501047,-34.598737821687656],[-58.36617798480703,-34.598729484819835],[-58.36630699561782,-34.59873823838467],[-58.36626028211106,-34.599143951210785],[-58.36626887165575,-34.599145245272275],[-58.36626867072408,-34.59915304872428],[-58.366267684627125,-34.59915923169629],[-58.366268358177514,-34.59916590455883],[-58.36627012808027,-34.59917282257855],[-58.36627358076847,-34.59917908209528],[-58.36627704489379,-34.5991848809943],[-58.36628162634699,-34.59919069881006],[-58.36628848872698,-34.59919426037651],[-58.36630006651108,-34.59919812856897],[-58.366309176874644,-34.59920057866485],[-58.366317456045515,-34.59920255485282],[-58.36688849232944,-34.59924707339547],[-58.366895155437774,-34.599247643851605],[-58.36690402241359,-34.59924848286939],[-58.36690986684508,-34.599248121508886],[-58.366917636377906,-34.59924871357051],[-58.366925385497794,-34.59924999069638],[-58.366932868343795,-34.599250575319196],[-58.36694363838816,-34.599253512545],[-58.366951884108566,-34.59925709770206],[-58.36695847017517,-34.59926019387879],[-58.36696423650599,-34.59926327498527],[-58.3669707662438,-34.59926889600037],[-58.366975857401975,-34.59927610328394],[-58.36697932131581,-34.599282131124035],[-58.36698194315897,-34.599288605404745],[-58.366984554927356,-34.599295308638666],[-58.36698551737907,-34.599301065880276],[-58.366985670431625,-34.599306351940626],[-58.3666519760575,-34.60219821475634],[-58.366350026189885,-34.60485819903921],[-58.36634845118963,-34.60486732377721],[-58.36634778259243,-34.60487510521631],[-58.36634611592582,-34.604880556589535],[-58.36634530091575,-34.60488580762253],[-58.36634310280296,-34.6048907790173],[-58.36634015000585,-34.604894120042545],[-58.36633633411977,-34.60489811751793],[-58.36633340339167,-34.60490122959952],[-58.36632794848661,-34.60490471106051],[-58.366322569574855,-34.60490659075598],[-58.36631584079861,-34.60490773201562],[-58.36630996258801,-34.60490867383545],[-58.36629997701748,-34.604908327864365],[-58.366288949800555,-34.60490656493138],[-58.36567641420819,-34.60485790532098],[-58.36566670554018,-34.604857567632436],[-58.365658370164674,-34.60485750597557],[-58.3656472658671,-34.604857348354294],[-58.36563801290412,-34.60485886164613],[-58.36563018772063,-34.60485973787393],[-58.36562372356833,-34.60486111998671],[-58.36561915380505,-34.60486371332316],[-58.36561228334947,-34.60486760556843],[-58.36560530337415,-34.6048737882372],[-58.365599185403006,-34.604879313558214],[-58.36559641220994,-34.604884725274026],[-58.36559216655213,-34.60489169346665],[-58.365590314574554,-34.60490080986018],[-58.365588848741886,-34.60490787312516],[-58.3655885106354,-34.60491451903374],[-58.36557912689549,-34.60491878064996],[-58.3655555441987,-34.605110530126964],[-58.365337172551115,-34.60509282144868],[-58.36536070301512,-34.60489119960558],[-58.36535461383425,-34.6048907593312],[-58.36535530486529,-34.604882519993694],[-58.36535597355409,-34.60487473946166],[-58.36535582273856,-34.604866699563885],[-58.36535448833826,-34.60486022628764],[-58.365352345871365,-34.60485303753558],[-58.365349850499925,-34.60484744131166],[-58.365347023471635,-34.60484298241515],[-58.365343079065134,-34.60483848386034],[-58.365338868937116,-34.604833747116864],[-58.36533452694193,-34.604831758700946],[-58.36532720751952,-34.604828059700765],[-58.36532178029725,-34.60482557553268],[-58.365312235657825,-34.60482202978914],[-58.36529842973931,-34.60482017259009],[-58.365286495862364,-34.60481998542416],[-58.36527622251594,-34.604819627419644],[-58.36526712213359,-34.60481839237237],[-58.36518771785755,-34.60481428206799],[-58.36465379123333,-34.60477680675261],[-58.36464410448908,-34.604776378858254],[-58.36463611127563,-34.60477460921486],[-58.36462925834665,-34.6047719462831],[-58.36462464076001,-34.60476886599784],[-58.3646211539193,-34.6047646616531],[-58.36461743432947,-34.60475907343828],[-58.36461618282363,-34.60475445805029],[-58.36461605008142,-34.60474963173317],[-58.36461538670621,-34.60474364756183],[-58.36461582928474,-34.60473814384115],[-58.36461543108752,-34.604732855781556],[-58.36490896955171,-34.602196952406594],[-58.36519136998605,-34.59966741225024],[-58.365247310975484,-34.59919326140279],[-58.36524890675023,-34.599185020982276],[-58.36524996047576,-34.59917608332686],[-58.36525065833131,-34.59917035264552],[-58.36525193228371,-34.599164174420224],[-58.36525429114169,-34.59915870288023],[-58.365256948939496,-34.59915208767565],[-58.36525986101446,-34.599147085319544],[-58.36526275102028,-34.59914231010404],[-58.365267312108934,-34.599137564175095],[-58.36527239345384,-34.599134434913864],[-58.36527750911826,-34.59912992920838],[-58.365283708060765,-34.5991265872074],[-58.365289873769974,-34.59912462435534],[-58.36529715734303,-34.599122222506786],[-58.365301907327996,-34.5991209228652],[-58.36530774004649,-34.59912125115997],[-58.36531635190423,-34.599121167031925],[-58.36532552841956,-34.59912109327229],[-58.36533356500129,-34.599121686550625],[-58.3659186897583,-34.59916989153269],[-58.36592617258988,-34.599170476217246],[-58.36593368946247,-34.5991699143195],[-58.36594097275388,-34.59916774139353],[-58.36594715042449,-34.599164859067194]],[[-58.363809566048154,-34.618238789529215],[-58.36381657602987,-34.61823592422549],[-58.36382448172436,-34.61823077906085],[-58.3638290003145,-34.61822787206239],[-58.36383414994527,-34.61822153477636],[-58.363839908800394,-34.61821360247458],[-58.36384426195313,-34.61820587635297],[-58.363845349596644,-34.61819534415492],[-58.363876252549595,-34.617940821142774],[-58.36408812174787,-34.61795691630389],[-58.364060644443,-34.61819567092393],[-58.36406048851613,-34.61820208980409],[-58.36405855971404,-34.61821306662094],[-58.36405945431111,-34.61822179579194],[-58.364061523462304,-34.61822848149946],[-58.36406525345252,-34.61823496393575],[-58.36406706801593,-34.61824026936308],[-58.36407000070883,-34.618245134004404],[-58.364072955756086,-34.61824953894002],[-58.364079453808266,-34.61825629765878],[-58.364088221649055,-34.618261487049324],[-58.36409479739479,-34.618265263935406],[-58.36409975755257,-34.61826695182023],[-58.36410747432514,-34.618269372095995],[-58.3641146715601,-34.618270407368755],[-58.364122697988385,-34.61827191385612],[-58.36412906466799,-34.618272706872425],[-58.36413739011715,-34.61827307330648],[-58.36476054692779,-34.61831839862754],[-58.364771641269826,-34.61831926934541],[-58.36478184892052,-34.618322188272295],[-58.36479009644164,-34.618325764553056],[-58.36479584275528,-34.61832930005258],[-58.36480045841021,-34.61833373245256],[-58.36480317089089,-34.618336758003025],[-58.36480609218469,-34.61834208143984],[-58.36480792941908,-34.61834669728862],[-58.36480834923317,-34.61835220980662],[-58.364808712913636,-34.61836001368721],[-58.36480742774306,-34.618367102312426],[-58.36461337488845,-34.62022641908145],[-58.36426520307309,-34.62337821634151],[-58.36426343611817,-34.623386885652046],[-58.364262477949026,-34.623395808016376],[-58.36426193875651,-34.623401759645304],[-58.36426117767325,-34.62340632741662],[-58.36426062839485,-34.62341250799765],[-58.3642590912384,-34.62341590419612],[-58.36425645743833,-34.62341903719139],[-58.36425069099189,-34.6234239109864],[-58.36424429076741,-34.62342440427378],[-58.36423956235872,-34.62342471953618],[-58.36423399299967,-34.623425237836045],[-58.3642281570444,-34.62342528898431],[-58.36271205783524,-34.62331586447956],[-58.36270517978606,-34.623314735640164],[-58.36269687469815,-34.62331425284208],[-58.36268886864955,-34.62331354944247],[-58.362680540924536,-34.623313753505485],[-58.36267385256431,-34.62331446732033],[-58.36266738743472,-34.62331633603615],[-58.36266087758167,-34.62331912145738],[-58.36265630613344,-34.62332219512865],[-58.3626525868196,-34.62332483592055],[-58.362058668186755,-34.623713950139845],[-58.362048833533336,-34.623720380809274],[-58.36191577320818,-34.623585840849806],[-58.361935687795054,-34.623573021200365],[-58.36251023022985,-34.623195846175264],[-58.36251621890002,-34.623192127363225],[-58.36252167465683,-34.62318816202328],[-58.362525991510196,-34.623184622113264],[-58.36252928809471,-34.623178983759225],[-58.362532606763715,-34.62317311646298],[-58.362535703569755,-34.62316586620733],[-58.36253649747526,-34.623160381731104],[-58.36285778851536,-34.620226699807766],[-58.36307337489685,-34.61824916799684],[-58.363073808118294,-34.61824252399106],[-58.36307574795413,-34.618231547199024],[-58.363076181175295,-34.61822490319322],[-58.36307828695246,-34.61821828760405],[-58.363081752892384,-34.618213068529364],[-58.36308549741357,-34.61820739717091],[-58.363090867308216,-34.618203815736074],[-58.36309649287758,-34.6182006969391],[-58.363103214209566,-34.61819851381369],[-58.36311130824642,-34.61819727109421],[-58.363121328334366,-34.618196518525124],[-58.36313352932155,-34.61819740742769],[-58.36375944243475,-34.61824370013685],[-58.36377025927021,-34.618244108291265],[-58.363783003249715,-34.61824592242809],[-58.363791915842974,-34.61824492101015],[-58.36380170506338,-34.61824210124239],[-58.363809566048154,-34.618238789529215]]]}}