{"type":"Feature","properties":{"slug":"quilmes","name":"Quilmes","region":"sur","sort":1},"geometry":{"type":"MultiPolygon","coordinates":[[[[-58.26291965,-34.6875722],[-58.26279115,-34.68771497],[-58.26269122,-34.68771497],[-58.2625199,-34.68770069],[-58.26227719,-34.68778636],[-58.26222008,-34.68788629],[-58.26216298,-34.68805761],[-58.26204876,-34.68820038],[-58.26190599,-34.68817183],[-58.26169184,-34.68820038],[-58.26146342,-34.68821466],[-58.26120643,-34.68827177],[-58.26099228,-34.68832887],[-58.26080668,-34.68848592],[-58.26064964,-34.6885573],[-58.26053543,-34.68860013],[-58.26050687,-34.68871434],[-58.26060681,-34.68877145],[-58.26070675,-34.68889994],[-58.26072383,-34.68897967],[-58.26074958,-34.68909982],[-58.26059253,-34.68914265],[-58.26053543,-34.68912837],[-58.26049838,-34.68907281],[-58.26044976,-34.68899988],[-58.26029272,-34.68888567],[-58.26009285,-34.68887139],[-58.25983586,-34.68889994],[-58.25963599,-34.68895705],[-58.25942184,-34.68911409],[-58.25923624,-34.68915692],[-58.25900781,-34.68928542],[-58.25886504,-34.68941391],[-58.25872228,-34.68952812],[-58.25846529,-34.68964233],[-58.25832253,-34.68962806],[-58.25810838,-34.68962806],[-58.25786567,-34.68975655],[-58.25780856,-34.68992787],[-58.25769435,-34.6901563],[-58.25746592,-34.69031334],[-58.25726605,-34.69037045],[-58.25719466,-34.69041328],[-58.25702334,-34.69049894],[-58.25688057,-34.69052749],[-58.25675208,-34.69064171],[-58.25660931,-34.69071309],[-58.2564951,-34.69074165],[-58.25638089,-34.6907702],[-58.25619529,-34.69092724],[-58.25596686,-34.69111284],[-58.25576699,-34.69121278],[-58.25563849,-34.69126989],[-58.25556711,-34.69126989],[-58.25535296,-34.69128416],[-58.25516736,-34.6913841],[-58.25495321,-34.69149831],[-58.25478189,-34.69152687],[-58.25452491,-34.69161253],[-58.25431076,-34.69166963],[-58.25412516,-34.6918124],[-58.25392528,-34.69191234],[-58.25372541,-34.69202655],[-58.2534827,-34.69215504],[-58.25319717,-34.69231209],[-58.25291163,-34.6924263],[-58.25269748,-34.69246913],[-58.25241195,-34.69256907],[-58.25218352,-34.69265473],[-58.25195509,-34.6927975],[-58.25192654,-34.69292599],[-58.25175521,-34.69306876],[-58.2514554,-34.69328291],[-58.25125553,-34.6934114],[-58.25101282,-34.69356845],[-58.25078439,-34.69372549],[-58.25064163,-34.69392536],[-58.25047031,-34.69398247],[-58.25037037,-34.69392536],[-58.25014194,-34.69405386],[-58.24995634,-34.69422518],[-58.24974219,-34.69436794],[-58.24952804,-34.69441077],[-58.24939955,-34.69425373],[-58.24928533,-34.69419662],[-58.24647281,-34.69576707],[-58.24624438,-34.69590983],[-58.23952003,-34.69966462],[-58.23889143,-34.70002628],[-58.23535121,-34.70206312],[-58.23399492,-34.70283407],[-58.2338807,-34.70284834],[-58.23375221,-34.70270558],[-58.23369511,-34.70253425],[-58.23366014,-34.70252114],[-58.23358089,-34.70249142],[-58.23346668,-34.70246287],[-58.23325253,-34.70242004],[-58.23296699,-34.70240576],[-58.23288133,-34.70237721],[-58.23273856,-34.70229155],[-58.23259579,-34.70223444],[-58.23239592,-34.70210595],[-58.23215321,-34.70202029],[-58.23191051,-34.70190608],[-58.23169636,-34.70177759],[-58.23141082,-34.70162054],[-58.23085403,-34.70144922],[-58.23056849,-34.70144922],[-58.23031151,-34.70133501],[-58.23015447,-34.70137784],[-58.23018302,-34.70160626],[-58.2303829,-34.70173476],[-58.2306256,-34.70203457],[-58.23101107,-34.70261992],[-58.2312395,-34.702934],[-58.23139321,-34.70316457],[-58.23141082,-34.70319099],[-58.23143938,-34.70336231],[-58.23162497,-34.70356218],[-58.23174827,-34.70370603],[-58.2317963,-34.70376206],[-58.23195334,-34.70393338],[-58.23219604,-34.70420464],[-58.23225303,-34.7043091],[-58.23228171,-34.70436168],[-58.23226119,-34.70438903],[-58.23199621,-34.70474235],[-58.23176774,-34.70504696],[-58.23168272,-34.70477772],[-58.23168208,-34.70477571],[-58.23148221,-34.70463294],[-58.23125378,-34.70449017],[-58.2310539,-34.70424747],[-58.23092541,-34.70407614],[-58.2308112,-34.70409042],[-58.23075409,-34.70421891],[-58.23061132,-34.7043474],[-58.23056849,-34.704533],[-58.23053994,-34.70467577],[-58.23048283,-34.70484709],[-58.23053994,-34.70507552],[-58.2306202,-34.70515578],[-58.23063988,-34.70517546],[-58.23073981,-34.70521829],[-58.23088258,-34.70528967],[-58.23102535,-34.70528967],[-58.23122522,-34.70528967],[-58.23141082,-34.70528967],[-58.2314251,-34.70541816],[-58.23135372,-34.70554665],[-58.23122522,-34.70567514],[-58.23113956,-34.7057037],[-58.23108246,-34.70561804],[-58.23101107,-34.70564659],[-58.23089686,-34.70573225],[-58.23079692,-34.7057608],[-58.23066843,-34.70577508],[-58.23058277,-34.7057608],[-58.23046856,-34.70571797],[-58.23034007,-34.70581791],[-58.23032579,-34.70587502],[-58.23006881,-34.70590357],[-58.22989749,-34.70600351],[-58.22975472,-34.70610345],[-58.22956912,-34.70623194],[-58.22948346,-34.70630332],[-58.2293978,-34.70643181],[-58.22938352,-34.70651747],[-58.22934069,-34.70670307],[-58.22931214,-34.70681728],[-58.22931214,-34.70700288],[-58.22918365,-34.7071171],[-58.22894094,-34.70713137],[-58.22876962,-34.70721703],[-58.22855547,-34.70727414],[-58.22821283,-34.70734552],[-58.22748471,-34.70758823],[-58.22704705,-34.70772983],[-58.2269993,-34.70774527],[-58.22682798,-34.70777383],[-58.22667094,-34.70774527],[-58.22651389,-34.70780238],[-58.22644251,-34.70790232],[-58.2263854,-34.70800226],[-58.22626644,-34.70809743],[-58.22624263,-34.70811647],[-58.22542886,-34.70863043],[-58.22520043,-34.70875892],[-58.22395835,-34.70960125],[-58.22364426,-34.70981541],[-58.22344439,-34.70985824],[-58.22315885,-34.70984396],[-58.22304464,-34.70977257],[-58.22281621,-34.70971547],[-58.22273055,-34.70962981],[-58.22265274,-34.70962642],[-58.22240218,-34.70961553],[-58.22217376,-34.70977257],[-58.2221495,-34.70980254],[-58.22193105,-34.71007239],[-58.22179147,-34.71021196],[-58.221774,-34.71022943],[-58.22164551,-34.71041503],[-58.22165524,-34.71042718],[-58.22170262,-34.71048641],[-58.22180256,-34.71054352],[-58.2219025,-34.71068629],[-58.22187394,-34.71077195],[-58.22174545,-34.71090044],[-58.22164551,-34.7109861],[-58.22147419,-34.71107176],[-58.22131715,-34.7111717],[-58.22118866,-34.71124308],[-58.22097451,-34.71134302],[-58.22078891,-34.71148579],[-58.22067469,-34.7116],[-58.22028922,-34.71185698],[-58.21973243,-34.71224246],[-58.21940406,-34.71248516],[-58.2191328,-34.71265648],[-58.21877588,-34.71287063],[-58.2185189,-34.71304195],[-58.21836186,-34.71305623],[-58.21828744,-34.7130734],[-58.21817626,-34.71309906],[-58.21803349,-34.71321327],[-58.21800625,-34.71326776],[-58.21799066,-34.71329894],[-58.21796211,-34.71339887],[-58.21773368,-34.71355592],[-58.2172911,-34.71384145],[-58.21700557,-34.71404133],[-58.21677714,-34.71416982],[-58.21656299,-34.71421265],[-58.21637739,-34.71429831],[-58.21610613,-34.71446963],[-58.21599192,-34.71465523],[-58.21582059,-34.71478372],[-58.21560644,-34.71491221],[-58.21539229,-34.71496932],[-58.21522097,-34.71509781],[-58.21517814,-34.71525485],[-58.21490688,-34.71539762],[-58.21447858,-34.7156546],[-58.21433581,-34.7156546],[-58.21419304,-34.71572599],[-58.21412166,-34.71585448],[-58.214036,-34.71586875],[-58.21390751,-34.71591158],[-58.21379329,-34.71599725],[-58.21365053,-34.71611146],[-58.2134792,-34.71622567],[-58.21326505,-34.71638272],[-58.21296524,-34.71655404],[-58.21270826,-34.71671108],[-58.21252266,-34.7168253],[-58.21237989,-34.71689668],[-58.21227996,-34.717068],[-58.21216574,-34.71708228],[-58.2120658,-34.71715366],[-58.21196587,-34.71722505],[-58.21178027,-34.71732498],[-58.2116375,-34.71738209],[-58.21162599,-34.71738573],[-58.21136624,-34.71746775],[-58.21125203,-34.71755341],[-58.21093794,-34.71792461],[-58.210838,-34.71808165],[-58.21080945,-34.71822442],[-58.21072379,-34.71839574],[-58.2105953,-34.71852423],[-58.21043825,-34.718667],[-58.21035259,-34.71875266],[-58.21023838,-34.7189097],[-58.21015272,-34.71908103],[-58.21015125,-34.71909131],[-58.21013844,-34.71918096],[-58.20992429,-34.71940939],[-58.20978152,-34.71942367],[-58.20962448,-34.71950933],[-58.20952454,-34.71959499],[-58.2093675,-34.71973776],[-58.20926756,-34.71979486],[-58.20917724,-34.71986055],[-58.20911051,-34.71990908],[-58.20896775,-34.71995191],[-58.20888325,-34.72009273],[-58.20888209,-34.72009468],[-58.20888019,-34.72009515],[-58.20882498,-34.72010895],[-58.2086251,-34.72022317],[-58.20846806,-34.72038021],[-58.20825391,-34.72058009],[-58.20799693,-34.72073713],[-58.20779705,-34.72090845],[-58.20766856,-34.72109405],[-58.20768331,-34.72116781],[-58.20769711,-34.72123682],[-58.20764001,-34.72132248],[-58.20756862,-34.72146525],[-58.20748296,-34.72160801],[-58.20742586,-34.7217365],[-58.2073402,-34.72195066],[-58.20718315,-34.72217908],[-58.20701183,-34.72230757],[-58.20689762,-34.7224789],[-58.20682623,-34.72263594],[-58.20674057,-34.72287865],[-58.20666919,-34.72304997],[-58.20636938,-34.72332123],[-58.20611239,-34.72347827],[-58.20591252,-34.72360676],[-58.20568409,-34.72366387],[-58.20545566,-34.72376381],[-58.20519868,-34.72384947],[-58.20492742,-34.72404934],[-58.20477038,-34.72424922],[-58.20471327,-34.72437771],[-58.20462761,-34.72452047],[-58.20458478,-34.72476318],[-58.20452767,-34.72490595],[-58.20444201,-34.72516293],[-58.20428497,-34.72543419],[-58.20418503,-34.72560551],[-58.20401371,-34.7259196],[-58.20387094,-34.72614803],[-58.20378528,-34.72637645],[-58.2037139,-34.72666199],[-58.20357113,-34.72689042],[-58.20344264,-34.72720451],[-58.20328559,-34.72750432],[-58.20317138,-34.72783268],[-58.20308572,-34.72804683],[-58.20301434,-34.72833237],[-58.20290012,-34.72848942],[-58.20288584,-34.72860363],[-58.20284301,-34.72868929],[-58.20264314,-34.72890344],[-58.20261459,-34.72906049],[-58.2025432,-34.72927464],[-58.20251465,-34.72941741],[-58.20250037,-34.729603],[-58.20240043,-34.72980288],[-58.2023005,-34.73001703],[-58.20217201,-34.73020263],[-58.20198641,-34.73037395],[-58.20185792,-34.73063093],[-58.20171515,-34.73087364],[-58.20158666,-34.73105923],[-58.20147244,-34.73121628],[-58.20134395,-34.73137332],[-58.20121546,-34.73154464],[-58.20110125,-34.73167313],[-58.20098703,-34.73180162],[-58.20081571,-34.73190156],[-58.20064439,-34.73197295],[-58.20041596,-34.73205861],[-58.20024464,-34.73222993],[-58.20011615,-34.7324298],[-58.19998766,-34.73260112],[-58.19991628,-34.73282955],[-58.19981634,-34.73307226],[-58.19970213,-34.73325785],[-58.19955936,-34.73342918],[-58.19941659,-34.73358622],[-58.19918816,-34.73381465],[-58.1991025,-34.73408591],[-58.19898829,-34.73427151],[-58.19884552,-34.73449993],[-58.19881697,-34.73468553],[-58.19874558,-34.73487113],[-58.19863137,-34.73502817],[-58.19846005,-34.73519949],[-58.19841722,-34.73531371],[-58.19831728,-34.73548503],[-58.19820307,-34.73564208],[-58.19801747,-34.73577057],[-58.19791753,-34.73582767],[-58.1976891,-34.73595616],[-58.19758916,-34.73598472],[-58.1968325,-34.73575629],[-58.19668973,-34.73578484],[-58.19650413,-34.73578484],[-58.19636136,-34.73569918],[-58.19613293,-34.73554214],[-58.19596161,-34.73542792],[-58.19579029,-34.73537082],[-58.19553331,-34.73541365],[-58.19547376,-34.73541365],[-58.1954436,-34.73541365],[-58.19527633,-34.73541365],[-58.19520494,-34.73538509],[-58.19491941,-34.73541365],[-58.19475187,-34.73554529],[-58.19471953,-34.73557069],[-58.194645,-34.73569491],[-58.1952,-34.735995],[-58.208302,-34.742703],[-58.20851131,-34.74280922],[-58.20953161,-34.74332697],[-58.222662,-34.74999],[-58.22324682,-34.75028972],[-58.22431322,-34.75083625],[-58.225782,-34.751589],[-58.230056,-34.7538],[-58.232106,-34.754928],[-58.23340458,-34.75563492],[-58.23369092,-34.7557908],[-58.23615302,-34.75713112],[-58.23740621,-34.75781334],[-58.237615,-34.757927],[-58.24160095,-34.76006954],[-58.24331193,-34.76098922],[-58.243425,-34.76105],[-58.24430538,-34.76151793],[-58.245726,-34.762273],[-58.24627469,-34.76256622],[-58.250378,-34.764759],[-58.254053,-34.766756],[-58.25505293,-34.76731779],[-58.257134,-34.768487],[-58.25764023,-34.76872667],[-58.2579568,-34.76887655],[-58.26075525,-34.77020143],[-58.261388,-34.770501],[-58.26172318,-34.77067458],[-58.26745398,-34.77364237],[-58.267461,-34.773646],[-58.26749714,-34.77360235],[-58.268569,-34.772308],[-58.27076689,-34.7697952],[-58.27096149,-34.76957272],[-58.271248,-34.769266],[-58.27160699,-34.76886791],[-58.27163923,-34.76883216],[-58.27292489,-34.76954097],[-58.27315193,-34.76966615],[-58.281506,-34.774272],[-58.28416783,-34.77571189],[-58.28567436,-34.77652683],[-58.287466,-34.777496],[-58.29591035,-34.78206323],[-58.29672916,-34.7825061],[-58.298454,-34.783439],[-58.29848384,-34.78419738],[-58.29851904,-34.78509161],[-58.298549,-34.785853],[-58.2985701,-34.78695786],[-58.298581,-34.78701],[-58.298781,-34.787412],[-58.298877,-34.787559],[-58.29893213,-34.78769742],[-58.29895465,-34.78775396],[-58.299108,-34.788139],[-58.299155,-34.788672],[-58.29926332,-34.78901543],[-58.3004572,-34.78998272],[-58.30095,-34.790382],[-58.30092455,-34.79075807],[-58.30087,-34.791564],[-58.300772,-34.792559],[-58.301119,-34.794646],[-58.30130784,-34.79591182],[-58.301375,-34.796362],[-58.30136645,-34.79641167],[-58.301134,-34.797762],[-58.30217035,-34.79925794],[-58.30265249,-34.7999539],[-58.302735,-34.800073],[-58.30312744,-34.80038376],[-58.304114,-34.801165],[-58.30413278,-34.80113948],[-58.30667691,-34.79768258],[-58.307377,-34.79673132],[-58.3075654,-34.79647329],[-58.30757,-34.796467],[-58.30957276,-34.79367546],[-58.30975379,-34.79342218],[-58.30977843,-34.79338771],[-58.30977868,-34.79338736],[-58.30989407,-34.79322592],[-58.311235,-34.791365],[-58.31293247,-34.7890163],[-58.313186,-34.78866552],[-58.31642923,-34.78417805],[-58.317006,-34.78338],[-58.31880007,-34.78022697],[-58.319884,-34.778322],[-58.3202293,-34.77784946],[-58.32047703,-34.77751045],[-58.320788,-34.776961],[-58.32090995,-34.77680372],[-58.32178531,-34.7756748],[-58.32191,-34.775514],[-58.322321,-34.774834],[-58.32270551,-34.77419798],[-58.323408,-34.773036],[-58.323451,-34.772532],[-58.326683,-34.76763],[-58.32708014,-34.76711384],[-58.329002,-34.764616],[-58.331251,-34.761669],[-58.33131823,-34.76158383],[-58.33199999,-34.76072016],[-58.333957,-34.758241],[-58.3345283,-34.75739504],[-58.334581,-34.757317],[-58.33484998,-34.7569463],[-58.336075,-34.755258],[-58.33663877,-34.75440132],[-58.337865,-34.752538],[-58.33856267,-34.7515279],[-58.339283,-34.750485],[-58.341625,-34.746986],[-58.34170387,-34.74688441],[-58.341816,-34.74674],[-58.34218433,-34.74615465],[-58.342427,-34.745769],[-58.342615,-34.745493],[-58.342718,-34.745338],[-58.342817,-34.745186],[-58.342897,-34.745064],[-58.342961,-34.744965],[-58.343039,-34.74483],[-58.343095,-34.744744],[-58.343148,-34.744664],[-58.343202,-34.744582],[-58.343259,-34.744494],[-58.343319,-34.744402],[-58.34337,-34.744325],[-58.343427,-34.744237],[-58.343454,-34.744195],[-58.343614,-34.743951],[-58.343699,-34.743817],[-58.343895,-34.743514],[-58.344094,-34.743205],[-58.34470182,-34.74237406],[-58.34596,-34.740654],[-58.346962,-34.739344],[-58.34686886,-34.73925723],[-58.34666989,-34.73907189],[-58.3457529,-34.73821767],[-58.34557489,-34.73805183],[-58.344084,-34.736663],[-58.34386993,-34.73646683],[-58.34355734,-34.73618038],[-58.33532573,-34.72863716],[-58.335283,-34.728598],[-58.33397685,-34.72741488],[-58.33397682,-34.72741485],[-58.33397679,-34.72741482],[-58.33385593,-34.72730534],[-58.33357844,-34.72705399],[-58.333505,-34.726984],[-58.33310361,-34.72661465],[-58.33237065,-34.72594022],[-58.33199413,-34.72559376],[-58.32664111,-34.72066812],[-58.324988,-34.719147],[-58.322493,-34.716852],[-58.322011,-34.716408],[-58.321005,-34.715432],[-58.320579,-34.715011],[-58.32058547,-34.71500666],[-58.320667,-34.714952],[-58.320125,-34.714414],[-58.3186,-34.712842],[-58.316924,-34.711139],[-58.31662275,-34.71137617],[-58.316609,-34.711387],[-58.316541,-34.711326],[-58.315636,-34.710509],[-58.315528,-34.710399],[-58.315434,-34.710316],[-58.314708,-34.709645],[-58.314586,-34.70953],[-58.31433048,-34.70929485],[-58.313244,-34.708295],[-58.313094,-34.708155],[-58.31295484,-34.70802176],[-58.31288186,-34.70795557],[-58.312865,-34.707942],[-58.31235004,-34.70747715],[-58.311714,-34.706903],[-58.311593,-34.706798],[-58.31121662,-34.70643701],[-58.31118923,-34.70641074],[-58.31111261,-34.70633725],[-58.311085,-34.706311],[-58.31089412,-34.7061278],[-58.310737,-34.705977],[-58.31067444,-34.70592494],[-58.31065548,-34.70590917],[-58.3106,-34.705863],[-58.31048336,-34.70575148],[-58.310258,-34.705536],[-58.310193,-34.705474],[-58.310131,-34.705415],[-58.310075,-34.705361],[-58.309753,-34.705053],[-58.309619,-34.70492],[-58.3091208,-34.70446602],[-58.30906735,-34.70441732],[-58.30888349,-34.70424978],[-58.308729,-34.704109],[-58.308594,-34.703985],[-58.30856,-34.703953],[-58.30856026,-34.70395275],[-58.30792306,-34.70336563],[-58.30765917,-34.70312247],[-58.304762,-34.700453],[-58.303482,-34.699232],[-58.303196,-34.698966],[-58.302893,-34.698683],[-58.30262,-34.698431],[-58.302372,-34.698221],[-58.30226,-34.698126],[-58.302061,-34.697958],[-58.301884,-34.697822],[-58.301666,-34.697637],[-58.3016,-34.697581],[-58.30132,-34.697343],[-58.29998307,-34.69618262],[-58.29917888,-34.69548463],[-58.298344,-34.69476],[-58.2982,-34.694635],[-58.293907,-34.691167],[-58.29297,-34.69032],[-58.29160365,-34.68901703],[-58.290922,-34.688367],[-58.28908,-34.686746],[-58.287307,-34.685156],[-58.28553017,-34.68364919],[-58.28524236,-34.68340511],[-58.285017,-34.683214],[-58.283356,-34.68172],[-58.27963924,-34.67864155],[-58.2795378,-34.67867778],[-58.27944801,-34.67873614],[-58.27925227,-34.67886338],[-58.27903811,-34.6790347],[-58.27876686,-34.67913464],[-58.2785527,-34.67923457],[-58.27813868,-34.67939162],[-58.27786742,-34.67949155],[-58.27763899,-34.67960577],[-58.27743912,-34.67970571],[-58.2768966,-34.67997696],[-58.27669672,-34.68004835],[-58.27631125,-34.68027678],[-58.27599716,-34.68041954],[-58.27579729,-34.68054803],[-58.27555458,-34.68070508],[-58.27535471,-34.68086212],[-58.27516911,-34.68096206],[-58.27498351,-34.68099061],[-58.27472653,-34.68103344],[-58.2744981,-34.68117621],[-58.27424112,-34.68134753],[-58.27401269,-34.6814903],[-58.2736986,-34.68164735],[-58.27355584,-34.68179011],[-58.27337024,-34.68189005],[-58.27312753,-34.68196143],[-58.27292766,-34.68204709],[-58.27267068,-34.68223269],[-58.27249936,-34.68234691],[-58.27229948,-34.68254678],[-58.27214244,-34.68261817],[-58.27189973,-34.68273238],[-58.27169986,-34.68286087],[-58.27151426,-34.68298936],[-58.27128583,-34.68307502],[-58.27102885,-34.68314641],[-58.27077187,-34.68330345],[-58.27060055,-34.68341766],[-58.27051488,-34.68348905],[-58.27042922,-34.68358899],[-58.27034356,-34.68371748],[-58.27021507,-34.68373175],[-58.27004375,-34.68378886],[-58.26984388,-34.68383169],[-58.26972966,-34.68384597],[-58.26942985,-34.68401729],[-58.26924425,-34.68414578],[-58.26904438,-34.68428855],[-58.26881595,-34.68447414],[-58.26867318,-34.68463119],[-58.26854469,-34.68470257],[-58.26825916,-34.68478823],[-58.2679879,-34.684931],[-58.26775947,-34.68503094],[-58.26748821,-34.68513088],[-58.26714557,-34.68527364],[-58.26674582,-34.68543069],[-58.26640318,-34.68564484],[-58.2658321,-34.68598748],[-58.26560368,-34.68607314],[-58.26537525,-34.68618736],[-58.26511827,-34.68633013],[-58.26491839,-34.68648717],[-58.26470424,-34.68661566],[-58.26449009,-34.6867156],[-58.26434732,-34.68678698],[-58.26409034,-34.68687264],[-58.26389047,-34.68694403],[-58.26364776,-34.68704396],[-58.2633765,-34.68720101],[-58.26314807,-34.68731522],[-58.2629482,-34.68744371],[-58.26291965,-34.6875722]]]]}}