{"type":"Feature","properties":{"slug":"ramos-mejia-haedo","name":"Ramos Mejía y Haedo","region":"oeste","sort":0},"geometry":{"type":"Polygon","coordinates":[[[-58.61,-34.655],[-58.587984906608625,-34.655],[-58.587317,-34.6544],[-58.58584565,-34.65300465],[-58.58543912,-34.65262938],[-58.585,-34.652242047403504],[-58.585,-34.66],[-58.54,-34.66],[-58.54,-34.6466111775537],[-58.541417,-34.645593],[-58.54158157,-34.64547171],[-58.546672,-34.64172],[-58.549181,-34.63987],[-58.551148,-34.638389],[-58.55220667,-34.63759397],[-58.552955,-34.637032],[-58.55304755,-34.63696136],[-58.554729,-34.635678],[-58.556033,-34.63468],[-58.55609623,-34.63469984],[-58.55610707,-34.63470324],[-58.55617542,-34.63472469],[-58.558254,-34.635377],[-58.55965411,-34.63578517],[-58.56107029,-34.63619801],[-58.5620351,-34.63649465],[-58.56204138,-34.63649658],[-58.562059,-34.636502],[-58.56189497,-34.63687575],[-58.56172721,-34.637258],[-58.561718,-34.637279],[-58.564346,-34.637813],[-58.564318,-34.637873],[-58.56438467,-34.63788715],[-58.564377,-34.63799],[-58.565498,-34.638153],[-58.56638,-34.638267],[-58.568077,-34.638348],[-58.569714,-34.638368],[-58.57091638,-34.63836607],[-58.57028056,-34.64125608],[-58.570261,-34.641345],[-58.57026518,-34.64134565],[-58.577537,-34.642481],[-58.581876,-34.64317],[-58.58,-34.642872105554275],[-58.58,-34.632],[-58.61,-34.632],[-58.61,-34.655]]]}}