{"type":"Feature","properties":{"slug":"recoleta","name":"Recoleta","region":"caba","sort":10},"geometry":{"type":"Polygon","coordinates":[[[-58.37555664512313,-34.57744841586275],[-58.376010446696014,-34.5774843037671],[-58.37601478474157,-34.577484784624914],[-58.3760150626118,-34.57748481547209],[-58.376016089098705,-34.577484927982916],[-58.37602178598548,-34.57748555854735],[-58.376046345176654,-34.57748950091275],[-58.37638120655958,-34.5775200881237],[-58.37671626106816,-34.57755069258156],[-58.37669560235255,-34.57756243611907],[-58.37669557291075,-34.57756245232383],[-58.37659154972717,-34.5776215858987],[-58.37397717440912,-34.57910768707074],[-58.375126880746755,-34.5805254281304],[-58.37616540459724,-34.579955854036996],[-58.37693857157734,-34.580000335411704],[-58.379841464837774,-34.58016729947033],[-58.382861911212935,-34.57845408463024],[-58.38307033358983,-34.578372811375985],[-58.38323547529595,-34.57832003138325],[-58.383404355250434,-34.57827598662302],[-58.383576291204996,-34.5782407460442],[-58.38375051788509,-34.57821459218282],[-58.38392635318524,-34.578197452471684],[-58.38410320191672,-34.57818953925412],[-58.384280296970324,-34.57819078081662],[-58.38445567454429,-34.57820117588954],[-58.38445687219275,-34.57820124697437],[-58.38463241773697,-34.57822079768012],[-58.38506831719417,-34.5782526980495],[-58.385291305801196,-34.57825178429954],[-58.385513710119035,-34.578239320707006],[-58.38562395603835,-34.57822594615637],[-58.385734846737655,-34.57821530593922],[-58.385954337865314,-34.578222769307644],[-58.386128347811216,-34.5782168471128],[-58.38630064161203,-34.578190452215],[-58.386413646617996,-34.578167776882026],[-58.38652478353387,-34.57813925452504],[-58.38654183656195,-34.57813388283896],[-58.38654720549106,-34.57813219153534],[-58.386585286178644,-34.57812019857278],[-58.386901912618846,-34.578128060186],[-58.38758681660468,-34.57814631715922],[-58.38825302979675,-34.57816407202884],[-58.388399318643465,-34.57816797041044],[-58.38949147618641,-34.578197068497666],[-58.389666912876514,-34.57820174198282],[-58.389869341696375,-34.578207133668116],[-58.389896128637666,-34.578246606075375],[-58.3903919773364,-34.57897725708154],[-58.39119920862102,-34.580166889636125],[-58.39122022770905,-34.58019814634989],[-58.39164883383239,-34.5808356684404],[-58.39164933888169,-34.58083641962399],[-58.391639413744564,-34.58083873136099],[-58.391631177134386,-34.58084064926447],[-58.39153698624423,-34.58086467909662],[-58.391462210026795,-34.580886184575846],[-58.39139765167186,-34.580908400943514],[-58.3913440765733,-34.58092970790473],[-58.39130205836893,-34.5809484219503],[-58.39129544038293,-34.58095136931195],[-58.391174906991395,-34.581012426482694],[-58.39116553975808,-34.58101734272775],[-58.39109917858714,-34.581052170611066],[-58.391048919370476,-34.581078972687955],[-58.39100374306971,-34.581103446669744],[-58.39092633748648,-34.581145380159576],[-58.39080384023371,-34.58121199849098],[-58.39072197719962,-34.5812561061441],[-58.39067504014453,-34.58128107834579],[-58.390614985155224,-34.5813126627833],[-58.39055484523369,-34.58134410651816],[-58.390434139486764,-34.581406570875814],[-58.39019213209669,-34.581530583025966],[-58.39003096292795,-34.58161344632428],[-58.38993904844765,-34.58166113778998],[-58.389776515608204,-34.58174618228032],[-58.38961432210418,-34.58183164952593],[-58.389506390785506,-34.581888768911945],[-58.3893625962355,-34.581965303005546],[-58.389171181492564,-34.58206772398117],[-58.389062056894446,-34.58212646120596],[-58.38893742756379,-34.582193781268735],[-58.38879516485719,-34.58227094932428],[-58.38863279544921,-34.58235951334666],[-58.38844751125714,-34.58246116260591],[-58.38839673729451,-34.582490075306005],[-58.38834647160458,-34.582522157706656],[-58.38809547293556,-34.58269573941615],[-58.38784438821304,-34.582869319649134],[-58.38741827189716,-34.58319427238497],[-58.38696844658319,-34.58355674501224],[-58.38664766841852,-34.5838627471024],[-58.38642631730769,-34.58410373896175],[-58.38617101038501,-34.58438450053855],[-58.38598053662494,-34.58459395851433],[-58.38585064255816,-34.58474091201025],[-58.38585059455204,-34.584740966065276],[-58.385604207637314,-34.585019712893676],[-58.38533010754322,-34.58538877054289],[-58.38506320913909,-34.58588487620837],[-58.38499830642072,-34.58601149100881],[-58.38489173009513,-34.586219400995304],[-58.38480300416495,-34.586392489528684],[-58.38480188056612,-34.58639468106973],[-58.38450398753848,-34.58696612905157],[-58.38409523631899,-34.587243678864795],[-58.38378386653738,-34.58745510372061],[-58.38370017875969,-34.5875005151918],[-58.38369173820514,-34.58750511235751],[-58.38369087887974,-34.587505583241736],[-58.38384861615481,-34.58768370015589],[-58.3849538670883,-34.58879725051495],[-58.38594080916271,-34.58979162955545],[-58.38692224385791,-34.59078036312371],[-58.38787640235049,-34.5915910091141],[-58.387882993958556,-34.59159660832343],[-58.387954728857004,-34.59165341346785],[-58.38791450553285,-34.591686206751234],[-58.387571305345595,-34.5928355903143],[-58.38731427160064,-34.59454959936579],[-58.38731401607018,-34.594551303797644],[-58.38729493586202,-34.594649673224744],[-58.38727517074097,-34.59475198684766],[-58.38718314754662,-34.59555497022784],[-58.38716101376094,-34.59573333989363],[-58.387135818723706,-34.59593590633536],[-58.38713544756135,-34.595938890714685],[-58.38706623729998,-34.59693696226608],[-58.387067573800984,-34.597058583949455],[-58.38706891487265,-34.59717520634323],[-58.386976870411935,-34.59818340437518],[-58.38696400159656,-34.59828628558956],[-58.38694983351544,-34.5983997252506],[-58.38694864533929,-34.59840923541557],[-58.38686820376445,-34.59929786043728],[-58.38795629744741,-34.59934882028262],[-58.38797233636657,-34.59934970817028],[-58.38811811679609,-34.59935777566516],[-58.3881519092836,-34.59935964529836],[-58.389394408874544,-34.599428671591475],[-58.38948491654724,-34.599433699523075],[-58.38960738980765,-34.599441795307015],[-58.389668774147054,-34.59944585270693],[-58.39014481429392,-34.599477195736895],[-58.39138004991692,-34.59955849466013],[-58.39148571447128,-34.59956497502032],[-58.391557438319246,-34.59956937378542],[-58.39293533370779,-34.599642149302134],[-58.39308373829616,-34.599645886452315],[-58.39440055559255,-34.599679042329086],[-58.39468941733719,-34.59968623077847],[-58.394716167935734,-34.59968689664386],[-58.39582073194652,-34.59970842818167],[-58.39664451719508,-34.59972459996603],[-58.39718998380497,-34.599735304535784],[-58.39865935689131,-34.59976402685869],[-58.39872726394246,-34.59976535365024],[-58.398727364249375,-34.599765342033365],[-58.398780957502964,-34.59975913519579],[-58.39992512198693,-34.59962661365755],[-58.4004810513927,-34.59956032387237],[-58.40107357896446,-34.59948966660514],[-58.40107435409538,-34.599489574153935],[-58.40121232404902,-34.59947318806702],[-58.40146800002244,-34.59944174106635],[-58.402012342973116,-34.59937478850392],[-58.40247845698195,-34.599125933466816],[-58.40254090564244,-34.599092583101424],[-58.403086845280896,-34.598801159713744],[-58.403449079923945,-34.59860779168946],[-58.403636243464724,-34.59850787952946],[-58.40372555901828,-34.598460200054525],[-58.404510717536766,-34.59804106689294],[-58.40451143371197,-34.598041070149826],[-58.404735972519696,-34.598042091054616],[-58.40473669305419,-34.59804209442754],[-58.40487415090419,-34.59804273780955],[-58.404874871438714,-34.59804274118402],[-58.40559023676358,-34.59804608932578],[-58.405590957298216,-34.59804609269107],[-58.4058861561212,-34.59804747107855],[-58.40588687665585,-34.598047474443376],[-58.406630154636126,-34.59805094320145],[-58.40663087515758,-34.598050954173594],[-58.40806059549537,-34.59807271766492],[-58.40806131492753,-34.5980727286106],[-58.40815182687461,-34.59807410565598],[-58.40815254739098,-34.59807411765968],[-58.40858057246066,-34.598081247739216],[-58.40858129188742,-34.59808125972506],[-58.408725306637606,-34.59808365895985],[-58.40872602716091,-34.598083669048606],[-58.40910363171661,-34.5980889556707],[-58.4094318952652,-34.598093550547986],[-58.409432614713864,-34.59809355414187],[-58.41029791226502,-34.59809787350611],[-58.41192253140976,-34.5980082151563],[-58.411990889482446,-34.59800446785923],[-58.41204977659872,-34.598001240273035],[-58.41209465132787,-34.59799878019979],[-58.412987517019374,-34.59796379871216],[-58.41325621165685,-34.59795390972126],[-58.41392436104433,-34.59792923887129],[-58.41395769315606,-34.5979280080151],[-58.41463144635392,-34.5979031263447],[-58.415666108332346,-34.59786494291618],[-58.415666827788684,-34.59786493226281],[-58.415694281690406,-34.59786452573498],[-58.41569500223619,-34.59786451505361],[-58.41600403600113,-34.597859933549024],[-58.415521392961224,-34.59671817827884],[-58.4150499882344,-34.59560318588077],[-58.41462962115761,-34.59460884749357],[-58.414397287745764,-34.59405930920153],[-58.41352670084253,-34.59307844839384],[-58.41288157567289,-34.59232500188351],[-58.412466645481246,-34.59184038489514],[-58.41239457034771,-34.591756197943305],[-58.4123307483888,-34.59168166323358],[-58.41119261417241,-34.590352145981825],[-58.41008489098123,-34.589062491173905],[-58.4095016983881,-34.58823250257817],[-58.409196988553816,-34.58779870803995],[-58.40903259988131,-34.58756467761328],[-58.4083206304079,-34.58655131309496],[-58.408140025184665,-34.586294255340455],[-58.40804219407886,-34.586154560612044],[-58.40762969172575,-34.58556591244003],[-58.407095804186426,-34.58480389277573],[-58.40640225665762,-34.58381397657757],[-58.40617642820399,-34.58346470960735],[-58.40536395189287,-34.58345841147941],[-58.40403080022168,-34.58344805218868],[-58.40204814478211,-34.583432636942796],[-58.401947330422416,-34.58343181108031],[-58.401352633934735,-34.58379669587914],[-58.40135017291804,-34.583798206319244],[-58.40121965947642,-34.58388687444914],[-58.40113089032275,-34.583947252663485],[-58.40054799256822,-34.584477245354066],[-58.39994329891968,-34.5836472706784],[-58.39927933340058,-34.58273585143911],[-58.39936593960408,-34.58272047345798],[-58.398113720474804,-34.58070759154796],[-58.39796445564295,-34.58049771854608],[-58.39692863426499,-34.57904142811668],[-58.39675709255307,-34.57880027372406],[-58.39656419598135,-34.578512233282034],[-58.39664656273887,-34.578457879965484],[-58.39681623107398,-34.57834591629735],[-58.39782165617299,-34.57768242917307],[-58.397898261910434,-34.57763187592888],[-58.39858627930136,-34.577177208383134],[-58.39861442550493,-34.57716213974652],[-58.39905064129638,-34.57692860701706],[-58.39987873474078,-34.576527437793736],[-58.399944927450534,-34.576495369692026],[-58.400512495076356,-34.57616149810312],[-58.400661627864544,-34.57606327153086],[-58.40114888534915,-34.57574233895357],[-58.401240827535084,-34.57566638200696],[-58.401656336739215,-34.575323111404266],[-58.402139048346875,-34.57474309547305],[-58.40241341039222,-34.57441342336115],[-58.402650681613316,-34.574146009020055],[-58.40251097228334,-34.57400783111582],[-58.40241289902322,-34.57390854512566],[-58.40203200094389,-34.57352293352119],[-58.40174950128075,-34.573137814765516],[-58.400666367100506,-34.571869936691655],[-58.400546129924884,-34.571748959388486],[-58.40045277944997,-34.57165503409935],[-58.4003062620523,-34.571507613196104],[-58.399922299006796,-34.57105529402667],[-58.39988983229458,-34.57101704676128],[-58.39972018078614,-34.57081264566095],[-58.39964009513058,-34.57056742848786],[-58.399634041448884,-34.57040908342116],[-58.39965580847329,-34.57020478189763],[-58.3997022573878,-34.570023478706126],[-58.39981048275632,-34.569803898801524],[-58.39991401943937,-34.569658811381096],[-58.40005258308395,-34.569464639250725],[-58.40011285883496,-34.56938017324821],[-58.400130827549326,-34.56935499307565],[-58.4001310817211,-34.56935463624212],[-58.400014578603795,-34.56943179417062],[-58.39981012716323,-34.56956719808264],[-58.39957938435263,-34.56972001327606],[-58.39943743531723,-34.56981402207583],[-58.399349486985514,-34.56987226755902],[-58.39934418719556,-34.569875777642594],[-58.399342279477466,-34.56987673939239],[-58.39930046037549,-34.569897821903346],[-58.39927504314985,-34.56991063562721],[-58.399239683202,-34.569928461577625],[-58.39921842867878,-34.56993917657566],[-58.39918379292282,-34.56995663741251],[-58.399000852707964,-34.57004886231943],[-58.39882305504986,-34.57013849404819],[-58.39880175804048,-34.57014923031088],[-58.398704238673055,-34.57020481931057],[-58.39837000346693,-34.570395345116474],[-58.39521040516281,-34.57219633516644],[-58.39482489558856,-34.572315065434594],[-58.39432813944651,-34.572296123527934],[-58.39432369245147,-34.572295810023014],[-58.393536954093335,-34.57224031281104],[-58.39331562572042,-34.57222469870976],[-58.39321300395259,-34.572217459067375],[-58.39302210038703,-34.57222836652138],[-58.392844391633396,-34.572238519806525],[-58.392844035532704,-34.57223854015185],[-58.39288254571333,-34.57217018958862],[-58.392919292797735,-34.57210496817534],[-58.3929384587564,-34.57207095098485],[-58.392988738896264,-34.57198170984933],[-58.39295349899968,-34.572002437011115],[-58.392925837237605,-34.572018706903116],[-58.391536993069565,-34.572835563215804],[-58.39044106106182,-34.57348011973386],[-58.38950419006827,-34.574031111640174],[-58.38857825885534,-34.57453471863471],[-58.388578258855325,-34.57453471863472],[-58.388578258855325,-34.57453471863472],[-58.38794483725291,-34.57487735658503],[-58.387584892277474,-34.57437142741624],[-58.38735585965709,-34.57410035303073],[-58.386648203813365,-34.573230796984284],[-58.387014422683826,-34.57302180909186],[-58.387112606281214,-34.57296577826419],[-58.39126553617799,-34.57061099020856],[-58.39124258028168,-34.57048313903892],[-58.39125545971663,-34.57040732764561],[-58.39119335450468,-34.570307705203405],[-58.391173765303876,-34.57027628227696],[-58.39116182848112,-34.570257134610415],[-58.39110035459497,-34.57015852517448],[-58.39106127049534,-34.570095831261824],[-58.39106126999178,-34.570095830454036],[-58.39104988784542,-34.57007757153593],[-58.3910495744552,-34.57007706927799],[-58.39104957444135,-34.57007706925576],[-58.39096539590499,-34.57002177727029],[-58.39096539588872,-34.57002177725797],[-58.39088684521191,-34.56996220678807],[-58.39088616458699,-34.569961690768245],[-58.39087992197715,-34.569956235236056],[-58.39081227797395,-34.569897111973084],[-58.39074410846612,-34.56982836472794],[-58.39068199901813,-34.56975579539412],[-58.39062626096325,-34.56967976834249],[-58.39060304223377,-34.56964235070556],[-58.39057717510426,-34.56960066505247],[-58.3905349862652,-34.56951888410852],[-58.3905101200787,-34.56945930291869],[-58.3904999087449,-34.569434835794695],[-58.39049606319298,-34.56943017113904],[-58.3904950886105,-34.56942898897008],[-58.3904669561023,-34.569419665857865],[-58.39041951946283,-34.56940029653227],[-58.39037461752779,-34.56937715803421],[-58.3903468372457,-34.56936009725704],[-58.390320444344695,-34.569341592315716],[-58.390307722966845,-34.56934797852994],[-58.39023217959457,-34.56938590053064],[-58.389410904829745,-34.569318720012184],[-58.384285969762935,-34.56889937155141],[-58.38421222182029,-34.56888231747512],[-58.38414077862521,-34.5688595146471],[-58.3840847735841,-34.568836335834085],[-58.384072295992546,-34.56883117172653],[-58.38407152835466,-34.568830774027624],[-58.384007396994775,-34.56879754873399],[-58.383946677414066,-34.568758952547576],[-58.38389181858826,-34.56871660660198],[-58.38389069048737,-34.568715735991205],[-58.38383994908964,-34.568668293328685],[-58.38380742481595,-34.56863970413327],[-58.383746113340194,-34.56857749548544],[-58.38374611134072,-34.56857749313374],[-58.38369122795339,-34.56851294097727],[-58.38369029516254,-34.56851184427379],[-58.383690295128574,-34.56851184423384],[-58.3836761019996,-34.56850586654331],[-58.38365904754745,-34.56849868375193],[-58.3835978121326,-34.56847735875114],[-58.383555684968584,-34.56846268810202],[-58.38344944403308,-34.56843297793418],[-58.38334088031682,-34.5684097077489],[-58.3833079198103,-34.56840471586107],[-58.3832305657687,-34.56839300050929],[-58.38311907890753,-34.56838294402902],[-58.3823578975434,-34.56841106198989],[-58.38231621866791,-34.5684101527513],[-58.38227511442948,-34.56840437166756],[-58.38146827466691,-34.56842771226113],[-58.3811598687339,-34.568488968018855],[-58.38112144242142,-34.56849929324102],[-58.38108543591219,-34.56851445713723],[-58.3810527354917,-34.56853408711624],[-58.381024142559,-34.568557701457244],[-58.38100035945013,-34.56858472011782],[-58.380981969807834,-34.56861448094553],[-58.38096942549319,-34.56864625138751],[-58.38083489976637,-34.569111241825695],[-58.380748120597985,-34.56939738706401],[-58.38076083061637,-34.569665710725744],[-58.380734768170235,-34.56978017518969],[-58.38071286801795,-34.57005920871174],[-58.38071177905449,-34.57011796206073],[-58.38035971013943,-34.5701033905104],[-58.38035794268092,-34.570103317355645],[-58.38039974238176,-34.56865801797296],[-58.380408608986215,-34.568609827602934],[-58.38041004368817,-34.568573244952105],[-58.38041032802914,-34.56856599469932],[-58.38039473358405,-34.568466077808594],[-58.380366798418564,-34.56842541898159],[-58.38028774694646,-34.56832602338943],[-58.380225019321294,-34.56827913199795],[-58.38010293600549,-34.56822542682625],[-58.379960350933935,-34.568203880754226],[-58.379851866511075,-34.568198162218806],[-58.37947934747909,-34.56816629822301],[-58.378535076640986,-34.56809678421596],[-58.37762667852509,-34.56801550862558],[-58.37674072519135,-34.56793409453383],[-58.3759847797093,-34.56786582307775],[-58.37504725950455,-34.56779297662998],[-58.374486514948316,-34.56775185373359],[-58.374075222182825,-34.567716495994524],[-58.37328408901896,-34.56765290629368],[-58.372576187816136,-34.56758563175271],[-58.37133446823288,-34.567487618504884],[-58.37048307998364,-34.56742157737633],[-58.37013504413908,-34.56739978487756],[-58.36973114823106,-34.56736560941549],[-58.3692198684073,-34.5673199150714],[-58.3687923698901,-34.567281348757],[-58.36838575096735,-34.567242651196224],[-58.36832799758145,-34.56723741270852],[-58.36826021704755,-34.56723126467845],[-58.3681686748618,-34.56723723750758],[-58.368093696409204,-34.56726161481223],[-58.36808548798829,-34.567279670567736],[-58.368082716248196,-34.56731692160571],[-58.36812331355127,-34.56732770685442],[-58.368172897200196,-34.567306270702346],[-58.36825313587637,-34.567306333202815],[-58.369104995984834,-34.5673831314218],[-58.36977516218546,-34.567440262083515],[-58.37031790415231,-34.56748557854737],[-58.37094558828045,-34.5675465749276],[-58.37161577207298,-34.56759002971638],[-58.37251244161006,-34.56770002613299],[-58.37318732635644,-34.56776299833632],[-58.37456542695698,-34.56788114312901],[-58.37531112646381,-34.567932441518735],[-58.376103993906234,-34.56801500512736],[-58.37691575894963,-34.56808195892439],[-58.37775584113339,-34.56815283167965],[-58.378647848440124,-34.56821983016383],[-58.379204762269254,-34.568263164690606],[-58.379785272678646,-34.568310417331524],[-58.37995514132869,-34.568361292045104],[-58.38002587101556,-34.568431621477195],[-58.380039824447316,-34.56844318319935],[-58.38004316652893,-34.56845937215031],[-58.38005049836023,-34.568474321906486],[-58.380060552288626,-34.568488144931976],[-58.38007308455827,-34.568500504827675],[-58.38007411019326,-34.56850124391227],[-58.38008778926404,-34.56851110120919],[-58.3801043081535,-34.56851967512211],[-58.38012223933645,-34.56852601716079],[-58.38014100959687,-34.56852994524006],[-58.380149075501585,-34.56853737123484],[-58.38016233445288,-34.568553486364834],[-58.38019625311407,-34.56861316162888],[-58.38022091930283,-34.5686841670931],[-58.38022526064687,-34.56869666431475],[-58.38024745947292,-34.56878158300905],[-58.38026275078525,-34.5688675399504],[-58.3802710662954,-34.568954149284316],[-58.38027236822573,-34.5690410251757],[-58.38026665040324,-34.56912777820425],[-58.38023422068042,-34.56984564966574],[-58.380064040777185,-34.569917085384674],[-58.38004894496832,-34.569924726399634],[-58.380035503646425,-34.56993425072005],[-58.38002405704293,-34.5699454169963],[-58.38001489530432,-34.56995794237887],[-58.3800082486756,-34.569971511526106],[-58.38000428531821,-34.56998577930673],[-58.38000310693466,-34.57000038702261],[-58.38000474113784,-34.570014965107696],[-58.380009147978285,-34.57002914394978],[-58.38003022933984,-34.57037267398053],[-58.37983971645403,-34.570357655009786],[-58.37953196443097,-34.57033339054027],[-58.37953183461556,-34.57033338077373],[-58.379530223189136,-34.5703332595399],[-58.37952882127886,-34.570333154282864],[-58.379528708591884,-34.57033314582219],[-58.379525452754606,-34.57033289930118],[-58.379523561141475,-34.57033275828187],[-58.379523466859,-34.570332751239775],[-58.37952219691374,-34.5703326563858],[-58.379518939983186,-34.57033241346958],[-58.37951568304903,-34.570332174158956],[-58.37951339372083,-34.570332000415156],[-58.37951243374928,-34.57033192854353],[-58.37950917682057,-34.57033168382421],[-58.37950914195226,-34.57033168109597],[-58.37950592097982,-34.57033144090833],[-58.37950418438708,-34.570331310402565],[-58.379504044622834,-34.57033129989922],[-58.37950266622428,-34.57033120250032],[-58.37950230992996,-34.57033117546008],[-58.37949990944166,-34.57033099327972],[-58.37949947527158,-34.57033096075797],[-58.37949941147689,-34.570330955979394],[-58.37949918941575,-34.57033093942801],[-58.37949615236702,-34.57033071306105],[-58.37949399706081,-34.570330552930265],[-58.37949289543751,-34.57033046924273],[-58.37948964068839,-34.57033022452436],[-58.379486385939266,-34.5703299798059],[-58.379484576048895,-34.57032984515206],[-58.37948436199641,-34.5703298290039],[-58.3794831290098,-34.570329735987286],[-58.37948162915392,-34.57032962370581],[-58.37947987208038,-34.57032949216859],[-58.379479837212074,-34.57032948944037],[-58.37947941007366,-34.57032945759713],[-58.37947661623799,-34.57032925105485],[-58.3794765105246,-34.570329243083215],[-58.37947509619315,-34.57032913643128],[-58.379473360399246,-34.57032900633531],[-58.379470106739035,-34.5703287625186],[-58.379466848720874,-34.570328517797385],[-58.3794658255511,-34.57032844047341],[-58.379463589613,-34.570328273075354],[-58.3794631197354,-34.570328238385244],[-58.379460335949226,-34.57032803286406],[-58.3794575648267,-34.57032782297282],[-58.37945708120209,-34.570327786341956],[-58.37945700134873,-34.57032778042052],[-58.37945590330212,-34.570327698995996],[-58.37945382427192,-34.570327543424],[-58.379450567339056,-34.57032730321024],[-58.379450534650154,-34.57032730048351],[-58.37944958993481,-34.57032722862188],[-58.37944948097099,-34.57032722043418],[-58.37944731694906,-34.57032705849374],[-58.379447167329296,-34.57032704742926],[-58.37944613577991,-34.57032697114541],[-58.37944406110594,-34.57032681828054],[-58.379440806356165,-34.57032657446232],[-58.37943754833818,-34.570326329740304],[-58.37943639985974,-34.57032624331576],[-58.37943456677404,-34.57032610640623],[-58.37943429249875,-34.57032608592115],[-58.37943103557053,-34.57032584119973],[-58.37942945668459,-34.57032572292947],[-58.379427781907836,-34.570325600086164],[-58.37942672604747,-34.570325521838015],[-58.37942452497785,-34.57032535716743],[-58.37942126695723,-34.570325115149295],[-58.37942123099921,-34.57032511242031],[-58.37941999425806,-34.570325021427834],[-58.3794180100318,-34.57032486772325],[-58.379415243011145,-34.5703246611388],[-58.379414756371,-34.57032462480648],[-58.3794145346029,-34.57032460842828],[-58.37941150379726,-34.570324384594656],[-58.37940824251299,-34.57032413716536],[-58.37940498775982,-34.57032389695187],[-58.379402562224385,-34.57032371590093],[-58.37940173083085,-34.57032365313109],[-58.379399910045365,-34.57032351666567],[-58.37939847717288,-34.57032340750963],[-58.37939525184219,-34.57032316731608],[-58.37939522024394,-34.57032316368867],[-58.379393205502915,-34.570323012667],[-58.379391963315975,-34.57032291896622],[-58.37938870529823,-34.570322674242895],[-58.3793859353582,-34.57032246632737],[-58.37938545708716,-34.57032243042767],[-58.3793837376384,-34.57032230124307],[-58.37938220124803,-34.57032218660717],[-58.379381879329536,-34.57032216239671],[-58.37937969726012,-34.570321998290424],[-58.37937948151192,-34.57032198191641],[-58.379379019231514,-34.570321946604814],[-58.37937898136876,-34.57032194371264],[-58.379378945410735,-34.570321940983646],[-58.37937568847557,-34.57032170347215],[-58.37937391236596,-34.57032156974133],[-58.379372651036036,-34.57032147513158],[-58.37937243263741,-34.570321458749945],[-58.37936917679925,-34.570321214027615],[-58.37936591986959,-34.57032097110729],[-58.37936433444643,-34.57032085193027],[-58.37936266403149,-34.57032072638481],[-58.379359406013066,-34.57032048256215],[-58.379358900421266,-34.57032044435454],[-58.37935657007579,-34.57032026700847],[-58.37935615126744,-34.570320235135945],[-58.37935477614114,-34.57032013503336],[-58.379352896515485,-34.57031999401966],[-58.379349678813995,-34.57031975292873],[-58.37934963958683,-34.57031975019748],[-58.379346383748796,-34.57031950547454],[-58.37934538673162,-34.57031942906902],[-58.37934312791806,-34.57031925354012],[-58.37933987316527,-34.57031901332489],[-58.379338055650976,-34.57031887505795],[-58.379336621687095,-34.57031876770328],[-58.379333364756725,-34.570318525683525],[-58.37933114843231,-34.570318360099336],[-58.37933018746014,-34.5703182861062],[-58.379330108919724,-34.57031828005874],[-58.37932961886302,-34.57031824323609],[-58.37932685199209,-34.57031803533454],[-58.37932359615331,-34.57031779151242],[-58.37932160647427,-34.570317642309675],[-58.37932043409175,-34.57031755469816],[-58.37932034031454,-34.57031754769024],[-58.37931708448126,-34.57031729845938],[-58.37931707971855,-34.570317298108435],[-58.37931704743351,-34.570317295729616],[-58.37931656145491,-34.5703172593382],[-58.37931382864253,-34.57031705463701],[-58.379312515630325,-34.5703169545767],[-58.379310571718634,-34.57031680630668],[-58.37930732133399,-34.57031655707932],[-58.37930559643868,-34.57031642608703],[-58.37930410145877,-34.57031631057715],[-58.379304065500754,-34.57031630784812],[-58.379300808573284,-34.57031606312323],[-58.37929919809404,-34.57031593671671],[-58.37929755274555,-34.57031580848331],[-58.37929429800209,-34.570315559252634],[-58.379291048709064,-34.5703153082227],[-58.37928779069832,-34.57031505718677],[-58.37928620636691,-34.57031493620663],[-58.37928453377458,-34.57031480885574],[-58.37928127685086,-34.57031456052461],[-58.37927802320268,-34.57031430588565],[-58.37927476627809,-34.5703140584558],[-58.379273151437296,-34.57031393475022],[-58.37927151480393,-34.57031380922675],[-58.37926868060762,-34.57031359319872],[-58.37926825679057,-34.57031356089451],[-58.37926816216957,-34.570313553656064],[-58.379266901283046,-34.570313457198765],[-58.3792650020482,-34.57031331076164],[-58.37926174730222,-34.57031306423432],[-58.379259995170095,-34.570312929831516],[-58.3792597314756,-34.570312909604],[-58.37925849146926,-34.570312815001934],[-58.37925523237083,-34.5703125621615],[-58.37925464723595,-34.57031251758872],[-58.379251976533375,-34.57031231743605],[-58.379250837861896,-34.570312231917924],[-58.37924872287628,-34.57031207181058],[-58.37924547466688,-34.57031182709019],[-58.37924270553994,-34.57031161331072],[-58.37924221120874,-34.57031157514785],[-58.3792422067014,-34.57031157466667],[-58.3792421687142,-34.57031157061143],[-58.379239202236725,-34.570311344409376],[-58.37923895973478,-34.57031132591794],[-58.37923876342977,-34.57031131095804],[-58.37923764672275,-34.570311225856805],[-58.37923570281133,-34.57031107758557],[-58.37923244915616,-34.570310830156835],[-58.379229191143956,-34.57031058092213],[-58.37922593531117,-34.57031033168887],[-58.379224289960206,-34.57031020615878],[-58.37922267947661,-34.57031008425836],[-58.3792194236439,-34.57030983502493],[-58.37921617216466,-34.570309591202935],[-58.379215052019404,-34.570309504795844],[-58.379214867869514,-34.57030949204901],[-58.379212953379685,-34.570309344699126],[-58.37921291633197,-34.570309341969335],[-58.37920966049386,-34.57030909814418],[-58.3792082733819,-34.57030899713027],[-58.37920823088559,-34.570308994396726],[-58.37920640356243,-34.57030885792389],[-58.379205136309636,-34.57030876690823],[-58.37920314771801,-34.57030862040853],[-58.37920034734362,-34.5703084156583],[-58.3792002897268,-34.570308411368956],[-58.379199895143664,-34.570308381993954],[-58.379197047951685,-34.570308171415775],[-58.37919663494404,-34.57030814086973],[-58.379196538272275,-34.570308133956345],[-58.37919448399153,-34.57030798704662],[-58.379193378004516,-34.57030790876193],[-58.379192329002514,-34.57030783365571],[-58.379192157606035,-34.5703078213841],[-58.37919011998164,-34.57030767034332],[-58.3791883950722,-34.57030755377215],[-58.37918686194789,-34.57030744274172],[-58.379185005196014,-34.570307312558256],[-58.379184001635366,-34.57030724155546],[-58.37918360609269,-34.57030721604297],[-58.37918253279635,-34.57030713868211],[-58.37918034479797,-34.57030698032611],[-58.37917708896006,-34.570306736500086],[-58.37917383312673,-34.570306488166864],[-58.37917057621273,-34.57030623081853],[-58.37916930690716,-34.570306131785564],[-58.37916907251727,-34.57030611349814],[-58.37916894653115,-34.57030610366642],[-58.379167312757744,-34.57030597616986],[-58.37916405911658,-34.57030571521792],[-58.379161570393016,-34.57030551969583],[-58.37916080547181,-34.570305457871584],[-58.37915767278047,-34.570305206017096],[-58.379157582341044,-34.57030519874333],[-58.37915754202413,-34.57030519601127],[-58.37915428293266,-34.570304936858165],[-58.37915102928162,-34.57030468582153],[-58.37914941117112,-34.57030456301348],[-58.379147767999804,-34.57030443748386],[-58.37914472136911,-34.57030421273114],[-58.37914454920617,-34.570304199992485],[-58.37914451215934,-34.57030419636123],[-58.37914125085851,-34.5703039669533],[-58.37913798846256,-34.5703037429531],[-58.37913473367827,-34.57030353518376],[-58.37913147125417,-34.57030333912759],[-58.37912820990163,-34.570303161100604],[-58.37912494853459,-34.57030299749633],[-58.379123743358704,-34.57030294348114],[-58.379123655272814,-34.570302939625954],[-58.37912169259616,-34.570302853727114],[-58.37911937267203,-34.57030276468891],[-58.37911849600042,-34.57030273134876],[-58.379118431190044,-34.570302728884016],[-58.37911838978161,-34.57030272795404],[-58.379115167582746,-34.57030262567355],[-58.37911190395451,-34.570302543195766],[-58.37910864138785,-34.57030248866287],[-58.37910861313361,-34.570302488339365],[-58.37910596070764,-34.57030245796828],[-58.379105378446475,-34.57030245132299],[-58.379105372265634,-34.57030245125244],[-58.379102107485004,-34.570302430972056],[-58.379102107485,-34.570302430972056],[-58.379102107485,-34.570302430972056],[-58.37910044238948,-34.57030243433068],[-58.37909884049771,-34.57030243773284],[-58.37909680161846,-34.57030245074924],[-58.379095566959336,-34.57030245710901],[-58.37909230102537,-34.570302499927415],[-58.37909023160952,-34.57030253726115],[-58.37908902853677,-34.57030255896688],[-58.37908575603543,-34.570302630626244],[-58.379082483509514,-34.570302726624014],[-58.37907921206153,-34.57030283434096],[-58.37907794684844,-34.570302882145064],[-58.37907749677802,-34.57030289806021],[-58.37907708811786,-34.5703029131025],[-58.37907594059445,-34.570302960987775],[-58.37907406074879,-34.570303039016274],[-58.37907402151707,-34.570303040792034],[-58.37907267238558,-34.570303098453884],[-58.37906939870995,-34.570303253944665],[-58.37906613482723,-34.57030342386494],[-58.37906287093175,-34.57030360640507],[-58.379062833879495,-34.57030360818236],[-58.37905960375257,-34.57030380336568],[-58.379058230616344,-34.57030389165929],[-58.37905634745876,-34.570304012052254],[-58.379053123851044,-34.57030422616992],[-58.37905308570813,-34.57030422884785],[-58.37904983374498,-34.57030446548148],[-58.37904856194533,-34.57030456105632],[-58.37904658831193,-34.57030471023236],[-58.37904491108762,-34.57030485420439],[-58.37904333630599,-34.570304989232824],[-58.37904009516178,-34.57030530339635],[-58.379036859428815,-34.570305654521995],[-58.37903362476192,-34.5703060290854],[-58.37903248695134,-34.57030617072536],[-58.379030998208385,-34.570306354490064],[-58.37903038898163,-34.570306427085065],[-58.37902866045768,-34.57030665305126],[-58.37902715971418,-34.57030685032904],[-58.379023934790084,-34.570307288900196],[-58.37902070440466,-34.570307740087465],[-58.37901748055383,-34.57030819488487],[-58.379014255608766,-34.57030865418858],[-58.37901287255484,-34.57030885154743],[-58.3790128344092,-34.57030885692965],[-58.37901102957388,-34.57030911349142],[-58.37900780027439,-34.570309568284806],[-58.379004575340076,-34.57031001677116],[-58.37900317703734,-34.57031020690798],[-58.37900134496715,-34.57031045533794],[-58.378998113529065,-34.57031086956541],[-58.378997164262515,-34.57031098879955],[-58.37899713265701,-34.57031099238343],[-58.378994879926026,-34.57031126936843],[-58.37899164198687,-34.57031164663275],[-58.378988401887305,-34.57031200496552],[-58.37898515635462,-34.57031234797019],[-58.37898345947959,-34.57031252708345],[-58.37898191627228,-34.5703126891757],[-58.37897866638978,-34.57031302316293],[-58.37897542304734,-34.570313355351765],[-58.37897217425539,-34.57031368843814],[-58.37897036076854,-34.570313879189186],[-58.37896893308328,-34.57031402964255],[-58.378965691897456,-34.570314384368245],[-58.378964399138084,-34.57031453095928],[-58.378963131851755,-34.57031467466177],[-58.3789624517895,-34.57031475081319],[-58.37896240819436,-34.57031475709304],[-58.37896216079803,-34.57031478666921],[-58.37896030804843,-34.57031500984433],[-58.37895921601582,-34.57031514159952],[-58.378957959404644,-34.57031530388948],[-58.37895599111381,-34.57031555763324],[-58.37895276618996,-34.57031599530108],[-58.37895151609522,-34.57031617922971],[-58.37895085512681,-34.57031627618883],[-58.37894954667916,-34.57031646812821],[-58.37894683285726,-34.57031688271199],[-58.37894633042014,-34.57031695808462],[-58.37894578111234,-34.57031704604485],[-58.37894312395313,-34.570317463371964],[-58.37894150872768,-34.570317720965136],[-58.378939916389044,-34.57031797586989],[-58.37893912117225,-34.57031810476306],[-58.378936704457864,-34.57031849647755],[-58.378933547005346,-34.570319024334154],[-58.37893350231954,-34.570319031514664],[-58.37893030017757,-34.570319570157466],[-58.378927094754516,-34.57032012051645],[-58.37892389695311,-34.57032067719056],[-58.378921839193985,-34.570321040845954],[-58.378920696961295,-34.57032124468024],[-58.3789175427413,-34.57032180859573],[-58.37891749914431,-34.57032181667842],[-58.37891430676861,-34.57032239589173],[-58.37891115798528,-34.57032297152937],[-58.37891111438828,-34.57032297961209],[-58.37890792091458,-34.57032356693731],[-58.37890583806536,-34.57032395671642],[-58.3789047328803,-34.570324163280475],[-58.37890153939739,-34.570324759619744],[-58.37889835244364,-34.57032536497776],[-58.37889676441443,-34.570325668561935],[-58.378895167669306,-34.570325970337194],[-58.37889198834166,-34.57032657750316],[-58.378888798105876,-34.57032719547861],[-58.378887433511,-34.570327457751546],[-58.3788856187745,-34.570327806250106],[-58.378882429633784,-34.57032841881758],[-58.37887924702497,-34.57032903769948],[-58.37887767860693,-34.570329344902696],[-58.37887606550311,-34.57032965928636],[-58.37887377239104,-34.57033010798318],[-58.37887287962049,-34.57033028267297],[-58.37887273792778,-34.570330311420626],[-58.37886970027248,-34.57033090966973],[-58.378866523094764,-34.57033154568216],[-58.378864865289536,-34.57033188257042],[-58.37886423472928,-34.57033201045126],[-58.37886334590788,-34.57033219070877],[-58.37886016871548,-34.570332841143866],[-58.37885703075387,-34.57033349070459],[-58.37885699587552,-34.57033349789187],[-58.37885382520405,-34.570334165458405],[-58.378851904698834,-34.57033457878602],[-58.37885066214962,-34.570334843847256],[-58.37884885172339,-34.57033524012387],[-58.378847501261816,-34.57033553485749],[-58.37884491255423,-34.57033610983763],[-58.37884434145273,-34.5703362366855],[-58.37884119143741,-34.57033695204161],[-58.37883804576813,-34.570337680020586],[-58.378834905528244,-34.57033842693322],[-58.378831770725064,-34.570339185568095],[-58.3788286391737,-34.57033996133225],[-58.37882551196929,-34.57034074881785],[-58.378825467278915,-34.57034076050548],[-58.378822393470685,-34.57034154802797],[-58.37881926951526,-34.57034235534704],[-58.37881615643873,-34.570343180702125],[-58.378816117197886,-34.57034319149209],[-58.37881304335484,-34.570344013268496],[-58.37880993461242,-34.57034486296492],[-58.37880683784779,-34.570345721683836],[-58.37880373997603,-34.570346597528996],[-58.378803706184684,-34.5703466074213],[-58.37880064754001,-34.57034748599782],[-58.378797560542516,-34.570348384386],[-58.37879447898261,-34.57034929359504],[-58.37879444410062,-34.57034930438796],[-58.378791405035166,-34.570350218133456],[-58.37879031061354,-34.570350556312164],[-58.378788341967535,-34.57035115980644],[-58.378786192364124,-34.57035182627528],[-58.37878528107288,-34.57035210779086],[-58.37878222451695,-34.570353075609596],[-58.37877918212093,-34.570354049748055],[-58.37877614841892,-34.570355047329514],[-58.37877312123869,-34.57035606114111],[-58.378770101667314,-34.57035709388786],[-58.37876709079717,-34.570358142866255],[-58.378764087534925,-34.570359211681186],[-58.37876108971391,-34.57036028771126],[-58.378758095149216,-34.57036137636349],[-58.37875510819694,-34.5703624803451],[-58.37875212777471,-34.57036359244409],[-58.37875208634987,-34.570363607739644],[-58.37874914517112,-34.57036470634431],[-58.378747832644564,-34.57036520302263],[-58.37874617127705,-34.57036582836334],[-58.37874319520161,-34.57036695218361],[-58.37874022020941,-34.57036808231458],[-58.3787382699464,-34.570368825541905],[-58.37873725066847,-34.57036920974495],[-58.37873625428011,-34.57036958855528],[-58.37873621067489,-34.570369604750766],[-58.378734274590954,-34.57037033536789],[-58.378731300695534,-34.570371458287944],[-58.37873002688151,-34.57037193835566],[-58.3787283235318,-34.570372580304294],[-58.378725355093046,-34.57037369511515],[-58.37872460399566,-34.570373971332714],[-58.378722361597035,-34.570374803598604],[-58.37872232344221,-34.570374817995],[-58.37872042334258,-34.57037552519972],[-58.37872032741067,-34.570375561190325],[-58.37872028598578,-34.57037557648589],[-58.37871938117849,-34.57037591118963],[-58.37871639531491,-34.57037701517111],[-58.37871341163348,-34.57037811644973],[-58.3787104192314,-34.570379220426524],[-58.378708706641035,-34.57037985113974],[-58.378707432283385,-34.57038031899847],[-58.37870444424006,-34.570381422978116],[-58.378701460559185,-34.57038252335503],[-58.37869847469514,-34.57038362733606],[-58.37869733441862,-34.57038405021624],[-58.37869548882829,-34.570384734021296],[-58.37869339250274,-34.57038551590802],[-58.37869250840448,-34.570385846118796],[-58.378689526887214,-34.57038696182113],[-58.37868654427741,-34.570388080226955],[-58.378683576915385,-34.570389206756104],[-58.378680605191676,-34.570390335986446],[-58.37867764108313,-34.570391477841966],[-58.37867631654866,-34.570391994342565],[-58.378674682416715,-34.57039262601116],[-58.37867172810182,-34.570393781394735],[-58.37866881519617,-34.57039493680692],[-58.378668783581496,-34.570394949404964],[-58.37866584123325,-34.570396124628076],[-58.37866290867689,-34.57039731518214],[-58.3786618108726,-34.57039776423281],[-58.37866098561351,-34.570398099892685],[-58.37866088749665,-34.570398141290276],[-58.37866078174992,-34.570398184485455],[-58.37865998047108,-34.57039851385199],[-58.378659088702484,-34.57039888552281],[-58.37865875728589,-34.57039902501412],[-58.378657058784334,-34.57039973145624],[-58.378654152340815,-34.570400961690936],[-58.378651257864924,-34.57040221086389],[-58.3786483655529,-34.57040347536248],[-58.378645520095084,-34.5704047434992],[-58.37864548629822,-34.57040475880002],[-58.378642616838114,-34.57040605486425],[-58.378639758262395,-34.57040736355595],[-58.37863690293926,-34.5704086884755],[-58.3786340574126,-34.57041002421892],[-58.378631219504726,-34.57041136898177],[-58.378628388125925,-34.570412722763436],[-58.37862556000529,-34.57041408736434],[-58.37862274604264,-34.57041546008786],[-58.37862231647978,-34.57041566982226],[-58.37861992771832,-34.570416835512574],[-58.37861989282806,-34.57041685441833],[-58.37861910456612,-34.570417242386355],[-58.37861789545905,-34.57041784009479],[-58.37861711810067,-34.57041822176037],[-58.37861431284003,-34.570419609813996],[-58.37861150757288,-34.57042100417754],[-58.37860870884667,-34.57042239584126],[-58.378605917731996,-34.57042380373588],[-58.37860414057034,-34.57042470663365],[-58.37860313423795,-34.57042521884717],[-58.3786003605449,-34.57042664027512],[-58.37859758574467,-34.57042807882936],[-58.378594818566896,-34.5704295227974],[-58.37859209935228,-34.57043095147441],[-58.37859206010131,-34.570430972179985],[-58.37858930925638,-34.570432428779185],[-58.3785865573143,-34.57043389258904],[-58.37858651697267,-34.57043391419524],[-58.37858381408714,-34.570435359109084],[-58.378581063233696,-34.570436823820934],[-58.378581034884455,-34.57043684002694],[-58.37857964037159,-34.57043758814458],[-58.37857832108966,-34.57043829665162],[-58.37857557240632,-34.570439770379124],[-58.378572832442465,-34.570441242309776],[-58.37857009247668,-34.57044271604322],[-58.37857005540603,-34.570442735848864],[-58.3785673503332,-34.570444187972214],[-58.37856460274467,-34.570445656291675],[-58.37856273394674,-34.57044665647933],[-58.378561856244815,-34.57044712551327],[-58.37855652681829,-34.570449950490044],[-58.37678208141083,-34.57144943692702],[-58.37656155782953,-34.57157364685413],[-58.37640938852047,-34.57163274948953],[-58.37616391128904,-34.57165990605206],[-58.375172716975435,-34.57162014940576],[-58.374502536316655,-34.57154157358743],[-58.37229362383004,-34.57142671603336],[-58.37151014239038,-34.57136756179744],[-58.369485381424276,-34.571202033177556],[-58.368229930226676,-34.57110735368426],[-58.36697920203767,-34.57101266500668],[-58.36655914200314,-34.57098500127647],[-58.36597862064075,-34.57093768574065],[-58.36530370661967,-34.570882482688525],[-58.36485061615788,-34.57084697754436],[-58.36442112206158,-34.57081539434147],[-58.36424530393281,-34.57080437889668],[-58.36386120451674,-34.57078019632595],[-58.363333976689816,-34.57074635382559],[-58.36287189248291,-34.570717641108594],[-58.362235416446424,-34.570669359274135],[-58.36194461435511,-34.57064670426012],[-58.36176174534931,-34.570646552283726],[-58.36168259034677,-34.57064874418397],[-58.36165119963488,-34.570650975816555],[-58.36161843185904,-34.57066336625129],[-58.361565170281146,-34.57069493062912],[-58.3614558281601,-34.570754917631476],[-58.3612715626445,-34.57085682361667],[-58.36110487611366,-34.570950342657866],[-58.36090007568181,-34.5710652448023],[-58.36065412112504,-34.57120018909089],[-58.36048073137225,-34.57129161828082],[-58.360269750592956,-34.571405473505955],[-58.3600692464652,-34.57151761613385],[-58.359935977373084,-34.57159215363158],[-58.35985675432091,-34.5716485307181],[-58.359845713592144,-34.57174786314672],[-58.359872932345944,-34.571808845943444],[-58.35991659477749,-34.57181565623434],[-58.36001220007828,-34.5717547774381],[-58.36007775927357,-34.571711935305125],[-58.36021359296642,-34.57163855376064],[-58.36035938611926,-34.57155979149617],[-58.3605284140689,-34.57146847662335],[-58.36074689436832,-34.57134967306632],[-58.360936184313175,-34.571246741826585],[-58.36113043934082,-34.57114021784758],[-58.36127322885698,-34.5710616464545],[-58.36136963594368,-34.57100859728932],[-58.36146222120678,-34.570951845726],[-58.36157303764611,-34.5708839188877],[-58.361645511421386,-34.57083949472865],[-58.361721964668206,-34.570814722922265],[-58.36178476816166,-34.5707921974853],[-58.36186668010824,-34.570767430127496],[-58.361989527398904,-34.570747212232305],[-58.3621041645752,-34.57074504955341],[-58.36232214538106,-34.57075748531626],[-58.362950755446334,-34.57079501172918],[-58.36374328450279,-34.57085090579357],[-58.36445169328923,-34.570900521920485],[-58.36515751409326,-34.570954707430914],[-58.36630510620912,-34.57105015419649],[-58.3672295323463,-34.57112285159879],[-58.368221835068226,-34.57120269626897],[-58.36915631870355,-34.571277881068475],[-58.370046512957735,-34.57134167651312],[-58.37077824313574,-34.571394059904506],[-58.37116325148806,-34.57142162024836],[-58.37151434490587,-34.57144675175944],[-58.37208766183861,-34.571498735148964],[-58.37251867151388,-34.57153781353934],[-58.372936053133586,-34.57155920878803],[-58.37348382109733,-34.571586004772385],[-58.37368134309648,-34.57159511688939],[-58.374429136945245,-34.5716588811228],[-58.37612128305425,-34.57180043785599],[-58.37614935554656,-34.57180581775957],[-58.376120462007,-34.57182209180235],[-58.37588206639118,-34.57195619957428],[-58.37585190363164,-34.571974747351256],[-58.37585186764379,-34.57197477256539],[-58.37584691138654,-34.571978001529345],[-58.375823414684156,-34.571993312545835],[-58.375802129284125,-34.57200736945609],[-58.37414935659501,-34.57307523256967],[-58.37414932715332,-34.57307524967527],[-58.37411298700031,-34.573095712544216],[-58.37410076129944,-34.57310259681637],[-58.37405167300361,-34.57313033387349],[-58.37402037372619,-34.57314801228926],[-58.37397767042983,-34.573171519987916],[-58.373977639898335,-34.57317153709266],[-58.37395543347131,-34.57318417415898],[-58.37163690585257,-34.574503642713516],[-58.37163686223392,-34.57450366792067],[-58.371625739181155,-34.574510364373],[-58.37157491880551,-34.57454095754689],[-58.3715748751868,-34.57454098275403],[-58.37154293639433,-34.57455952000929],[-58.371522661278966,-34.57457127738825],[-58.37150332601459,-34.574581615724824],[-58.3715005803465,-34.5745830829841],[-58.37149916062434,-34.574583841818374],[-58.37147913513017,-34.57459454020238],[-58.37145152691726,-34.57461024029818],[-58.37142945167906,-34.57462279497029],[-58.37138284520779,-34.574648547873885],[-58.37133401450029,-34.57467724494351],[-58.37133398614725,-34.57467726204923],[-58.3712932653191,-34.57470120388101],[-58.371293223879825,-34.57470122908971],[-58.371269796172335,-34.574715768554384],[-58.371253843999966,-34.57472566499893],[-58.371222567730086,-34.574745118517924],[-58.37122254373611,-34.57474513562694],[-58.371199973100225,-34.574761170288646],[-58.37118398224082,-34.57477253331465],[-58.37118394951867,-34.574772559431274],[-58.37116740972401,-34.57478561041139],[-58.37116562638347,-34.57478701799393],[-58.371164950132716,-34.57478755112754],[-58.37115265544877,-34.57479725020291],[-58.37114229743872,-34.574805834774025],[-58.37112802026619,-34.57481766782786],[-58.37112799189916,-34.57481769755348],[-58.3711064265273,-34.57484016643295],[-58.37110635670389,-34.574840236691436],[-58.37110635670389,-34.574840236691436],[-58.37110635670389,-34.57484023669144],[-58.37117491294684,-34.574903083579144],[-58.371174996013856,-34.574903008042526],[-58.371195595916724,-34.57488427561365],[-58.371195627556055,-34.57488424318618],[-58.371216640507804,-34.57486562746977],[-58.3712166669454,-34.57486560642102],[-58.37121667104842,-34.574865603154336],[-58.37124904505856,-34.57484094653375],[-58.37124907560313,-34.574840918612594],[-58.371260043443236,-34.57483273292251],[-58.37127397356269,-34.57482233105583],[-58.37128833126516,-34.57481256140939],[-58.371301917916526,-34.574803313105654],[-58.371336824561354,-34.57478158980719],[-58.37133686599971,-34.574781565499926],[-58.371377601525744,-34.57475716574065],[-58.37141863975588,-34.57473297532634],[-58.37144638439847,-34.574718119976986],[-58.3714722098918,-34.57470429350732],[-58.37147225787469,-34.57470426379635],[-58.37154509361959,-34.57466018566071],[-58.37160456175677,-34.57462832438044],[-58.371606209378356,-34.57462744131938],[-58.37392975226624,-34.57329736991537],[-58.37393138440186,-34.5732964355974],[-58.37419792901286,-34.573143851238534],[-58.374219820340606,-34.57313131936489],[-58.37458978623661,-34.57289432532691],[-58.375535286050805,-34.57228864824241],[-58.37576945981271,-34.572138637148534],[-58.37584003739275,-34.5720934251423],[-58.37584818911769,-34.57208675592154],[-58.37585976665776,-34.57207728391485],[-58.37587491319375,-34.57206772612391],[-58.375886303082844,-34.57206053729346],[-58.375914803138095,-34.57204282123587],[-58.37591869387191,-34.572040400987284],[-58.37593483267984,-34.57203025076065],[-58.375953607118966,-34.572018448300604],[-58.37598459384474,-34.57200082054284],[-58.37601781363592,-34.57198091827255],[-58.376035395227944,-34.571971821028626],[-58.3760436456046,-34.57196755154415],[-58.376043645763964,-34.571967551461675],[-58.37605882644565,-34.57195969286069],[-58.376087011449314,-34.57194410750917],[-58.37609402858452,-34.57194070062774],[-58.37611071771058,-34.57193259790617],[-58.37611729165873,-34.57193095118866],[-58.37612101300902,-34.57193001816597],[-58.37612124845506,-34.571929958839966],[-58.3761212490206,-34.57192995851921],[-58.376170063959265,-34.57190227303197],[-58.376188938538085,-34.57189156764272],[-58.37747971678605,-34.57115946927521],[-58.377479755232024,-34.57115944746918],[-58.37855193759237,-34.57055131091578],[-58.37855197357427,-34.57055129020794],[-58.378581909503914,-34.57053395852698],[-58.37860181081757,-34.57052243047193],[-58.37861487368515,-34.57051562655319],[-58.37861588548272,-34.57051509901918],[-58.378619084420386,-34.57051343089499],[-58.37864175608468,-34.57050162080579],[-58.37868473178447,-34.570480875425645],[-58.378684759041214,-34.57048086192314],[-58.378715095714064,-34.570466977542196],[-58.37871513169037,-34.57046696224289],[-58.378748714191346,-34.570451362885024],[-58.37874876325251,-34.57045133948191],[-58.378748807952064,-34.57045131878006],[-58.37878081211483,-34.570440430978095],[-58.37880508094279,-34.57043217448632],[-58.37884309432398,-34.57042186143038],[-58.37887467310506,-34.57041349279664],[-58.3789179135532,-34.57040456431788],[-58.378919598614495,-34.57040421572921],[-58.37895668225227,-34.57039732290893],[-58.378994297595355,-34.57039158156631],[-58.379016832038545,-34.57038932282826],[-58.37901751454118,-34.570389254419695],[-58.37901765377136,-34.57038924046437],[-58.379058291401286,-34.57038516612361],[-58.37907071232778,-34.57038488263265],[-58.379072692397735,-34.57038483622333],[-58.37907503099293,-34.5703847828499],[-58.379097723863595,-34.57038426756519],[-58.379144622267404,-34.57038418903098],[-58.379159545201325,-34.57038497905206],[-58.3791731605438,-34.57038569605604],[-58.37919031184193,-34.570386601188844],[-58.37919035125913,-34.5703866020973],[-58.37919035216067,-34.57038660211805],[-58.37919525600358,-34.57038696640497],[-58.37922889707216,-34.57038946546018],[-58.37925128590285,-34.5703911241784],[-58.379969317145736,-34.57044810795878],[-58.38036111212539,-34.57047919907209],[-58.38036099533855,-34.57048048442701],[-58.38033061383346,-34.570815133705885],[-58.380506938288235,-34.57104366498395],[-58.38026828593521,-34.57118116242306],[-58.37891022835992,-34.57196358054604],[-58.37842418492999,-34.57224359795199],[-58.37830896726909,-34.572309975435594],[-58.37830322649727,-34.57231853138215],[-58.37830319921145,-34.5723185728288],[-58.37830312391168,-34.572318678243256],[-58.37829887456591,-34.572324449820925],[-58.37829793602029,-34.57232793137704],[-58.37829703029358,-34.57233128855916],[-58.37829444728911,-34.57233694230882],[-58.37829173759575,-34.572342869102336],[-58.37829084183831,-34.57234820852769],[-58.378290089713666,-34.57235268719101],[-58.37825408590514,-34.5726616529986],[-58.378251823432564,-34.57268106363586],[-58.37825185362707,-34.57268137645178],[-58.378252547154844,-34.57268842969369],[-58.378253356084514,-34.572696662982935],[-58.378254982745325,-34.572702345805695],[-58.37825684613212,-34.57270885359833],[-58.37825691236643,-34.572709089818154],[-58.37825706022649,-34.572709429758845],[-58.37825771116514,-34.57271094957491],[-58.378261363233186,-34.57271947644751],[-58.37826137846217,-34.57271950350091],[-58.37826516484084,-34.57272610738166],[-58.37826626712463,-34.5727280298914],[-58.37826630631344,-34.57272809850415],[-58.37826640310119,-34.572728267962624],[-58.37826665342726,-34.57272857912907],[-58.37826668591482,-34.57272861951254],[-58.378266699138976,-34.57272863595075],[-58.37827312816115,-34.572736632473955],[-58.378275537586354,-34.572739102907136],[-58.37828284514359,-34.5727465954946],[-58.37828309008249,-34.57274684626169],[-58.37828312710007,-34.572746879640235],[-58.37828312727964,-34.57274687976344],[-58.37828411478665,-34.572747557327745],[-58.3782842291386,-34.572747635788765],[-58.37828422915926,-34.57274763580297],[-58.378286960345676,-34.572749513573065],[-58.37829239442104,-34.57275323393782],[-58.37830164141793,-34.57275921503011],[-58.37830331199828,-34.57276029520051],[-58.3783035232816,-34.572760421547315],[-58.378303574469626,-34.57276045133004],[-58.378313968733224,-34.57276667209816],[-58.378314011218855,-34.572766686550544],[-58.37832695313068,-34.572770955700754],[-58.37832717645543,-34.57277102887171],[-58.37832718886758,-34.57277103173301],[-58.37832721567732,-34.572771037913284],[-58.37832794076875,-34.5727711804837],[-58.3783282278546,-34.57277123693165],[-58.378335436212986,-34.57277265448417],[-58.37833552882351,-34.57277267257718],[-58.37833559528551,-34.57277268524341],[-58.37834125759493,-34.57277379884023],[-58.37835382654722,-34.57277618735292],[-58.378355553469596,-34.57277651667383],[-58.37836252327141,-34.57277783760615],[-58.37838330944903,-34.57277867056322],[-58.37841404652842,-34.57278128083823],[-58.37846027362087,-34.57278576962774],[-58.38352916066001,-34.573190030957804],[-58.383534973325794,-34.57319013751892],[-58.38353923638552,-34.57319021332015],[-58.383540682469004,-34.573190239504974],[-58.38355190678554,-34.57319043613817],[-58.383551938383334,-34.57319044156736],[-58.38355205169912,-34.57319046147279],[-58.383560224675605,-34.5731918189514],[-58.383570421011974,-34.573193512180254],[-58.383580381507855,-34.573197963618306],[-58.38358056886606,-34.57319804757332],[-58.38358058855988,-34.57319805940344],[-58.383580612431395,-34.57319807374312],[-58.383580726805725,-34.57319814333605],[-58.38358082154345,-34.573198200980805],[-58.38358107231463,-34.57319835446553],[-58.3835813759063,-34.57319854027909],[-58.383585559711506,-34.57320110061996],[-58.383589042233965,-34.57320323180035],[-58.383589042247955,-34.57320323181241],[-58.38359053615144,-34.57320452091392],[-58.38359138001988,-34.57320524801448],[-58.38359528359246,-34.573208611080275],[-58.38360093649049,-34.5732151239698],[-58.38360294702546,-34.57321862191464],[-58.383605189291885,-34.57322252565257],[-58.38360665366344,-34.57322736997149],[-58.38360748579087,-34.57323012347032],[-58.38360721551107,-34.573240422989365],[-58.38360549674165,-34.573253216710306],[-58.38359839134888,-34.57333332902602],[-58.38359372157108,-34.573386021547165],[-58.383593717179345,-34.57338605579846],[-58.38359259420993,-34.57339116434863],[-58.383591504112076,-34.573396085423596],[-58.38359055177724,-34.57340053153692],[-58.3835899344281,-34.5734033859504],[-58.38358992785683,-34.57340342020029],[-58.3835899114511,-34.57340348238799],[-58.38358866555057,-34.57340951031246],[-58.383588657886094,-34.57340954816736],[-58.383585683090615,-34.57341727775679],[-58.38357742718038,-34.57342514722379],[-58.38357051796939,-34.57342984725409],[-58.383567257467,-34.57343206533696],[-58.38355782658755,-34.5734367240566],[-58.38355746134573,-34.57343690410325],[-58.38355741446367,-34.57343692750967],[-58.383552822402606,-34.57343955917283],[-58.383548118074714,-34.573442255174626],[-58.38252711271138,-34.57402212295527],[-58.3821297315826,-34.574247806290394],[-58.38189599442099,-34.574380550573636],[-58.38189589190152,-34.57438063343644],[-58.38189580792491,-34.574380699184545],[-58.38188582313837,-34.57438881617626],[-58.3818857860571,-34.57438884589856],[-58.38187314781714,-34.574394576847645],[-58.38186579438824,-34.574398676134535],[-58.38186574096038,-34.57439870584592],[-58.381865530519974,-34.57439882289092],[-58.38186160084038,-34.57440101343859],[-58.3818561914774,-34.57440408639631],[-58.381849488925184,-34.5744078949559],[-58.38184823596549,-34.57440849851842],[-58.381846947468986,-34.57440911919934],[-58.381846430547505,-34.574409367654916],[-58.38184487047662,-34.57441011749472],[-58.38184077972059,-34.574412091591995],[-58.38183463870368,-34.57441335489852],[-58.38182738831445,-34.57441460033719],[-58.38182246526657,-34.57441515413238],[-58.38181681635241,-34.57441578676828],[-58.381798844175016,-34.57441317415557],[-58.3817934806365,-34.574412438032596],[-58.38178626442349,-34.57441144763745],[-58.381772016454555,-34.574409490140205],[-58.38016461686594,-34.57428130126981],[-58.37939935653,-34.574220262705985],[-58.37927992057834,-34.57421073583524],[-58.37927912839386,-34.57421067264737],[-58.37926400684027,-34.57420946648952],[-58.379249065100616,-34.5742082744322],[-58.37611871360907,-34.57395854178041],[-58.376118680918886,-34.573958539052775],[-58.37551961028175,-34.57391112648191],[-58.375443919500846,-34.57393073573305],[-58.37411281686274,-34.574694944905694],[-58.37330054144009,-34.57516127375847],[-58.37233480890484,-34.57571087018296],[-58.37231610086054,-34.57572151649984],[-58.3717692428506,-34.57603272689866],[-58.3707664386103,-34.57660339980848],[-58.37076640153309,-34.576603421414596],[-58.37076625105063,-34.576603502428824],[-58.37076160571863,-34.57660600667298],[-58.37075499178859,-34.576610852229436],[-58.37075375358743,-34.57661200331251],[-58.37075093245213,-34.5766146261247],[-58.37074793671324,-34.576620411005315],[-58.37074789302927,-34.57662049390333],[-58.370747842753545,-34.576620624571916],[-58.37074707009499,-34.57662258098097],[-58.370747050424626,-34.57662262964302],[-58.37074538598938,-34.57662683984114],[-58.37074481520981,-34.576633472999056],[-58.370701397445785,-34.57702073304164],[-58.370701397402804,-34.577020771802886],[-58.370701397324844,-34.57702084211399],[-58.37070129323277,-34.57702920996801],[-58.370703213409435,-34.577036147894],[-58.3707053997882,-34.57704282550989],[-58.37070541065229,-34.57704285616661],[-58.370709073771096,-34.577047522920964],[-58.370709098800674,-34.57704755539127],[-58.37071432618613,-34.577054817634696],[-58.37071583976172,-34.57705595187461],[-58.370719191406714,-34.57705846308408],[-58.370722859922985,-34.57706121160865],[-58.37072292743407,-34.57706126304111],[-58.37072597318485,-34.57706248317701],[-58.370732216106965,-34.57706498035325],[-58.37074154419681,-34.57706754927851],[-58.370749878776905,-34.577067795377666],[-58.370758434649794,-34.577068969210885],[-58.37076686146317,-34.577069576850434],[-58.37077477937661,-34.577070148046595],[-58.37555664512294,-34.57744841586292],[-58.37555664512313,-34.57744841586275]]]}}