{"type":"Feature","properties":{"slug":"retiro-microcentro","name":"Retiro y Microcentro","region":"caba","sort":11},"geometry":{"type":"Polygon","coordinates":[[[-58.39293533370779,-34.599642149302134],[-58.39277006293219,-34.60081207200118],[-58.39275189990416,-34.600940372632536],[-58.39259677331877,-34.60199170783177],[-58.392577414768674,-34.602122824662686],[-58.392391551116624,-34.603160338101695],[-58.392290813782616,-34.6044410023412],[-58.392210115485604,-34.60549111142756],[-58.39219839523505,-34.60565195243636],[-58.392126431371004,-34.60664460073984],[-58.39211659499741,-34.60679354044274],[-58.39204678205647,-34.607856683600275],[-58.39203798016522,-34.60799139944647],[-58.391965082244596,-34.60917411943598],[-58.391956407021986,-34.609292982933326],[-58.39195611909355,-34.60929693279127],[-58.391411992454735,-34.60925867259154],[-58.3905573043983,-34.60919857036335],[-58.38979687062158,-34.60914507590378],[-58.389762679943516,-34.60914267014104],[-58.389176820330555,-34.609083582637965],[-58.389060223440126,-34.6090718248237],[-58.38851218350653,-34.60901655662521],[-58.38817790600974,-34.60898282922092],[-58.38797267938334,-34.608962815538014],[-58.387805814475236,-34.60894654271285],[-58.387747236695546,-34.60893812504103],[-58.38774570621952,-34.60893790504799],[-58.38766112235666,-34.60892574926052],[-58.38748522882158,-34.6089017578419],[-58.38732242843943,-34.608879551925966],[-58.38723412070494,-34.60886118724043],[-58.38723195566767,-34.60886102633911],[-58.386280495642914,-34.608790306083606],[-58.38614814409722,-34.60878163101935],[-58.385989421870946,-34.60877104431764],[-58.3850682950048,-34.60870960403903],[-58.384870707958726,-34.60869299830922],[-58.384712383320995,-34.60867965636093],[-58.384097721547235,-34.60863198748041],[-58.383802266362196,-34.608609073207624],[-58.38361261806849,-34.60859436449828],[-58.383469112779224,-34.60858258015742],[-58.38330891435667,-34.60856937668498],[-58.382692470124596,-34.60852107847755],[-58.38225397596377,-34.60848672058532],[-58.38217312824056,-34.6084803857527],[-58.38197545810985,-34.60846293064762],[-58.381797375369075,-34.60844724788217],[-58.381348028985734,-34.60841941118025],[-58.38131310489211,-34.60841725225068],[-58.3808920383826,-34.6083912167818],[-58.38071900351292,-34.608381234634976],[-58.380717869752004,-34.60838116896523],[-58.38049642595548,-34.60837454036551],[-58.37996283464482,-34.60834486826326],[-58.37981106093532,-34.608336428159284],[-58.379758595001086,-34.60833351040324],[-58.37936044837415,-34.60831136866187],[-58.37922213600721,-34.60830261077142],[-58.377814142896675,-34.60821606859639],[-58.37696180033947,-34.60816488337976],[-58.37640444676043,-34.608131409156265],[-58.3762948728137,-34.60812496072546],[-58.376208220310545,-34.60811986086034],[-58.37619331158219,-34.60811886947127],[-58.37499722742542,-34.60803932554192],[-58.374986755579265,-34.60803862927692],[-58.37497852722895,-34.60803808607385],[-58.3749220287261,-34.60803435744855],[-58.37486073365977,-34.60803028278037],[-58.37411549876861,-34.60798074177317],[-58.3735761382107,-34.607945274739706],[-58.37354365437218,-34.60794315324054],[-58.373520523891806,-34.60794164256774],[-58.373520518150634,-34.60794191208837],[-58.37351881088785,-34.60803002292504],[-58.37317278900065,-34.60800517614578],[-58.37218323519838,-34.60793410147417],[-58.371555736213665,-34.60788906318605],[-58.371481658243916,-34.60788144183475],[-58.37147358287838,-34.607880610957146],[-58.37125800839755,-34.6078584286098],[-58.37109340925513,-34.6077906328546],[-58.37083660792427,-34.607574556304776],[-58.37076413976487,-34.60751357972902],[-58.370634539980614,-34.607398213060534],[-58.37030906518711,-34.60719556486478],[-58.37019591420047,-34.606775613775824],[-58.37019587894979,-34.606578638817204],[-58.36984985133319,-34.606557388293915],[-58.36944423760476,-34.60650672356935],[-58.369371305203614,-34.60652864048579],[-58.36925625068211,-34.6065943267529],[-58.36922517357386,-34.606742265657964],[-58.368805055363254,-34.60683115284635],[-58.36815369633645,-34.60696896158606],[-58.36773150092235,-34.60690584043083],[-58.367926639762125,-34.605179049550706],[-58.368053031568884,-34.60406082238249],[-58.36811737177555,-34.60349134186359],[-58.36819120614775,-34.6028378137938],[-58.36831888156671,-34.60170803699531],[-58.36839501939852,-34.601034424917216],[-58.36863696833604,-34.60044080114444],[-58.369077897009,-34.59935901314343],[-58.36951785003697,-34.59832620408328],[-58.36889066191981,-34.598345174938274],[-58.368869352190124,-34.59834581919167],[-58.3688226428217,-34.598351837889396],[-58.36812186957484,-34.598442130527474],[-58.367986245292514,-34.59840681240611],[-58.367984059918,-34.59840563975151],[-58.3677832562577,-34.598297919614666],[-58.36736497419749,-34.598264703986615],[-58.36678798129423,-34.59831470971042],[-58.366612058702614,-34.598329955917265],[-58.36635819353601,-34.59831729143326],[-58.366085923426034,-34.59830370763309],[-58.36596656057131,-34.59829775233416],[-58.365074386087414,-34.59823259924799],[-58.36409433146843,-34.598161101536384],[-58.36386739661262,-34.59814112790318],[-58.36373645451173,-34.59810932982939],[-58.363239410879366,-34.59806631753711],[-58.36349987444694,-34.59732226785961],[-58.36350508973229,-34.59730736800658],[-58.36353785160485,-34.597191783763016],[-58.363437795770324,-34.597169356560286],[-58.36345172323722,-34.59713048870585],[-58.36328109797689,-34.597090362772825],[-58.36293526368737,-34.596933510750844],[-58.362123863969394,-34.596558920721954],[-58.3612268750134,-34.596150261072644],[-58.36101488044868,-34.59605352137029],[-58.36054900486943,-34.595840925182536],[-58.36012790630346,-34.595647944878294],[-58.359257451874186,-34.59524922321292],[-58.35853509351516,-34.595188862496784],[-58.35781849925939,-34.59515438053009],[-58.35769230708235,-34.59514830757202],[-58.357328011820435,-34.595097081204806],[-58.3573269164173,-34.59509700994258],[-58.35723872823349,-34.595091322870964],[-58.357108216064354,-34.59508290726366],[-58.356488933776454,-34.59503450590226],[-58.356578986398375,-34.595013486735],[-58.356706229381906,-34.59497239481953],[-58.35673071146801,-34.594963202760994],[-58.356756402318815,-34.59495663940014],[-58.35676892690463,-34.59493528571517],[-58.35679711557263,-34.59493427458584],[-58.356825218536294,-34.594936359762244],[-58.356852738786486,-34.59494150475394],[-58.356797105257904,-34.59491587924362],[-58.35674417428311,-34.594886597192996],[-58.356743163541594,-34.594885634789364],[-58.35674228862531,-34.5948848017152],[-58.35673179004775,-34.59487742972652],[-58.35672006557475,-34.59487145297001],[-58.356707385360615,-34.59486700869759],[-58.356694038136304,-34.59486419812051],[-58.35668501814477,-34.59486327259191],[-58.356675931795124,-34.59486309518547],[-58.356588834547935,-34.59485778809641],[-58.354650256940026,-34.594739639793865],[-58.35415932084567,-34.59470971525968],[-58.35412575581889,-34.594707668466555],[-58.35411744927475,-34.59470716193262],[-58.35095787963217,-34.59519220892636],[-58.350956829112945,-34.5951946824637],[-58.35095382926796,-34.59520174585432],[-58.35094115311311,-34.59519123982133],[-58.35096485791215,-34.59515023880387],[-58.353736956635146,-34.5947317055792],[-58.35381028061577,-34.59472063431293],[-58.35414917509483,-34.59466946306939],[-58.35494423244176,-34.594717208767385],[-58.35582749203181,-34.59477024533445],[-58.356547210296334,-34.5948134575805],[-58.35706812334755,-34.59484473001019],[-58.35764147683766,-34.59487914923149],[-58.35779591189943,-34.59488841939018],[-58.35826549862848,-34.594916605710644],[-58.35848554388927,-34.59492981325948],[-58.3585504013845,-34.5949567006991],[-58.35857199564976,-34.594964086561575],[-58.35859433547997,-34.59496975675107],[-58.358627958329244,-34.59497108725056],[-58.35866146194583,-34.59496840540601],[-58.35869415189909,-34.59496176651046],[-58.358725346735426,-34.594951308799615],[-58.358759344560774,-34.59493436053419],[-58.358860872964726,-34.59492060251823],[-58.35920404477088,-34.59494713074784],[-58.359307695228075,-34.59494840359153],[-58.359518205463516,-34.59497004838471],[-58.35986299199077,-34.594998372670176],[-58.36006127153976,-34.59499854057932],[-58.36013258143548,-34.59501671047055],[-58.36018223518405,-34.595021009858975],[-58.360226512070284,-34.595022403163405],[-58.36023039247772,-34.595022525271254],[-58.3602306813275,-34.59502253452947],[-58.360283668071865,-34.59504832029955],[-58.36031535978368,-34.595076758116406],[-58.360370181595115,-34.59505277780139],[-58.36110346649097,-34.59510585148152],[-58.3611034398561,-34.59512760081327],[-58.36037788217586,-34.59508221202916],[-58.360342262072834,-34.59511032833335],[-58.36036543948111,-34.595159054266155],[-58.36037103394334,-34.595222397451536],[-58.36033521523229,-34.59534505987641],[-58.360323397951916,-34.595436996820446],[-58.360333536936395,-34.595468346072565],[-58.36033448322039,-34.5954709880062],[-58.36033806887151,-34.595472943029606],[-58.36035478556581,-34.595482163104364],[-58.360388067122344,-34.59552016524982],[-58.360432839572226,-34.59554045424723],[-58.36047454147423,-34.59555935177736],[-58.36091266397777,-34.59577079459057],[-58.360912704643276,-34.59577073700759],[-58.360916532534105,-34.59577260338594],[-58.36093376669401,-34.59574417003867],[-58.361106102026994,-34.59582189252808],[-58.361124117193455,-34.59583001771311],[-58.36112378520181,-34.595830520428954],[-58.361102036415495,-34.59586349248121],[-58.3611040921995,-34.595864428978174],[-58.361110038707814,-34.595867139063],[-58.361109649075495,-34.59586816642288],[-58.36194557048033,-34.59625523675058],[-58.36248748216361,-34.596506111655316],[-58.362787343646986,-34.596577910332726],[-58.363015133206815,-34.59662579742351],[-58.36321411142856,-34.59664742546043],[-58.3634214649888,-34.59666427167199],[-58.36342174838141,-34.59666429173523],[-58.363442936524955,-34.59660278338301],[-58.36384791399487,-34.59548607637648],[-58.36334167002156,-34.59536052454692],[-58.36303655265061,-34.595285327624595],[-58.36151212387825,-34.595172265828246],[-58.36127033532755,-34.59528937650057],[-58.361245076454395,-34.59528039892109],[-58.36148309785111,-34.595132896250064],[-58.36302834143234,-34.59523157442815],[-58.363443874273784,-34.59532477288288],[-58.36387161920977,-34.595420706733634],[-58.36387222768358,-34.59541960118376],[-58.36387268538938,-34.59541878216348],[-58.36387314418414,-34.59541796404548],[-58.363873602976774,-34.5954171477303],[-58.36387407266664,-34.59541633412829],[-58.36387455325479,-34.59541552233801],[-58.36387503165964,-34.5954147132502],[-58.363875512242416,-34.59541390596703],[-58.36387600372349,-34.59541310049558],[-58.363876494111295,-34.595412297727485],[-58.36387699539958,-34.595411494968275],[-58.36387749559241,-34.59541069671531],[-58.36387800886578,-34.59540989847295],[-58.36387851995691,-34.59540910203169],[-58.3638790321327,-34.59540831009844],[-58.363879555208975,-34.59540751817402],[-58.363880088090276,-34.59540673076473],[-58.36388062097156,-34.59540594335544],[-58.36388115385069,-34.59540515774899],[-58.3638816976238,-34.59540437755994],[-58.363882241398024,-34.595403596469474],[-58.36388279606947,-34.595402818092126],[-58.36388335073659,-34.5954020433205],[-58.36388390431258,-34.59540126944941],[-58.363884469874776,-34.595400499193744],[-58.36388504524632,-34.5953997298475],[-58.363885621703574,-34.59539896410784],[-58.36388619706759,-34.59539820107154],[-58.363886783329875,-34.595397439846934],[-58.363887369591126,-34.59539667952377],[-58.36388796674633,-34.59539592461803],[-58.36388856390046,-34.59539517061371],[-58.363889159962405,-34.59539441841132],[-58.36388976801269,-34.59539366802156],[-58.36389037605652,-34.595392923040336],[-58.36389099281859,-34.59539217986903],[-58.36389161175855,-34.595391438502354],[-58.363892241596844,-34.59539069894738],[-58.36389287034078,-34.59538996299724],[-58.363893499083616,-34.595389227948466],[-58.36389413872046,-34.59538849831714],[-58.363894778355174,-34.59538777048863],[-58.363895426711295,-34.595387041765825],[-58.36389607723787,-34.595386321157555],[-58.36389672885551,-34.59538559964877],[-58.36389738918815,-34.59538488265421],[-58.36389806041909,-34.59538416747133],[-58.36389872183639,-34.59538345498475],[-58.363899393060876,-34.595382745210436],[-58.36390007409146,-34.59538203904974],[-58.36390075729891,-34.595381335595114],[-58.36390143832411,-34.595380633941595],[-58.363902130244405,-34.59537993680401],[-58.36390282434152,-34.59537924237245],[-58.36390351625642,-34.595378549741966],[-58.363904220159675,-34.59537785892412],[-58.363904933867936,-34.595377172621305],[-58.36390563776255,-34.59537648901484],[-58.363906351465445,-34.59537580721916],[-58.3639070760634,-34.59537512993947],[-58.363907800658126,-34.59537445536403],[-58.36390852524855,-34.59537378439429],[-58.36390924983574,-34.595373116128805],[-58.363909985321214,-34.59537244967503],[-58.36391073170395,-34.595371785934404],[-58.36391146609186,-34.59537112578969],[-58.36391221246383,-34.5953704710633],[-58.36391296864403,-34.59536981814772],[-58.36391372591214,-34.595369167035855],[-58.36391448208697,-34.59536851862734],[-58.36391524915471,-34.59536787653769],[-58.36391600423198,-34.59536723443826],[-58.36391678328484,-34.59536659686549],[-58.36391755034504,-34.59536596108573],[-58.36391832829925,-34.59536533072339],[-58.36391911715284,-34.5953647012714],[-58.363919903819884,-34.5953640772261],[-58.3639206937549,-34.595363454986334],[-58.363921482594485,-34.59536283725277],[-58.36392228124235,-34.59536222133004],[-58.36392307988374,-34.59536161081584],[-58.3639238796141,-34.59536100120394],[-58.36392468914842,-34.595360397008534],[-58.36392549868059,-34.59535979461602],[-58.36392631910783,-34.59535919673945],[-58.3639271395297,-34.59535860336997],[-58.36392795995152,-34.59535801000052],[-58.36392878908622,-34.595357422948084],[-58.363929609498406,-34.59535683769139],[-58.36393045279829,-34.595356255157625],[-58.36393128301225,-34.59535567712029],[-58.36393212521137,-34.59535510359982],[-58.36393296631823,-34.5953545318813],[-58.363933818320206,-34.59535396467877],[-58.36393466050641,-34.59535340197535],[-58.363935522310165,-34.59535284199217],[-58.363936375392484,-34.59535228290329],[-58.36393723718872,-34.59535172923006],[-58.36393810115969,-34.59535118006569],[-58.36393896403627,-34.59535063450612],[-58.3639398378101,-34.59535009165969],[-58.36394071048849,-34.59534955331945],[-58.363941584254775,-34.59534901678297],[-58.36394246891508,-34.595348485663855],[-58.36394335248103,-34.59534795814957],[-58.363944237134874,-34.59534743243897],[-58.36394513159266,-34.59534691214493],[-58.363946026046136,-34.59534639545654],[-58.36394692158753,-34.59534588057187],[-58.3639478160324,-34.595345371094865],[-58.36394872137343,-34.59534486523238],[-58.36394962671124,-34.5953443620742],[-58.363950532040484,-34.59534386612734],[-58.363951437370744,-34.59534336927906],[-58.36395235359393,-34.59534287874962],[-58.36395326981391,-34.59534239092441],[-58.36395419583891,-34.59534190761434],[-58.36395511204814,-34.595341428803344],[-58.36395603806563,-34.59534095180319],[-58.36395697606501,-34.59534048202415],[-58.363957902071725,-34.595340014038186],[-58.363958840066786,-34.59533954786486],[-58.36395977696323,-34.595339088901945],[-58.36396071385749,-34.59533863174191],[-58.36396165183643,-34.59533817908984],[-58.36396259962042,-34.59533773095289],[-58.363963546312206,-34.59533728461786],[-58.36396450607592,-34.595336845504875],[-58.36396545275696,-34.59533640818405],[-58.36396641251315,-34.595335975380976],[-58.36396737008709,-34.59533554437897],[-58.3639683287425,-34.59533512058924],[-58.36396929829513,-34.59533469951263],[-58.363970256943,-34.59533428203282],[-58.36397122648595,-34.59533386906897],[-58.36397219493455,-34.595333459709934],[-58.363973175367214,-34.595333055769196],[-58.36397415470767,-34.595332653630365],[-58.363975124231274,-34.595332256892085],[-58.36397611446251,-34.59533186287494],[-58.36397709378687,-34.595331474257414],[-58.36397807419589,-34.595331090147894],[-58.36397906440991,-34.59533071055347],[-58.36398005462181,-34.59533033276186],[-58.36398104482619,-34.59532996128023],[-58.363982045927784,-34.595329592511696],[-58.36398303612355,-34.5953292282414],[-58.36398403721548,-34.59532886758566],[-58.36398503830095,-34.595328512338455],[-58.363986050284744,-34.595328158902944],[-58.36398705136056,-34.59532781176847],[-58.36398806224459,-34.59532746644484],[-58.363989063309695,-34.59532712832462],[-58.36399007527197,-34.595326792917525],[-58.36399109813044,-34.59532646112494],[-58.363992108992996,-34.59532613382973],[-58.36399313183962,-34.59532581195279],[-58.36399414269255,-34.595325492770364],[-58.36399516552949,-34.595325179006196],[-58.36399618727107,-34.595324869748254],[-58.36399722099774,-34.59532456500719],[-58.36399824273175,-34.595324262059144],[-58.363999275358715,-34.59532396542998],[-58.364000307982444,-34.59532367150503],[-58.364001341688706,-34.595323383890936],[-58.3640023743017,-34.595323098980195],[-58.364003406910406,-34.59532281767511],[-58.3640044504142,-34.59532254088604],[-58.36400548300895,-34.59532227129948],[-58.36400652650198,-34.59532200352457],[-58.36400756998963,-34.595321740256786],[-58.36400861347195,-34.59532148149609],[-58.36400965694891,-34.59532122724251],[-58.364010700421524,-34.59532097659461],[-58.36401175478816,-34.59532073136407],[-58.364012809150545,-34.59532048973927],[-58.36401385260597,-34.595320253514075],[-58.36401490696083,-34.59532001819915],[-58.36401596021595,-34.595319790996164],[-58.364017014557895,-34.59531956649831],[-58.3640180797939,-34.595319347417835],[-58.364019133034,-34.595319132834724],[-58.364020198262445,-34.59531892006418],[-58.36402125258185,-34.595318714496166],[-58.36402231670738,-34.59531851254176],[-58.36402338191758,-34.595318315095376],[-58.36402444603452,-34.59531812035236],[-58.36402551123398,-34.59531793192017],[-58.364026575338045,-34.59531774799419],[-58.36402765142724,-34.59531756858506],[-58.36402871552165,-34.59531739277188],[-58.3640297916033,-34.59531721967269],[-58.36403085568589,-34.59531705377509],[-58.36403193066466,-34.595316891492054],[-58.364033006728086,-34.59531673371701],[-58.364034081696104,-34.59531658044821],[-58.364035146850505,-34.59531642987563],[-58.36403623270825,-34.59531628562989],[-58.364037307661256,-34.59531614498091],[-58.36403838260779,-34.59531600974048],[-58.36403945864012,-34.59531587810661],[-58.364040544476396,-34.59531575188927],[-58.364041619407956,-34.59531562926869],[-58.364042694334145,-34.595315511155256],[-58.3640437801554,-34.595315397557734],[-58.36404486597131,-34.595315288467354],[-58.364045941971455,-34.59531518387607],[-58.36404702777769,-34.59531508289847],[-58.36404811357535,-34.59531498913224],[-58.364049199369816,-34.595314898070235],[-58.36405028515996,-34.59531481061389],[-58.36405137094476,-34.595314727664714],[-58.364052456721,-34.59531465192688],[-58.364053542495064,-34.59531457799184],[-58.364054628263766,-34.595314508563916],[-58.364055714024985,-34.59531444544596],[-58.36405679978404,-34.59531438413082],[-58.36405788553452,-34.59531433002704],[-58.36405898218223,-34.59531427863638],[-58.36406006792307,-34.59531423264537],[-58.36406115365747,-34.59531419206294],[-58.36406223938972,-34.595314153283255],[-58.36406333601492,-34.595314120822465],[-58.36406442173321,-34.595314093761274],[-58.36406551834771,-34.59531407031465],[-58.364066604056354,-34.59531405136622],[-58.36406768976077,-34.59531403602353],[-58.36406878635917,-34.59531402609817],[-58.36406987205175,-34.59531402067109],[-58.36407095774005,-34.59531401884965],[-58.364072054322364,-34.59531402244561],[-58.364073139999974,-34.5953140296384],[-58.36407423657262,-34.59531404134714],[-58.36407532223627,-34.59531406025839],[-58.36407640789777,-34.59531408097246],[-58.36407750445546,-34.59531410530108],[-58.36407859010302,-34.59531413773358],[-58.364079675749544,-34.59531417106758],[-58.36408077228792,-34.59531421162177],[-58.36408185792372,-34.59531425396989],[-58.36408294355091,-34.59531430352942],[-58.36408404007644,-34.59531435490064],[-58.36408512569297,-34.595314413474334],[-58.36408621130517,-34.59531447565373],[-58.36408729691202,-34.59531454234024],[-58.36408838251568,-34.59531461173099],[-58.36408946811183,-34.595314687431696],[-58.364090553702596,-34.59531476763945],[-58.364091639289114,-34.59531485145294],[-58.36409272486917,-34.59531494067494],[-58.364093811535035,-34.59531503350348],[-58.36409489710438,-34.59531513173969],[-58.364095971769025,-34.595315233572684],[-58.36409705732875,-34.595315339921655],[-58.364098142883115,-34.59531545077772],[-58.364099217528484,-34.5953155688363],[-58.36410030416324,-34.59531568780602],[-58.3641013788011,-34.595315812174526],[-58.36410246433406,-34.595315941058985],[-58.364103538960144,-34.59531607534313],[-58.36410461358194,-34.59531621323294],[-58.36410568928949,-34.59531635472929],[-58.3641067638995,-34.5953165025347],[-58.36410783850524,-34.595316653945844],[-58.36410891419781,-34.59531680806206],[-58.36410998879066,-34.59531697029025],[-58.364111063382495,-34.59531713341977],[-58.36411212815532,-34.595317303752736],[-58.36411320273644,-34.59531747589647],[-58.36411426750072,-34.5953176534408],[-58.364115331168534,-34.59531783639274],[-58.36411640682364,-34.59531802205868],[-58.36411747047968,-34.595318214926245],[-58.36411853522466,-34.59531840869613],[-58.36411959886998,-34.59531861057786],[-58.36412065270385,-34.59531881335308],[-58.36412171742958,-34.59531902334853],[-58.3641227701627,-34.59531923513702],[-58.36412383487989,-34.59531945234381],[-58.3641248886902,-34.59531967495029],[-58.36412594249732,-34.59531990026097],[-58.36412699520686,-34.59532013188072],[-58.36412804900325,-34.595320366205634],[-58.36412910279431,-34.595320605037635],[-58.36413015657787,-34.59532085017958],[-58.36413119945885,-34.59532109711551],[-58.364132242334435,-34.59532134855853],[-58.364133296104086,-34.59532160541894],[-58.36413433896901,-34.595321865876166],[-58.36413538182645,-34.595322132643325],[-58.3641364137802,-34.59532240210593],[-58.36413745663014,-34.59532267518302],[-58.36413848857323,-34.595322953659775],[-58.36413953141247,-34.59532323575108],[-58.364140563348045,-34.59532352053782],[-58.364141596365116,-34.59532381253675],[-58.364142617387415,-34.595324108131656],[-58.36430328696281,-34.595363620839365],[-58.36430441473796,-34.59536397781625],[-58.364305436813964,-34.59536430496041],[-58.36430644689516,-34.59536463570055],[-58.364307458058946,-34.59536497275152],[-58.3643084692163,-34.59536531521099],[-58.36430946946682,-34.595365663070154],[-58.36431048061136,-34.595366016346695],[-58.36431147975794,-34.595366375923426],[-58.36431247017882,-34.59536674000021],[-58.364313470402585,-34.59536711039487],[-58.36431445972061,-34.595367485287824],[-58.36431544903114,-34.5953678664907],[-58.364316428528056,-34.59536825038987],[-58.364317417825774,-34.595368642409795],[-58.364318396219836,-34.595369037125145],[-58.364319364792806,-34.59536944084676],[-58.364320343174064,-34.59536984637914],[-58.36432131173635,-34.595370259114915],[-58.36432228029437,-34.5953706754564],[-58.36432323794338,-34.59537109900042],[-58.36432419449812,-34.59537152614922],[-58.36432515213644,-34.59537195870741],[-58.364326109768385,-34.59537239667413],[-58.36432705649561,-34.59537283823771],[-58.364328004303275,-34.59537328791497],[-58.364328951018734,-34.595373739394155],[-58.364329886825224,-34.595374198075866],[-58.364330822626364,-34.59537466126471],[-58.36433174860961,-34.59537513075552],[-58.36433267458861,-34.595375603852005],[-58.364333599471145,-34.59537608235615],[-58.364334525438366,-34.59537656536824],[-58.364335440497705,-34.595377054681485],[-58.3643363555549,-34.59537754579753],[-58.364337259703085,-34.59537804411614],[-58.364338163846995,-34.59537854604042],[-58.364339067982385,-34.59537905517603],[-58.36433996121195,-34.595379568809946],[-58.36434085443943,-34.59538008424669],[-58.36434173784791,-34.59538060688684],[-58.36434263105938,-34.595381135844896],[-58.36434350355781,-34.59538166658899],[-58.364344386951394,-34.595382201849034],[-58.364345258345914,-34.595382744310704],[-58.36434611992575,-34.59538329037013],[-58.3643469814992,-34.59538384183807],[-58.3643478441584,-34.59538439691255],[-58.3643486948218,-34.59538495648443],[-58.364349545479854,-34.59538552056341],[-58.364350396132544,-34.59538608914951],[-58.36435123697062,-34.5953866613333],[-58.364352066899635,-34.59538724071965],[-58.364352906635894,-34.59538782281823],[-58.3643537256538,-34.59538841120991],[-58.36435455557008,-34.5953890014133],[-58.3643553745773,-34.59538959881922],[-58.364356182681945,-34.59539019801913],[-58.364356990779136,-34.59539080352903],[-58.36435779887314,-34.595391411743144],[-58.364358597152425,-34.59539202355499],[-58.364359383432706,-34.59539264256851],[-58.36436018170026,-34.59539326429599],[-58.36436095816266,-34.59539388961147],[-58.364361744430155,-34.59539451944202],[-58.364362511071455,-34.59539515376377],[-58.364363286427796,-34.59539579259969],[-58.36436347470334,-34.5953959505955],[-58.36436405305843,-34.59539643593565],[-58.36436423382859,-34.5953965911219],[-58.36436480769325,-34.59539708376898],[-58.364365562325915,-34.59539773340515],[-58.36436630713963,-34.595398390244746],[-58.36436705195232,-34.59539904798574],[-58.364367795668535,-34.595399711134405],[-58.364368529568985,-34.595400378782216],[-58.364369252566874,-34.595401048224],[-58.364369975556215,-34.595401724877206],[-58.36437069854344,-34.59540240333321],[-58.36437141062592,-34.59540308538605],[-58.36437211289374,-34.59540377103665],[-58.36437281515514,-34.59540446209575],[-58.36437350542285,-34.595405155849406],[-58.36437419677526,-34.59540585411106],[-58.36437488812556,-34.59540655417557],[-58.36437556856899,-34.595407259639735],[-58.364376238107695,-34.595407968700755],[-58.364376908731096,-34.59540868226976],[-58.364377567361885,-34.595409397631926],[-58.364378225989455,-34.5954101156983],[-58.36437887479915,-34.59541084006669],[-58.36437952360886,-34.59541156443508],[-58.36438016150957,-34.595412296006],[-58.36438079940816,-34.595413029379756],[-58.36438142640416,-34.59541376454754],[-58.36438204249111,-34.59541450691783],[-58.36438265966815,-34.595415249289026],[-58.364383275750896,-34.59541599526501],[-58.36438387111636,-34.59541674663273],[-58.3643844773812,-34.595417498910706],[-58.364385061840856,-34.59541825477672],[-58.36438565719672,-34.59541901425722],[-58.36438623074633,-34.59541977822718],[-58.364386805382765,-34.59542054490225],[-58.36438737892705,-34.59542131337928],[-58.36438794265557,-34.5954220863555],[-58.364388494391456,-34.595422861124796],[-58.364389047214196,-34.595423638599314],[-58.364389589132195,-34.595424419670614],[-58.36439013104594,-34.59542520434761],[-58.36439066314821,-34.59542598991812],[-58.36439118325355,-34.59542678088739],[-58.36439170445004,-34.59542757095614],[-58.364392224547935,-34.59542836823537],[-58.36439272393601,-34.59542916459638],[-58.36439322331767,-34.59542996636594],[-58.36439372269724,-34.59543076993833],[-58.364394212263164,-34.59543157620704],[-58.364394689836466,-34.59543238426886],[-58.364395168497666,-34.59543319413441],[-58.36439563516305,-34.59543400849736],[-58.36439610291526,-34.59543482556544],[-58.36439655976486,-34.59543564442753],[-58.36439700571083,-34.59543646598507],[-58.36439745165463,-34.595437289345426],[-58.36439788778591,-34.59543811450069],[-58.364398311923495,-34.59543894235048],[-58.364398737147894,-34.595439772905436],[-58.36439915146758,-34.59544060705725],[-58.36439956578728,-34.59544144120905],[-58.36439996920329,-34.59544227805626],[-58.36440036171457,-34.59544311850038],[-58.36440075531486,-34.59544395984674],[-58.36440113692248,-34.59544480298626],[-58.36440151961803,-34.59544564792947],[-58.36440189140989,-34.59544649556813],[-58.36440225229809,-34.59544734590223],[-58.364402613185256,-34.59544819713778],[-58.36440296316769,-34.59544905197012],[-58.36440330334075,-34.59544990589313],[-58.364403642418424,-34.595450764322365],[-58.36440397168572,-34.59545162274361],[-58.36440429004929,-34.595452483860306],[-58.364404608410766,-34.59545334677988],[-58.36440491587175,-34.595454209690544],[-58.364405223327424,-34.59545507710838],[-58.3644055209727,-34.595455944518235],[-58.36440580771534,-34.595456813722116],[-58.36440609336795,-34.59545768292511],[-58.364406369206954,-34.595458554824404],[-58.36440663414332,-34.59545942851771],[-58.364406900166564,-34.595460304916166],[-58.364407154200315,-34.59546118040349],[-58.364407398419424,-34.595462059488526],[-58.36440764154955,-34.5954629376713],[-58.364407874867105,-34.59546381764892],[-58.36440810818361,-34.59546469852799],[-58.36440833059751,-34.595465581201076],[-58.36440854319884,-34.59546646566904],[-58.364408743809676,-34.595467350127265],[-58.36440894550733,-34.59546823729067],[-58.36440913630454,-34.59546912444525],[-58.3644093260117,-34.595470011598906],[-58.3644095059063,-34.59547090054749],[-58.36440967598728,-34.59547179219238],[-58.364409834077705,-34.595472683827545],[-58.36440999325821,-34.59547357546359],[-58.36441014044608,-34.59547446889277],[-58.364410288723974,-34.59547536232286],[-58.36441042610141,-34.59547625574404],[-58.36441055257516,-34.59547715186073],[-58.36441068014216,-34.59547804527398],[-58.364410795713326,-34.595478943184695],[-58.36441090147619,-34.59547983928455],[-58.36441099633645,-34.595480737178434],[-58.364411091196686,-34.59548163507232],[-58.36441118605696,-34.59548253296621],[-58.364411259114114,-34.595483432645246],[-58.36441133217023,-34.59548433322575],[-58.364411395419125,-34.59548523109401],[-58.36441145866588,-34.595486130765146],[-58.36441151101108,-34.59548703132882],[-58.36441155245368,-34.59548793368651],[-58.36441159389949,-34.595488833339964],[-58.364411624443726,-34.59548973388599],[-58.36441164517544,-34.595490636226906],[-58.36441166481708,-34.59549153856695],[-58.36441167465149,-34.59549243819479],[-58.364411673582254,-34.59549334051804],[-58.36441166161465,-34.59549424102962],[-58.36441165073498,-34.595495143344934],[-58.36441163876845,-34.59549604295508],[-58.364411606087806,-34.59549694525274],[-58.364411572319256,-34.59549784574665],[-58.364411528738124,-34.595498748035475],[-58.364411485160225,-34.59549964761997],[-58.36441143177079,-34.595500548098],[-58.36441136639193,-34.59550144766487],[-58.36441130210203,-34.59550234813407],[-58.364411225824846,-34.59550324588925],[-58.36441113973505,-34.59550414543932],[-58.3644110536474,-34.595505043186584],[-58.364410956658205,-34.59550594182641],[-58.36441084985966,-34.5955068395569],[-58.364410731073754,-34.59550773457334],[-58.364410613376855,-34.59550863049212],[-58.36441049459098,-34.59550952550862],[-58.364410356183136,-34.595510421410616],[-58.36441021668848,-34.595511314607464],[-58.36441007719274,-34.59551220870575],[-58.36440991589712,-34.5955131018849],[-58.364409755694744,-34.595513992360736],[-58.36440958459081,-34.595514883729095],[-58.36440941239895,-34.595515773293776],[-58.364409230397754,-34.595516661949056],[-58.364409038588235,-34.59551754879354],[-58.36440884568866,-34.59551843563716],[-58.364408641889696,-34.595519321570514],[-58.364408439181815,-34.595520206603325],[-58.364408214676175,-34.595521088914204],[-58.36440799017054,-34.595521971225075],[-58.364407765664936,-34.59552285353597],[-58.36440751936365,-34.595523731322054],[-58.364407285050795,-34.59552461092073],[-58.364407027851165,-34.59552548689514],[-58.36440677174159,-34.595526362870466],[-58.36440650473263,-34.595527237935514],[-58.36440623772789,-34.59552810939487],[-58.36440594892219,-34.59552898083657],[-58.364405671016975,-34.5955298522871],[-58.36389529952403,-34.59696799987642],[-58.363825922384834,-34.5971634889153],[-58.36382571836518,-34.59716420890676],[-58.3638253914671,-34.59716536253978],[-58.36382442707974,-34.597168747496326],[-58.363821651584374,-34.59717620991296],[-58.36382142565472,-34.597178717517906],[-58.36382125942028,-34.597180562562244],[-58.36382171642366,-34.59718491319953],[-58.36382300747015,-34.597189147331854],[-58.36382510216792,-34.59719315586217],[-58.363827945046026,-34.59719683598325],[-58.363831463182706,-34.5972000929861],[-58.3638321201912,-34.59720053319037],[-58.36383556620315,-34.59720284206335],[-58.36432986156306,-34.59724378904831],[-58.36483973182054,-34.597284269746844],[-58.36550821967532,-34.59733536989528],[-58.365783920627415,-34.597356101498356],[-58.36578681889344,-34.597344178897025],[-58.36606021726495,-34.59736061546218],[-58.36606004782814,-34.59736193410565],[-58.366057888459366,-34.59737873940876],[-58.36605978726299,-34.597378847029184],[-58.36614325409776,-34.597383577734476],[-58.366151764084314,-34.59738563614733],[-58.36615974297177,-34.597388831731905],[-58.36616697175865,-34.59739307597458],[-58.366168705251724,-34.59739450450659],[-58.36617325218832,-34.59739825153277],[-58.366173275400314,-34.597398278385604],[-58.3661784078348,-34.59740421584148],[-58.36618229827062,-34.597410803828744],[-58.36618481688034,-34.59741783332253],[-58.366185891943346,-34.597425111361396],[-58.36618402354069,-34.59745416001504],[-58.36617905444897,-34.59753141607447],[-58.36617213961977,-34.597531829732105],[-58.36615912352806,-34.59755668420691],[-58.36615116045846,-34.59758295793636],[-58.36614846379447,-34.5976099515876],[-58.3661488966917,-34.597614381532466],[-58.36615110196009,-34.597636948584636],[-58.36615900820806,-34.597663234045996],[-58.36616030865852,-34.597663242485396],[-58.3661642329078,-34.59766326795211],[-58.36616403773376,-34.59766468758476],[-58.36616024653343,-34.59769226353713],[-58.36611499713665,-34.598044418633606],[-58.366093909072035,-34.59820853822204],[-58.36609580565605,-34.598208660734365],[-58.3663773075089,-34.598226844381266],[-58.3664363485083,-34.59768514994907],[-58.36644580819057,-34.59768515745781],[-58.3664591296632,-34.597665745082324],[-58.3664686626369,-34.597644863986204],[-58.36647417870664,-34.59762301517996],[-58.3664755464566,-34.597600724089155],[-58.366472730386306,-34.597578526130654],[-58.36646921993908,-34.59756760080967],[-58.366466052279875,-34.597557741338896],[-58.36646579964464,-34.59755695500109],[-58.36645376478056,-34.59755168925598],[-58.36645307200838,-34.597551386471736],[-58.36645127086268,-34.59755059925979],[-58.36645803280508,-34.59749031118503],[-58.36646254812498,-34.59749011284979],[-58.366466569616314,-34.597489935756656],[-58.36646910444331,-34.5974661041592],[-58.366469734846135,-34.59746017510268],[-58.36647076862886,-34.597450443265075],[-58.36647107244593,-34.5974460166206],[-58.36647227218281,-34.59744169435062],[-58.366474336081815,-34.59743760172764],[-58.36647720405496,-34.597433854085985],[-58.36648079422017,-34.59743056043279],[-58.36648574199833,-34.59742592113148],[-58.366491489101946,-34.597421961235206],[-58.36649790025221,-34.597418775285895],[-58.36650482493449,-34.597416436179266],[-58.36651210066225,-34.59741500057597],[-58.36651955625551,-34.59741450169282],[-58.3665270172894,-34.597414951109904],[-58.366600265950716,-34.597420538528084],[-58.367483306508326,-34.597487893467026],[-58.36777502755569,-34.59751014303266],[-58.36779967545565,-34.59751281431012],[-58.36782452440874,-34.59751220997079],[-58.367848939969306,-34.59750834664525],[-58.36787230286122,-34.597501321203154],[-58.36789401660457,-34.5974913143646],[-58.3679135315109,-34.59747857900049],[-58.36804604119273,-34.597102156542775],[-58.36857391685857,-34.59560257950314],[-58.368700262681315,-34.59524365615751],[-58.36875187239866,-34.59509704097773],[-58.3687942369793,-34.594976689679584],[-58.36896768115181,-34.59448395560902],[-58.36905095453735,-34.59424738021294],[-58.36907639546885,-34.59418308604129],[-58.36908130807241,-34.594170670926445],[-58.36908292633369,-34.594166229062225],[-58.36908365639814,-34.59416162876315],[-58.36908347850895,-34.59415699080479],[-58.36908239579799,-34.594152437782974],[-58.36908043865091,-34.59414808961045],[-58.36907765708095,-34.594144059905034],[-58.36907468464046,-34.59414102617888],[-58.36907412509017,-34.59414045509178],[-58.36906993522534,-34.59413736899002],[-58.369065197486826,-34.59413488371414],[-58.368969497621926,-34.5940938723328],[-58.36891363634476,-34.594069933393556],[-58.36860024521447,-34.593935631212894],[-58.36859178855295,-34.593932007142215],[-58.36838777691186,-34.593844578273874],[-58.36717274970725,-34.593328893037416],[-58.36716755781376,-34.59332521745144],[-58.367166696310335,-34.59332460741079],[-58.367161459033504,-34.59331964095098],[-58.36715714784721,-34.59331409921125],[-58.367153854179,-34.593308098547325],[-58.367151364514164,-34.59330058052035],[-58.36715046982688,-34.59329282126718],[-58.36715119601443,-34.59328504886837],[-58.3671535220991,-34.59327749497299],[-58.36715705691091,-34.59327097776498],[-58.3671573791518,-34.59327038307964],[-58.367155705668196,-34.59326970028535],[-58.36715362144075,-34.593268849502714],[-58.36716140141971,-34.59325610680584],[-58.367185934991994,-34.59321591725415],[-58.367213712010454,-34.593170416362135],[-58.367220548382775,-34.593168716252336],[-58.367227623504384,-34.59316793217599],[-58.36723475859187,-34.59316808202074],[-58.36726479120112,-34.593117508781745],[-58.36727602526966,-34.59312194451083],[-58.36727965882748,-34.59312337973122],[-58.36790361891896,-34.59211624206077],[-58.3679129151499,-34.59212042291706],[-58.3679320982848,-34.59209263441161],[-58.36793241491002,-34.59209217583462],[-58.36789479972364,-34.592074258590294],[-58.36790309230986,-34.59206009830541],[-58.36790838520273,-34.592044984673635],[-58.36791052639784,-34.59202935116111],[-58.36790945543991,-34.592013641220994],[-58.367905203425636,-34.591998305589144],[-58.367897890849235,-34.59198377974685],[-58.36788772542737,-34.59197047941206],[-58.3678749988485,-34.59195878341],[-58.36786007370207,-34.59194902555003],[-58.36784337476978,-34.59194148470338],[-58.36782538031585,-34.591936375782275],[-58.36780660247458,-34.59193384341461],[-58.36778757744028,-34.59193396193638],[-58.36776884694904,-34.591936725461636],[-58.36775094736744,-34.59194205778946],[-58.367734387901166,-34.59194980517559],[-58.367719640773814,-34.59195974624032],[-58.36770712704868,-34.5919715991686],[-58.367697204636734,-34.59198502350361],[-58.36765740783945,-34.59198381235681],[-58.36729944394176,-34.59253947953883],[-58.36697898405002,-34.59306475760324],[-58.36698107810155,-34.593065590368155],[-58.36700723414032,-34.59307598999549],[-58.36700925564291,-34.593077350035195],[-58.36701020617969,-34.59307825851828],[-58.36701096072887,-34.5930789802521],[-58.36701229822675,-34.59308082922478],[-58.36701322895933,-34.593082841935484],[-58.367013724655905,-34.59308495796658],[-58.36701376904104,-34.59308711240277],[-58.367013361098515,-34.59308924124221],[-58.36701251398341,-34.59309127959284],[-58.3670112528378,-34.59309316527625],[-58.366973114382276,-34.59315252183114],[-58.36694942598429,-34.59318756307914],[-58.366940357734336,-34.593196393470684],[-58.36692979538528,-34.59320400395767],[-58.366924389121216,-34.59320663725206],[-58.366918568366785,-34.593208571615946],[-58.3669124617942,-34.59320976388261],[-58.366906208957126,-34.59321018711955],[-58.36689994938946,-34.593209831521385],[-58.36689382478439,-34.59320870531275],[-58.36688797354616,-34.593206832941476],[-58.366392580560415,-34.59299292226673],[-58.36638919861255,-34.59299072461582],[-58.366388721545,-34.59299041504882],[-58.36638539500983,-34.59298743230226],[-58.36638268589022,-34.59298404801131],[-58.366380664934454,-34.59298035057159],[-58.3663793832644,-34.59297643377173],[-58.36637887237409,-34.59297239769476],[-58.36637914740329,-34.592968346016406],[-58.36637916163838,-34.59296829013947],[-58.36637942336099,-34.59296724920366],[-58.3663800125033,-34.592964912281474],[-58.36638144098902,-34.59296160970035],[-58.36638339312577,-34.59295886371313],[-58.366391252981714,-34.59294781129653],[-58.36638614683283,-34.59294544010447],[-58.36649087023899,-34.5927911797593],[-58.36650473347788,-34.59279737181465],[-58.36650577738552,-34.592795772616626],[-58.36683466722133,-34.592292121269956],[-58.36728025697937,-34.591551830886694],[-58.36726459388396,-34.59151000694246],[-58.36727278938708,-34.59147890166709],[-58.367267515300696,-34.59142739379356],[-58.36725511515425,-34.59141254840971],[-58.36724434993338,-34.59139965949867],[-58.36720911896235,-34.59138085060746],[-58.367173845395236,-34.59137538003363],[-58.36713202738596,-34.59138041759294],[-58.367089402500184,-34.59140365964746],[-58.36698871144696,-34.591508047974536],[-58.36632270057127,-34.5925437209639],[-58.36620184286888,-34.5927316554183],[-58.36620389100317,-34.59273259182371],[-58.36623527975289,-34.59274694581639],[-58.3661595880161,-34.592859458912365],[-58.36615534448451,-34.59286423217537],[-58.366150211156494,-34.59286836471952],[-58.36614432659493,-34.59287174397702],[-58.366137852226814,-34.592874279934044],[-58.366130961447304,-34.59287590151611],[-58.36612384287833,-34.59287656650653],[-58.36611668838455,-34.59287625612808],[-58.36610969306806,-34.592874979550416],[-58.36610304546371,-34.59287276937496],[-58.365982119726354,-34.59282282610446],[-58.3659746592041,-34.59281855371905],[-58.365966419098356,-34.592815408391736],[-58.36595764782355,-34.59281348316702],[-58.36594860582397,-34.592812836845106],[-58.3659395644913,-34.59281348767093],[-58.36593079417043,-34.59281541693029],[-58.365922556532325,-34.59281856623955],[-58.365915098027955,-34.59282284294894],[-58.365908642261225,-34.592828117432084],[-58.36590338125743,-34.59283423299478],[-58.36589947219315,-34.592841005872344],[-58.36550301288949,-34.593458138349554],[-58.36519699071732,-34.59392325593461],[-58.365044916518656,-34.594154721753206],[-58.36492172651439,-34.594333292632186],[-58.36483299645317,-34.594461910900385],[-58.3648100814677,-34.594476913718424],[-58.36478464887403,-34.59448882261925],[-58.36475730397836,-34.59449735414198],[-58.36472869668481,-34.59450230508869],[-58.364699508408,-34.5945035579227],[-58.36467043572015,-34.59450108255826],[-58.36464216963892,-34.594494937245145],[-58.36444155903822,-34.59439317281751],[-58.364418189760556,-34.594372961109826],[-58.36439909900713,-34.594349880030585],[-58.36438949199884,-34.594332862394474],[-58.364384794007044,-34.594324541157626],[-58.364375654381156,-34.59429761726179],[-58.36437192235354,-34.59426982427037],[-58.36437369732879,-34.59424189872691],[-58.364380932641836,-34.59421458156297],[-58.36439343557989,-34.59418860006966],[-58.36440095071895,-34.59417717341391],[-58.36505360887436,-34.59318490038941],[-58.365151271260345,-34.593046801638856],[-58.365197239548195,-34.5929818036311],[-58.36571673790894,-34.59219307196605],[-58.365855367491626,-34.59198259405147],[-58.36590202052449,-34.59191176049848],[-58.36632402675627,-34.59127103317633],[-58.366369490994266,-34.5912019959291],[-58.36648724644667,-34.59102321455532],[-58.36648726828303,-34.59102318302282],[-58.36649653657261,-34.591010877833135],[-58.36650498667635,-34.59100010801918],[-58.36650501942411,-34.591000066579696],[-58.36650505326394,-34.591000023338204],[-58.3665056492813,-34.59099926210819],[-58.36650568093906,-34.590999220667804],[-58.36651307614497,-34.590990145594],[-58.366515073667784,-34.59098769530659],[-58.366524697310574,-34.59097630894694],[-58.36652472568687,-34.59097627741962],[-58.36653456386037,-34.59096505889406],[-58.36654185100394,-34.590957051018044],[-58.366544636204196,-34.59095399109103],[-58.36654466785462,-34.59095395596061],[-58.36654725976414,-34.59095120867421],[-58.366555003844425,-34.59094299924081],[-58.36656203388094,-34.59093581596215],[-58.36656557836551,-34.5909321923455],[-58.36657637178442,-34.59092154697752],[-58.36658165316016,-34.59091651671363],[-58.366581673892924,-34.59091649689874],[-58.36658176882738,-34.590916405930216],[-58.366587389563634,-34.59091105232405],[-58.366593953926156,-34.59090501979214],[-58.3665986316854,-34.59090072370926],[-58.36660669827086,-34.590893560179204],[-58.36660723619138,-34.59089308014675],[-58.366610081810315,-34.590890552105925],[-58.36661299060656,-34.59088806017198],[-58.36662175191149,-34.590880551946185],[-58.366633619104434,-34.590870718704714],[-58.36663365183434,-34.59087069258938],[-58.36664110880739,-34.590864731974385],[-58.36664569972747,-34.59086106231016],[-58.36665735011732,-34.59085207533128],[-58.36665795996596,-34.59085160436977],[-58.3666579926969,-34.590851577353],[-58.36667046748053,-34.590842274626056],[-58.36668314588335,-34.590833149639444],[-58.36669105465355,-34.59082765631636],[-58.36669601372305,-34.59082421319896],[-58.36670907209587,-34.59081545989687],[-58.36672230136747,-34.59080690233746],[-58.3667357178992,-34.59079853061802],[-58.36674931404033,-34.590790362760906],[-58.36675941300456,-34.59078450789249],[-58.366759491535696,-34.59078446288345],[-58.366763073456696,-34.59078238523173],[-58.366766957410015,-34.59078021587366],[-58.36677699613589,-34.59077460884762],[-58.36678918104313,-34.59076806062908],[-58.36679108643477,-34.59076703631608],[-58.366792372298484,-34.590766371181026],[-58.366792417013954,-34.59076634868081],[-58.3668053367256,-34.59075966582827],[-58.366819735008136,-34.590752506388874],[-58.36683428238182,-34.590745549885916],[-58.366846489066866,-34.59073995628628],[-58.36684897883008,-34.59073881074204],[-58.366851793517235,-34.59073757170653],[-58.36686381455662,-34.59073227723102],[-58.36687877319305,-34.590725965565476],[-58.366893875456455,-34.590719869451725],[-58.366909101724026,-34.590713991578546],[-58.36692445853479,-34.590708332852415],[-58.366935978905545,-34.590704290952935],[-58.36693768433648,-34.59070369105019],[-58.36693992080766,-34.59070290316917],[-58.36694250616145,-34.59070203984406],[-58.36695549727723,-34.59069768991575],[-58.36695956877977,-34.59069639508027],[-58.36697027854966,-34.5906929925483],[-58.366971147588174,-34.590692715595864],[-58.36697118139122,-34.59069270390401],[-58.36698697314866,-34.590687946035345],[-58.36700285837574,-34.59068341990419],[-58.36700289653665,-34.590683410018684],[-58.36701884035084,-34.59067911830177],[-58.3670349070738,-34.59067505023276],[-58.36705105854482,-34.590671215697114],[-58.36706728495307,-34.59066761558852],[-58.367078095823544,-34.59066538407583],[-58.36708358302664,-34.59066425170725],[-58.36709995712876,-34.59066112135236],[-58.36711639635341,-34.59065822992381],[-58.36712633777767,-34.590656627816564],[-58.36713288435727,-34.5906555720002],[-58.36714944074975,-34.59065315661111],[-58.36715963147498,-34.590651818814614],[-58.36716188154558,-34.59065152311748],[-58.36716191316033,-34.590651518635234],[-58.36716195349599,-34.59065151325849],[-58.36716603828763,-34.590650978326586],[-58.36717031378499,-34.59065047960166],[-58.36718267697003,-34.590649038047985],[-58.36719934698198,-34.59064734027467],[-58.36721605922145,-34.59064588681809],[-58.3672327722733,-34.59064467403991],[-58.36723280497596,-34.59064467136136],[-58.36724955917081,-34.59064369839194],[-58.36726634578684,-34.59064296702719],[-58.367271283586085,-34.59064282307935],[-58.36728314302348,-34.5906424781514],[-58.36729691085747,-34.59064227895138],[-58.36729993997482,-34.59064223716452],[-58.36730291236836,-34.59064223409418],[-58.36730295814771,-34.59064223413021],[-58.36730299847711,-34.59064223416192],[-58.36731674755636,-34.59064223055378],[-58.36733089969248,-34.59064243368704],[-58.36733354286412,-34.59064247092111],[-58.367333574472624,-34.590642471847424],[-58.367350338986306,-34.59064295106541],[-58.36736711302927,-34.59064367457436],[-58.367383876979865,-34.590644644161706],[-58.367398938236455,-34.59064573319941],[-58.36740062103462,-34.59064585441113],[-58.36741732884801,-34.59064730170416],[-58.36741737244221,-34.590647306245536],[-58.36743401457965,-34.59064899506619],[-58.36745064989734,-34.59065092816494],[-58.36746346184519,-34.59065260135326],[-58.36746725442611,-34.59065309650881],[-58.367468121909916,-34.590653222487866],[-58.367473657020135,-34.5906540291012],[-58.367483803088156,-34.590655507289426],[-58.367491299713514,-34.590656713871155],[-58.36749133567681,-34.59065671930794],[-58.367491450104474,-34.59065673742628],[-58.36753452600694,-34.590623771927135],[-58.367721159239245,-34.59050527829338],[-58.367911996067114,-34.590434415268675],[-58.36796319381451,-34.5902510453406],[-58.367965264529914,-34.590243627341316],[-58.3679964143498,-34.590017065345336],[-58.36799677595637,-34.5900144343724],[-58.36799692103641,-34.59001338072157],[-58.36714764506964,-34.589841625570344],[-58.365726133055325,-34.58955412822057],[-58.365223524037326,-34.589452472023254],[-58.365205353108415,-34.589448798540325],[-58.363470129338566,-34.5890948671826],[-58.36322483600528,-34.58904483287808],[-58.361411325174096,-34.58867490149382],[-58.3614069609776,-34.58867400724353],[-58.3611305435907,-34.588617347805],[-58.36089451782915,-34.588568967197965],[-58.36089212693427,-34.58857302340114],[-58.360888618972794,-34.588572522871544],[-58.36088508813442,-34.58857201240699],[-58.36088498678612,-34.588571997899166],[-58.360882200253535,-34.58857159803288],[-58.36088219694826,-34.588571626875655],[-58.36085321316684,-34.58867610369497],[-58.360853202213036,-34.588676147855544],[-58.36077850178957,-34.588946846650295],[-58.360778490842335,-34.588946885402336],[-58.360761812612665,-34.58894390931217],[-58.360748184597554,-34.58894147545473],[-58.36074617289418,-34.588941116180024],[-58.36080304744171,-34.58872506473741],[-58.36080317791748,-34.588724569092996],[-58.36079043538717,-34.588718147549244],[-58.36078863812711,-34.58871724182752],[-58.360789867263904,-34.5887077544744],[-58.360789970704204,-34.58870695319565],[-58.360806248356326,-34.588708574105816],[-58.3608062854105,-34.588708577742615],[-58.36081945248897,-34.58867632324114],[-58.360819628503485,-34.58867589070559],[-58.36083827320956,-34.58860852313755],[-58.360850016696716,-34.588566099475834],[-58.360850264696154,-34.58856520357075],[-58.36083908661675,-34.588562168816345],[-58.360838927459874,-34.588562125606586],[-58.36083765372286,-34.58856178019333],[-58.36083709149205,-34.58856162738066],[-58.36083808022014,-34.58855831827128],[-58.36083832931999,-34.588557484575205],[-58.36083836763224,-34.588557351196656],[-58.36083838076261,-34.5885573097422],[-58.36082419526649,-34.58855434766533],[-58.36076020323948,-34.58854098545169],[-58.36075736897503,-34.58854039362634],[-58.3603987667067,-34.588465512961314],[-58.3602034957157,-34.58842473631434],[-58.359840705019586,-34.58834897382241],[-58.359836680775295,-34.5883481987921],[-58.359833479207325,-34.588347617363766],[-58.35983191437956,-34.58834733659574],[-58.35983027654162,-34.58834704224442],[-58.35982707060614,-34.58834646712222],[-58.35982388103564,-34.58834587939385],[-58.35982068823329,-34.58834526101427],[-58.359819258581176,-34.58834496323366],[-58.359817527089966,-34.58834460209738],[-58.35981608330644,-34.58834427365631],[-58.359814378006604,-34.588343886400956],[-58.35981125843252,-34.58834310582694],[-58.35980999997476,-34.58834275050026],[-58.359808164039165,-34.58834223513185],[-58.35980681193482,-34.58834180761181],[-58.359805120986636,-34.5883412734364],[-58.359802098737156,-34.58834023603896],[-58.35980206823186,-34.58834022519599],[-58.35979909944164,-34.5883391463783],[-58.359796108902714,-34.588338026978036],[-58.35979511533078,-34.58833765024166],[-58.35979313036569,-34.58833689767217],[-58.35979173696505,-34.58833637186178],[-58.359790151823105,-34.58833577287343],[-58.35978717216272,-34.58833467060919],[-58.359785597889065,-34.58833409686983],[-58.35978417178324,-34.58833357644015],[-58.35978118229775,-34.58833248678739],[-58.35977817974635,-34.58833138630638],[-58.359775202275145,-34.5883302768323],[-58.35977222482859,-34.588329147526906],[-58.35977073013298,-34.58832856484062],[-58.35976926594153,-34.58832799389873],[-58.359766331071555,-34.58832680964242],[-58.35976341586779,-34.58832558754298],[-58.359760543225995,-34.58832432221119],[-58.35975770229579,-34.58832297397529],[-58.35975767397488,-34.58832295952847],[-58.35975491595174,-34.58832155457314],[-58.359752182008265,-34.58832006851004],[-58.35974948191725,-34.58831853109445],[-58.35974681130089,-34.58831695674545],[-58.359745167803105,-34.58831595386913],[-58.35974418322976,-34.588315352685505],[-58.35974300592583,-34.588314597194845],[-58.35974159882284,-34.58831369547852],[-58.359739056977915,-34.58831199503928],[-58.35973655660947,-34.588310247761186],[-58.359734069337335,-34.588308486972764],[-58.359731603887894,-34.588306707272906],[-58.3597291449794,-34.588304926677154],[-58.35972910795341,-34.58830490050444],[-58.35972667843574,-34.588303150581986],[-58.359724200991515,-34.58830137537894],[-58.35972174318447,-34.58829958576971],[-58.35971931810748,-34.58829777094833],[-58.359716937768994,-34.58829591560085],[-58.359716502775335,-34.588295556015645],[-58.359716357777906,-34.588295436154304],[-58.359714772070895,-34.58829412533798],[-58.359714632711224,-34.58829400082323],[-58.35971430608874,-34.588293707583276],[-58.359712397474354,-34.58829203472367],[-58.35971022770416,-34.5882900127914],[-58.35970811138538,-34.58828795574889],[-58.35970808961317,-34.58828793409625],[-58.35970602780561,-34.58828586628291],[-58.35970396604848,-34.588283757905536],[-58.35970192500841,-34.588281643235696],[-58.35969990574067,-34.58827955021853],[-58.35969988396958,-34.588279527664454],[-58.359697832016735,-34.5882774238024],[-58.35969576044376,-34.58827532082505],[-58.3596936975961,-34.588273213347996],[-58.35969166420636,-34.58827108245889],[-58.35968968970104,-34.588268929985524],[-58.35968966575562,-34.588268902922515],[-58.35968777627907,-34.5882667406057],[-58.35968595883124,-34.58826450443322],[-58.359684270075206,-34.58826220617178],[-58.35968269693819,-34.58825984040165],[-58.359681613524806,-34.588258083508386],[-58.3596812088758,-34.58825742782975],[-58.35967978733303,-34.58825498917301],[-58.35967839415378,-34.588252530709],[-58.359677713305814,-34.58825135197008],[-58.359676981342005,-34.588250083045416],[-58.359676444025446,-34.588249180264036],[-58.35967642771085,-34.588249152306034],[-58.35967553689595,-34.58824765608768],[-58.35967459929593,-34.588246093124226],[-58.359674081549336,-34.58824523002211],[-58.35967262510612,-34.588242809364104],[-58.35967118175589,-34.58824037790013],[-58.35966975693938,-34.58823794284617],[-58.35966917834916,-34.58823692374605],[-58.35966836701377,-34.58823549790619],[-58.359667018526565,-34.588233036775726],[-58.35966595940504,-34.58823102840568],[-58.35966572669236,-34.58823059552468],[-58.35966571038338,-34.588230563059575],[-58.35966445894801,-34.58822806505315],[-58.359664445902155,-34.588228037999336],[-58.35966324894994,-34.58822555175766],[-58.35966208038804,-34.588223024074594],[-58.35966094453487,-34.58822048830646],[-58.35965985120671,-34.58821793905307],[-58.35965876878371,-34.588215385301815],[-58.359657708169905,-34.58821282345627],[-58.35965665627802,-34.58821025981526],[-58.35965561637905,-34.588207693480165],[-58.35965459719592,-34.58820512175412],[-58.35965360091754,-34.588202537427556],[-58.3596533315272,-34.588201798031314],[-58.35965265587258,-34.588199948637396],[-58.359651765336466,-34.58819735087931],[-58.35965092822262,-34.58819474144805],[-58.35965091737011,-34.588194703579006],[-58.35965020666613,-34.58819211408641],[-58.35964962466498,-34.588189453490685],[-58.35964913418958,-34.58818681731111],[-58.35964912661031,-34.58818677674059],[-58.359648674336995,-34.5881840973251],[-58.35964835070019,-34.588182277977126],[-58.359648196998215,-34.58818141518408],[-58.35964791855845,-34.5881800637134],[-58.359647646614754,-34.58817874740379],[-58.35964733550329,-34.58817737427117],[-58.35964706238122,-34.588176129173014],[-58.35964705153658,-34.58817608499403],[-58.3596464084916,-34.58817342975496],[-58.35964578289037,-34.58817077092498],[-58.35964520847216,-34.58816814819544],[-58.359645199802905,-34.588168107624014],[-58.35964468974784,-34.58816543987795],[-58.359644443304106,-34.58816377654183],[-58.359644291969026,-34.588162763213],[-58.3596440075609,-34.58816007402442],[-58.35964391216041,-34.58815878130175],[-58.359643832840504,-34.588157704934424],[-58.35964380927015,-34.58815737589474],[-58.35964367633061,-34.5881547147789],[-58.3596436742022,-34.58815467331163],[-58.359643570748474,-34.58815196624826],[-58.359643528533965,-34.58815085205266],[-58.359643467294724,-34.58814925918488],[-58.359643351369066,-34.588146940624554],[-58.359643332232416,-34.58814655209464],[-58.35964333010512,-34.58814650972594],[-58.35964318626497,-34.588143849502266],[-58.35964312544966,-34.58814279298202],[-58.3596430392076,-34.58814114690901],[-58.35964296705546,-34.58813956484904],[-58.359642963856125,-34.588139508056614],[-58.35964295110243,-34.58813924573148],[-58.35964291607991,-34.58813848399866],[-58.359642913951504,-34.58813844253136],[-58.359642844278476,-34.58813574180665],[-58.359642847638895,-34.58813303573541],[-58.35964316003807,-34.58813161625833],[-58.35964316551915,-34.58813159102314],[-58.35964352176934,-34.58812996786157],[-58.359644675793994,-34.58812664619379],[-58.35964557344044,-34.58812351721296],[-58.35964545508965,-34.58812116440661],[-58.35964544792459,-34.58812102196543],[-58.35964486425478,-34.58812058337775],[-58.35964356623856,-34.58811961144189],[-58.35964182506302,-34.58811915384257],[-58.35964065047965,-34.588118843656545],[-58.35963920784778,-34.58811846924174],[-58.35963770310548,-34.58811808125281],[-58.35963659061685,-34.58811779726081],[-58.35963474590948,-34.58811732875636],[-58.359631765805545,-34.58811659156458],[-58.359628775876445,-34.588115866984275],[-58.35962576414166,-34.58811514779392],[-58.359624341077506,-34.58811481486108],[-58.3596227414917,-34.58811444121418],[-58.35961973298991,-34.58811375177341],[-58.35961969812154,-34.58811374363097],[-58.35961663512227,-34.58811305414384],[-58.35961530574362,-34.58811276185454],[-58.359613569926296,-34.58811237817613],[-58.359611779619314,-34.58811198814141],[-58.35961048401687,-34.58811170579642],[-58.359607414435466,-34.58811105055755],[-58.359607377387206,-34.58811104241325],[-58.359604269647484,-34.588110395254716],[-58.359601137921075,-34.58810975438566],[-58.359597999663926,-34.58810910629963],[-58.359594852659235,-34.58810848074164],[-58.35959169039193,-34.58810785787488],[-58.35958852158048,-34.588107238608174],[-58.359585338589625,-34.58810662744214],[-58.359585297181546,-34.588106619294145],[-58.359584547470014,-34.58810647803491],[-58.35958214687137,-34.58810602257861],[-58.35957893878935,-34.58810542941956],[-58.35957828170237,-34.588105305366035],[-58.35957577321658,-34.58810483539514],[-58.359575740525884,-34.58810482905736],[-58.359572517175664,-34.588104243096595],[-58.35956929055341,-34.58810365893578],[-58.359566066104364,-34.58810308018528],[-58.35956283074804,-34.588102507735364],[-58.359561621169135,-34.588102292168315],[-58.35955958667436,-34.58810193347513],[-58.35955633496548,-34.5881013637154],[-58.35955471673122,-34.58810108650412],[-58.35955307343815,-34.58810080115864],[-58.35954981736284,-34.588100236803605],[-58.35954870693702,-34.58810004746203],[-58.359548611041525,-34.58810003115487],[-58.35954850098001,-34.588100012131406],[-58.35954818714137,-34.58809995777919],[-58.35954655038133,-34.58809967784776],[-58.35954328339765,-34.58809912069463],[-58.35954001640839,-34.58809856804855],[-58.3595367494259,-34.58809800999387],[-58.3595334715316,-34.58809746184546],[-58.35953343339119,-34.58809745550305],[-58.359530194732926,-34.58809690919077],[-58.35952696043341,-34.58809636378354],[-58.359526916844345,-34.58809635653509],[-58.359523637858004,-34.588095810188314],[-58.359520361062835,-34.58809525482908],[-58.359517082077694,-34.58809470758075],[-58.359513805279214,-34.58809415492562],[-58.35951231671798,-34.588093903063886],[-58.35951053829036,-34.588093602278754],[-58.35950726258304,-34.58809304872297],[-58.359503994512174,-34.588092489765025],[-58.3595020330166,-34.58809215366853],[-58.35950072535364,-34.58809192900326],[-58.35949746163366,-34.588091377260234],[-58.35949420446691,-34.58809081470562],[-58.35949294475509,-34.588090595489575],[-58.35949290552583,-34.58809058824481],[-58.359490947304664,-34.58809024854524],[-58.35948769886882,-34.58808967698363],[-58.35948445369839,-34.58808910903042],[-58.35948122161749,-34.58808853297546],[-58.35947798409247,-34.58808795240863],[-58.359474761829105,-34.58808737005189],[-58.35947281561772,-34.58808701413661],[-58.35947154829205,-34.58808678229391],[-58.35947019815147,-34.58808653325373],[-58.3594683347607,-34.58808619002875],[-58.3594651386809,-34.588085587862714],[-58.35946393675009,-34.58808535787841],[-58.35946380600143,-34.588085333373456],[-58.35946302358335,-34.58808518673237],[-58.359461950233104,-34.58808498390018],[-58.35946195571871,-34.58808495505932],[-58.359557935189954,-34.58725052646183],[-58.35955793740681,-34.58725049671672],[-58.35955809854771,-34.58724975678471],[-58.35956030468847,-34.587240028690665],[-58.35956218459413,-34.587227944898686],[-58.35956220317686,-34.58722790164615],[-58.35956676054433,-34.587217991660076],[-58.35956803313646,-34.58721572926636],[-58.359570056176864,-34.58721213160033],[-58.35957257507344,-34.58720946462512],[-58.359574692342406,-34.58720722368203],[-58.35958183774996,-34.587201277652944],[-58.359581884664394,-34.587201239833],[-58.35959014996499,-34.587195748171354],[-58.35959796755365,-34.58719268366323],[-58.35959808314428,-34.587192637788846],[-58.359598325228326,-34.58719254334505],[-58.35959870796044,-34.58719241206238],[-58.35960762309352,-34.58718936741614],[-58.35962038065386,-34.58718776470615],[-58.35962050819687,-34.5871877485889],[-58.359620968223894,-34.58718769038714],[-58.35962101509799,-34.5871876850184],[-58.359621726815824,-34.58718769553873],[-58.35962200910555,-34.587187699384216],[-58.359626872332726,-34.5871877684181],[-58.35963765165023,-34.587187921802396],[-58.3596470937512,-34.58718884026028],[-58.35965719627702,-34.58718982237797],[-58.35965755264681,-34.587189855131854],[-58.36334100477863,-34.58748447250434],[-58.36344747994835,-34.58749298707931],[-58.363463942265696,-34.5874940651291],[-58.36346602171655,-34.58749420114234],[-58.36348058351651,-34.587495902321905],[-58.363481495672815,-34.58749600853456],[-58.36349507701141,-34.58749639012732],[-58.36349511843033,-34.58749638925975],[-58.363496553940415,-34.5874963444611],[-58.363501928654856,-34.587496177585805],[-58.363502263279244,-34.58749616794377],[-58.363502855139934,-34.587496150399275],[-58.3635029009348,-34.58749613601396],[-58.363502951093736,-34.587496118026465],[-58.36350601174957,-34.587495128962985],[-58.36351129131028,-34.587493413363234],[-58.36351874713294,-34.58748743670909],[-58.363518775513505,-34.58748740157675],[-58.363524264448564,-34.587480126165104],[-58.36352433431482,-34.58748003427703],[-58.363525792114274,-34.58747137188389],[-58.36352748722141,-34.58746296028059],[-58.36352750367505,-34.587462872855916],[-58.36352750915711,-34.58746284581768],[-58.36352752998452,-34.58746274667807],[-58.3635275354698,-34.58746271693558],[-58.36359764392296,-34.58684400619588],[-58.363661289754425,-34.586282313260824],[-58.36366129306511,-34.58628227900941],[-58.363662551106614,-34.586272012816416],[-58.36366178195459,-34.58626351175953],[-58.363661763476394,-34.58626346937751],[-58.36365926098775,-34.5862580020003],[-58.363659249036225,-34.586257970440705],[-58.36365923489729,-34.58625794518928],[-58.36365918377079,-34.586257861315126],[-58.36365612164427,-34.586252817150246],[-58.36365343555385,-34.58624943922226],[-58.36365297212054,-34.58624885642564],[-58.363652953616544,-34.58624883567777],[-58.36364863874599,-34.58624596742896],[-58.36364150896163,-34.586243702638384],[-58.36363187868976,-34.586241599864536],[-58.363620264540266,-34.58624058529129],[-58.36026715824465,-34.58598014921718],[-58.35984303974645,-34.58594720124207],[-58.359835546112045,-34.5859466504293],[-58.359823422902565,-34.58594575945974],[-58.359815353846216,-34.58594516218522],[-58.35980789726957,-34.585944611402184],[-58.35979932268378,-34.58594385685014],[-58.359799102542816,-34.585943837733524],[-58.35978499174988,-34.585942594420565],[-58.3597849514272,-34.58594259078067],[-58.359768092314624,-34.5859409701422],[-58.35975675972549,-34.58593973729558],[-58.359747778385675,-34.585936518802825],[-58.35974773807644,-34.58593650434582],[-58.35973798388048,-34.585930731462184],[-58.359730561737884,-34.58592516259589],[-58.359729103818744,-34.58592406871261],[-58.35972333944673,-34.58591685242798],[-58.359723302447556,-34.58591680552252],[-58.35971778610854,-34.5859090900592],[-58.35971458425384,-34.585899153648285],[-58.35971455849502,-34.58589883181803],[-58.35971385095073,-34.58589019647622],[-58.359713855361896,-34.58589015501446],[-58.35971477455062,-34.585881062228495],[-58.35971511719558,-34.58587282710889],[-58.35971512050673,-34.58587279375903],[-58.35990089498146,-34.58416534014057],[-58.35990144885074,-34.584155498858884],[-58.359902710906844,-34.58415025814554],[-58.35990544552189,-34.58414229367394],[-58.359908699675884,-34.584135486169835],[-58.35991275047674,-34.58412961501895],[-58.35991291412681,-34.58412948174677],[-58.35992042240929,-34.5841233530128],[-58.35992509448998,-34.584120971801376],[-58.35992690704723,-34.584120048475235],[-58.3599339312823,-34.58411754576059],[-58.35993397271633,-34.58411753137289],[-58.3599341657155,-34.584117461225276],[-58.35993420169667,-34.58411744953721],[-58.35993500502025,-34.58411739523068],[-58.35993547044725,-34.58411736317361],[-58.35994420677382,-34.58411673506815],[-58.359954966265875,-34.58411673606659],[-58.359955582062085,-34.58411673388376],[-58.36024570474176,-34.58414145197361],[-58.36042835286903,-34.58415701410878],[-58.36053036122573,-34.58416570414328],[-58.36053040263858,-34.584165706882416],[-58.36491499755927,-34.58450183219612],[-58.36492385220793,-34.58450253703626],[-58.36492389035034,-34.58450254067269],[-58.36493103608261,-34.58450319906359],[-58.36493598442065,-34.58450398098104],[-58.364939260066016,-34.58450449833432],[-58.364939858312916,-34.58450459256462],[-58.364943516064145,-34.5845045675683],[-58.36494397818776,-34.58450456433502],[-58.36494652313515,-34.584504548357486],[-58.3649557286976,-34.58450343350232],[-58.364963036643935,-34.58450147068006],[-58.3649646752911,-34.584501029401025],[-58.364964714540406,-34.58450101861557],[-58.36496499037426,-34.584500944019595],[-58.36496514848998,-34.58450087654014],[-58.36497290168943,-34.58449750244553],[-58.364975205336556,-34.58449600162707],[-58.364980316550536,-34.584492674080415],[-58.364992616971456,-34.58448362828001],[-58.36500061926408,-34.5844778953568],[-58.365192250925794,-34.58432930281479],[-58.36520026901733,-34.584323085826135],[-58.365208430015116,-34.58431675807656],[-58.365489665286006,-34.58409438695128],[-58.36555494968796,-34.5840427669025],[-58.366077851449276,-34.58362930454384],[-58.36609118472497,-34.583618488154876],[-58.366100260118984,-34.58361112804066],[-58.36611897709043,-34.58359594943593],[-58.36611901527234,-34.583595918817906],[-58.366137349348094,-34.58358102926269],[-58.36614586403123,-34.583571287135136],[-58.36614851142907,-34.58356375333382],[-58.366149241365726,-34.58355463780897],[-58.366149244684735,-34.58355459544466],[-58.366149990468195,-34.583544974233305],[-58.36614893397496,-34.58347412503245],[-58.366147603478026,-34.58338492441237],[-58.366147596276804,-34.58338455662545],[-58.366147466416194,-34.58337814108378],[-58.36614732113034,-34.58337093227627],[-58.36614619300671,-34.583366324197534],[-58.366145081151835,-34.58336178463999],[-58.36614501172619,-34.583361503340264],[-58.366137411564196,-34.583353381765036],[-58.36613218133055,-34.58334836134818],[-58.36613087190005,-34.583347104446794],[-58.366120691841274,-34.58334283981489],[-58.36611557188722,-34.58334160349071],[-58.36610964672991,-34.58334017362031],[-58.3660987304749,-34.5833391661485],[-58.366098656370866,-34.58333915887808],[-58.36609805808583,-34.583339103414716],[-58.36609801449446,-34.583339099774285],[-58.36560736867606,-34.583300187451016],[-58.36546215767178,-34.583288670815186],[-58.365209320376756,-34.583268615797756],[-58.365209283321605,-34.58326861486656],[-58.364548915887376,-34.58321642891019],[-58.36256861086433,-34.58305991155938],[-58.3625428451421,-34.58305787380448],[-58.36141963282501,-34.582969084696586],[-58.361417757287526,-34.58296893642792],[-58.36154529445159,-34.58185119787712],[-58.36162502808646,-34.581152385208505],[-58.362638146082155,-34.5812325954373],[-58.362640848321185,-34.581232205546165],[-58.362640883203284,-34.581232200166376],[-58.362645116965865,-34.58123158888631],[-58.36264515184361,-34.58123158711222],[-58.36265132196261,-34.581231248757675],[-58.36265429312453,-34.5812310853456],[-58.3626653830156,-34.58123154069532],[-58.36267505529729,-34.581232650211106],[-58.36267509016852,-34.581232653845575],[-58.36339155998845,-34.58128937235504],[-58.36521176742383,-34.5814334478606],[-58.36887693445211,-34.58172666209398],[-58.36889059238767,-34.581727893188685],[-58.36890380461547,-34.581729081570224],[-58.368935103941055,-34.581731560353404],[-58.36894910536194,-34.581732636662124],[-58.36894937344605,-34.58173265760211],[-58.36895671634464,-34.58173322306308],[-58.36895688962655,-34.58173322950701],[-58.3689656103874,-34.58173355805635],[-58.36897528910064,-34.58173392430387],[-58.36898518754813,-34.581732732156915],[-58.368985578864745,-34.581732684683814],[-58.36899326076833,-34.58173030635118],[-58.36899339377805,-34.581730265889846],[-58.368993743813036,-34.581730100298145],[-58.368994001159365,-34.58172997880464],[-58.36900236273485,-34.581726029813225],[-58.369014427797964,-34.58171908464197],[-58.36902270257791,-34.58171478492784],[-58.36903292500691,-34.58170947171314],[-58.36903295445268,-34.581709454608806],[-58.3691088516659,-34.5816661186156],[-58.369129041399674,-34.58165458874629],[-58.36944488080425,-34.581474242385816],[-58.3696358004323,-34.581365226502385],[-58.36970925416348,-34.5813232836633],[-58.36975106301679,-34.58129940992859],[-58.37056365412354,-34.58083540230601],[-58.37056503995521,-34.58083386011949],[-58.37060251743978,-34.580792124670204],[-58.37060252184025,-34.580792087715146],[-58.37062112156405,-34.58063674665758],[-58.37062112596749,-34.58063670699822],[-58.37062210941304,-34.58062554900532],[-58.37062219986763,-34.580624570126474],[-58.3706221663303,-34.58062434654762],[-58.37062161356413,-34.580619626266774],[-58.370621604925326,-34.5806195541462],[-58.370621010062166,-34.5806144669534],[-58.37061866466158,-34.5806066426065],[-58.3706144246937,-34.58060096501784],[-58.37061434109695,-34.580600853076426],[-58.37060969374064,-34.580597122154906],[-58.370604493580935,-34.580593614366734],[-58.37059568035109,-34.5805902904291],[-58.37058516032543,-34.58058900602044],[-58.37057790244865,-34.58058850923028],[-58.370577861037255,-34.58058850649455],[-58.37056853695608,-34.580587866610415],[-58.365307975483574,-34.58017403715563],[-58.36530669062623,-34.58017397392574],[-58.36529522935269,-34.58017340764258],[-58.36529014141286,-34.58017292760462],[-58.36528110756776,-34.58017207571479],[-58.365281068341694,-34.580172068471896],[-58.36527479453903,-34.58017075185996],[-58.365274692118746,-34.58017073014352],[-58.365270606193626,-34.58016987231101],[-58.36526653228995,-34.5801680580761],[-58.36526318057858,-34.58016656532843],[-58.36526045267606,-34.58016471882174],[-58.36525780531795,-34.580162928307274],[-58.365256609652576,-34.58016211963078],[-58.36525470830139,-34.580159893386586],[-58.3652514541213,-34.58015608946327],[-58.365249101862226,-34.580149904699624],[-58.365249087736544,-34.580149868631274],[-58.36524838251747,-34.5801434463131],[-58.36524838582301,-34.580143415667315],[-58.36529541537159,-34.57974286286507],[-58.36529871790337,-34.57973052951503],[-58.36530892558557,-34.57971920319213],[-58.36532103559171,-34.57971019325498],[-58.36533926713042,-34.5797003481018],[-58.36543479496498,-34.57964559465466],[-58.36788345224959,-34.57824479508582],[-58.36788348060248,-34.57824477978378],[-58.36790084143845,-34.5782343323137],[-58.36790087633645,-34.57823431160819],[-58.367915151855364,-34.578225792577484],[-58.36791873724719,-34.57822399523305],[-58.367925953816325,-34.57822038886109],[-58.3679311641165,-34.578217652599385],[-58.367934207639564,-34.578216053144644],[-58.36794408746904,-34.57821267961732],[-58.36795553859234,-34.578211416651854],[-58.36796201097163,-34.57821148661021],[-58.36796748072798,-34.57821154406659],[-58.36797440764345,-34.578212498677544],[-58.36798240024046,-34.578213598348405],[-58.36801482551539,-34.578215711367044],[-58.36801486256624,-34.57821571410027],[-58.37423371782154,-34.578706551008224],[-58.37425366009184,-34.57870806192487],[-58.374254653985865,-34.578708090594134],[-58.37426948064489,-34.578708534094176],[-58.374278044365646,-34.57870970678481],[-58.37427833971215,-34.57870970429593],[-58.37428889158243,-34.57870957317203],[-58.37429725782495,-34.57870890680973],[-58.37430881067448,-34.578705223897],[-58.37430909521681,-34.578705133060474],[-58.37430963166041,-34.57870490088388],[-58.37431423286153,-34.57870291118724],[-58.37431901178812,-34.578700843195946],[-58.37431904014478,-34.57870082338527],[-58.374326511131336,-34.57869551673231],[-58.374326635463035,-34.57869543118757],[-58.37432676743507,-34.578695334831274],[-58.375288251652535,-34.57815077776851],[-58.375294626559665,-34.57814716674795],[-58.37539059987496,-34.5780928087088],[-58.375407811050785,-34.57808306050686],[-58.37602119657053,-34.57773564059244],[-58.37602122928764,-34.57773561898162],[-58.37603264525647,-34.577728188581474],[-58.37604098904163,-34.577721789918975],[-58.376043062334,-34.577719262902775],[-58.376045395333996,-34.57771641877045],[-58.376048787016515,-34.57770895198374],[-58.37604978657876,-34.57770458799625],[-58.37605149339416,-34.57769713082214],[-58.376051551412466,-34.57769688387304],[-58.37605270099155,-34.577687665816654],[-58.376057614692854,-34.57764829506499],[-58.37605882027945,-34.57763762395069],[-58.37606552688707,-34.57757827258151],[-58.376066344604524,-34.5775710371405],[-58.376071116420725,-34.5775288144697],[-58.37607126709911,-34.57752748121481],[-58.37607275046648,-34.577514355860785],[-58.376066649147695,-34.57750861302576],[-58.3760509530026,-34.57749383894687],[-58.376050586915284,-34.57749349436518],[-58.37604867508571,-34.57749169484504],[-58.37604807409951,-34.57749112922165],[-58.37604782338072,-34.57749089309336],[-58.376046345176654,-34.57748950091275],[-58.37638120655958,-34.5775200881237],[-58.37671626106816,-34.57755069258156],[-58.37669560235255,-34.57756243611907],[-58.37669557291075,-34.57756245232383],[-58.37659154972717,-34.5776215858987],[-58.37397717440912,-34.57910768707074],[-58.375126880746755,-34.5805254281304],[-58.37616540459724,-34.579955854036996],[-58.37693857157734,-34.580000335411704],[-58.379841464837774,-34.58016729947033],[-58.382861911212935,-34.57845408463024],[-58.38307033358983,-34.578372811375985],[-58.38323547529595,-34.57832003138325],[-58.383404355250434,-34.57827598662302],[-58.383576291204996,-34.5782407460442],[-58.38375051788509,-34.57821459218282],[-58.38392635318524,-34.578197452471684],[-58.38410320191672,-34.57818953925412],[-58.384280296970324,-34.57819078081662],[-58.38445567454429,-34.57820117588954],[-58.38445687219275,-34.57820124697437],[-58.38463241773697,-34.57822079768012],[-58.38506831719417,-34.5782526980495],[-58.385291305801196,-34.57825178429954],[-58.385513710119035,-34.578239320707006],[-58.38562395603835,-34.57822594615637],[-58.385734846737655,-34.57821530593922],[-58.385954337865314,-34.578222769307644],[-58.386128347811216,-34.5782168471128],[-58.38630064161203,-34.578190452215],[-58.386413646617996,-34.578167776882026],[-58.38652478353387,-34.57813925452504],[-58.38654183656195,-34.57813388283896],[-58.38654720549106,-34.57813219153534],[-58.386585286178644,-34.57812019857278],[-58.386901912618846,-34.578128060186],[-58.38758681660468,-34.57814631715922],[-58.38825302979675,-34.57816407202884],[-58.388399318643465,-34.57816797041044],[-58.38949147618641,-34.578197068497666],[-58.389666912876514,-34.57820174198282],[-58.389869341696375,-34.578207133668116],[-58.389896128637666,-34.578246606075375],[-58.3903919773364,-34.57897725708154],[-58.39119920862102,-34.580166889636125],[-58.39122022770905,-34.58019814634989],[-58.39164883383239,-34.5808356684404],[-58.39164933888169,-34.58083641962399],[-58.391639413744564,-34.58083873136099],[-58.391631177134386,-34.58084064926447],[-58.39153698624423,-34.58086467909662],[-58.391462210026795,-34.580886184575846],[-58.39139765167186,-34.580908400943514],[-58.3913440765733,-34.58092970790473],[-58.39130205836893,-34.5809484219503],[-58.39129544038293,-34.58095136931195],[-58.391174906991395,-34.581012426482694],[-58.39116553975808,-34.58101734272775],[-58.39109917858714,-34.581052170611066],[-58.391048919370476,-34.581078972687955],[-58.39100374306971,-34.581103446669744],[-58.39092633748648,-34.581145380159576],[-58.39080384023371,-34.58121199849098],[-58.39072197719962,-34.5812561061441],[-58.39067504014453,-34.58128107834579],[-58.390614985155224,-34.5813126627833],[-58.39055484523369,-34.58134410651816],[-58.390434139486764,-34.581406570875814],[-58.39019213209669,-34.581530583025966],[-58.39003096292795,-34.58161344632428],[-58.38993904844765,-34.58166113778998],[-58.389776515608204,-34.58174618228032],[-58.38961432210418,-34.58183164952593],[-58.389506390785506,-34.581888768911945],[-58.3893625962355,-34.581965303005546],[-58.389171181492564,-34.58206772398117],[-58.389062056894446,-34.58212646120596],[-58.38893742756379,-34.582193781268735],[-58.38879516485719,-34.58227094932428],[-58.38863279544921,-34.58235951334666],[-58.38844751125714,-34.58246116260591],[-58.38839673729451,-34.582490075306005],[-58.38834647160458,-34.582522157706656],[-58.38809547293556,-34.58269573941615],[-58.38784438821304,-34.582869319649134],[-58.38741827189716,-34.58319427238497],[-58.38696844658319,-34.58355674501224],[-58.38664766841852,-34.5838627471024],[-58.38642631730769,-34.58410373896175],[-58.38617101038501,-34.58438450053855],[-58.38598053662494,-34.58459395851433],[-58.38585064255816,-34.58474091201025],[-58.38585059455204,-34.584740966065276],[-58.385604207637314,-34.585019712893676],[-58.38533010754322,-34.58538877054289],[-58.38506320913909,-34.58588487620837],[-58.38499830642072,-34.58601149100881],[-58.38489173009513,-34.586219400995304],[-58.38480300416495,-34.586392489528684],[-58.38480188056612,-34.58639468106973],[-58.38450398753848,-34.58696612905157],[-58.38409523631899,-34.587243678864795],[-58.38378386653738,-34.58745510372061],[-58.38370017875969,-34.5875005151918],[-58.38369173820514,-34.58750511235751],[-58.38369087887974,-34.587505583241736],[-58.38384861615481,-34.58768370015589],[-58.3849538670883,-34.58879725051495],[-58.38594080916271,-34.58979162955545],[-58.38692224385791,-34.59078036312371],[-58.38787640235049,-34.5915910091141],[-58.387882993958556,-34.59159660832343],[-58.387954728857004,-34.59165341346785],[-58.38791450553285,-34.591686206751234],[-58.387571305345595,-34.5928355903143],[-58.38731427160064,-34.59454959936579],[-58.38731401607018,-34.594551303797644],[-58.38729493586202,-34.594649673224744],[-58.38727517074097,-34.59475198684766],[-58.38718314754662,-34.59555497022784],[-58.38716101376094,-34.59573333989363],[-58.387135818723706,-34.59593590633536],[-58.38713544756135,-34.595938890714685],[-58.38706623729998,-34.59693696226608],[-58.387067573800984,-34.597058583949455],[-58.38706891487265,-34.59717520634323],[-58.386976870411935,-34.59818340437518],[-58.38696400159656,-34.59828628558956],[-58.38694983351544,-34.5983997252506],[-58.38694864533929,-34.59840923541557],[-58.38686820376445,-34.59929786043728],[-58.38795629744741,-34.59934882028262],[-58.38797233636657,-34.59934970817028],[-58.38811811679609,-34.59935777566516],[-58.3881519092836,-34.59935964529836],[-58.389394408874544,-34.599428671591475],[-58.38948491654724,-34.599433699523075],[-58.38960738980765,-34.599441795307015],[-58.389668774147054,-34.59944585270693],[-58.39014481429392,-34.599477195736895],[-58.39138004991692,-34.59955849466013],[-58.39148571447128,-34.59956497502032],[-58.391557438319246,-34.59956937378542],[-58.39293533370779,-34.599642149302134]]]}}