{"type":"Feature","properties":{"slug":"saavedra","name":"Saavedra","region":"caba","sort":9},"geometry":{"type":"Polygon","coordinates":[[[-58.47358759304927,-34.55354026114664],[-58.47393046939182,-34.553731222128256],[-58.47425342980662,-34.55391218347193],[-58.475177456231016,-34.55442992675472],[-58.47608165877607,-34.55493653693237],[-58.476991832545984,-34.55544652005983],[-58.47791129569734,-34.55596163699786],[-58.47881808661473,-34.55646963540156],[-58.47935550884331,-34.55677069906745],[-58.47972241828951,-34.55697628873522],[-58.48052690382473,-34.55742696261313],[-58.48062948622177,-34.55748448449427],[-58.480806644415324,-34.55758382822432],[-58.481537416038584,-34.5579922514725],[-58.482447486077334,-34.558500785646046],[-58.48340873167066,-34.559037755461716],[-58.48356069364174,-34.559110690163635],[-58.48370167386554,-34.5591784144512],[-58.4843510717152,-34.55949014168697],[-58.48498986927266,-34.55979681753303],[-58.485018862345136,-34.559810736744105],[-58.48516682554576,-34.559881275052945],[-58.4853019346159,-34.559945618178254],[-58.486255871577896,-34.56040024110969],[-58.48638953843979,-34.56046394598689],[-58.48717533794849,-34.5608334552764],[-58.48732075122438,-34.56090180820143],[-58.488131851900164,-34.561293274131124],[-58.48827518696321,-34.56136249080618],[-58.488292931544315,-34.561371059757164],[-58.48831037310801,-34.56137925737926],[-58.489087180559636,-34.56174435357017],[-58.48927754994656,-34.561833822322285],[-58.49004405471471,-34.56220197493553],[-58.490401300243214,-34.562373590257295],[-58.490518877382435,-34.56242997366464],[-58.49099191533611,-34.56265698478033],[-58.49183468141706,-34.56144803149674],[-58.49193073985506,-34.56130800638878],[-58.492884303882185,-34.56176377459691],[-58.49413008280982,-34.56235911291416],[-58.494289297654475,-34.562435623675846],[-58.4954177713456,-34.562977527429815],[-58.49659351404779,-34.56354208323607],[-58.49682323205594,-34.563652374973614],[-58.49786088883486,-34.56415237806023],[-58.49799141679918,-34.564215300359066],[-58.49905309972755,-34.564727117669655],[-58.4991400334327,-34.56476899414291],[-58.49971307213448,-34.56504735218918],[-58.5002355344115,-34.565297199872305],[-58.50086273217462,-34.56560004320787],[-58.50143816514603,-34.565877828985464],[-58.5018775333311,-34.56608994825942],[-58.501998615869375,-34.56614878486821],[-58.50256068845474,-34.566422203046905],[-58.50271225486377,-34.56649588736464],[-58.50333223675382,-34.56679977674861],[-58.50395741561393,-34.567106196049885],[-58.504094778367154,-34.56717769831184],[-58.50410140966351,-34.56718115036504],[-58.504241315578746,-34.567254062344844],[-58.504657538511744,-34.567458433355554],[-58.505072145999534,-34.56766202916625],[-58.50520864536377,-34.56772909634255],[-58.50626301384539,-34.56824740200004],[-58.507316799153394,-34.568765347155],[-58.50841809302499,-34.56930662969915],[-58.508604690846106,-34.56939834027656],[-58.508818013763744,-34.56951523458638],[-58.509040472963434,-34.5700034273427],[-58.50923349288315,-34.569913431223306],[-58.509254522260626,-34.56990362479814],[-58.50931212144918,-34.569854384291354],[-58.509394559773995,-34.56978390757949],[-58.50948420953869,-34.56970726683014],[-58.509522005772276,-34.56967495439814],[-58.50957347047401,-34.56962144422682],[-58.509676604426495,-34.56951421010182],[-58.509685806940155,-34.56950424133049],[-58.509804848066665,-34.5693752946885],[-58.509844880452924,-34.56931622514783],[-58.50985111607939,-34.56930702370787],[-58.509874864147605,-34.56927198339446],[-58.50987529313918,-34.56927135042903],[-58.50981200779429,-34.56913715658831],[-58.5093969034388,-34.56825693260604],[-58.506365627502895,-34.561828532355975],[-58.50578697746933,-34.56060127296674],[-58.50494369252902,-34.558812678938274],[-58.50490528850057,-34.55873122262451],[-58.50445421600493,-34.55777446848145],[-58.503955852881234,-34.55671738021684],[-58.50357650513575,-34.555912718481835],[-58.5029217463493,-34.554523823094414],[-58.50213044661602,-34.552845225868616],[-58.50200148150398,-34.55257164311347],[-58.50187981901012,-34.552313550054315],[-58.50172704322539,-34.55198945126142],[-58.5014979613121,-34.551503471419856],[-58.501393771797,-34.55128243926748],[-58.50131111861719,-34.551107094635285],[-58.500996823148654,-34.550440325064365],[-58.50084360666343,-34.55011527613917],[-58.50073623666362,-34.54988748894505],[-58.5006740756072,-34.54975561254902],[-58.50067243872838,-34.549752139859365],[-58.50055206560144,-34.54949676282297],[-58.500551668790834,-34.549495920968496],[-58.500551556547826,-34.54949587143597],[-58.50052228058338,-34.549482952032655],[-58.498281981761934,-34.54849428150955],[-58.49751290143619,-34.54815486230027],[-58.49751250709999,-34.54815468826541],[-58.497463883537996,-34.54813322890985],[-58.496449929474,-34.54768572715263],[-58.49644953384156,-34.54768555254033],[-58.49593344193405,-34.54745777378297],[-58.495933046303776,-34.547457599169],[-58.49542090139003,-34.547231559034046],[-58.49509238552749,-34.54708656466138],[-58.495087956276514,-34.54708460974941],[-58.49501581371064,-34.54705276858189],[-58.49501355608648,-34.547051772145664],[-58.49501138446324,-34.54705081366715],[-58.495009126839186,-34.54704981723079],[-58.49500381818846,-34.54704747417772],[-58.49499938894161,-34.54704551926251],[-58.4949796727882,-34.547036817236524],[-58.49497524354248,-34.54703486232042],[-58.494913114593906,-34.54700744072188],[-58.4949086853513,-34.54700548580338],[-58.49485215362343,-34.5469805345807],[-58.49481129588502,-34.54696250121637],[-58.49480686665223,-34.54696054628627],[-58.49469696887898,-34.546912040635256],[-58.49430243881444,-34.546737905129476],[-58.49429453934949,-34.546734418486665],[-58.49411077132571,-34.54665330726562],[-58.49348104858851,-34.546375357930174],[-58.49342270369669,-34.54634960490648],[-58.49340021262408,-34.54633967749398],[-58.493050338894236,-34.54618524467603],[-58.49300101819054,-34.5461634752979],[-58.49297852575647,-34.546153547483],[-58.492871466469694,-34.54610629306906],[-58.49250391213789,-34.545944058235726],[-58.49249543911535,-34.54594031821526],[-58.49248709218064,-34.54593663384947],[-58.49247090226028,-34.54592948756021],[-58.49246256906682,-34.545925809257234],[-58.49199311169885,-34.545718587561836],[-58.4919706200965,-34.545708659543344],[-58.49148373390555,-34.54549374150507],[-58.49146124327208,-34.54548381376659],[-58.49087706741596,-34.54522594657597],[-58.49085457562597,-34.54521601815115],[-58.490467192875926,-34.54504501693197],[-58.49028270087311,-34.54496357696522],[-58.49026020964799,-34.544953648674976],[-58.489287030649876,-34.54452405251225],[-58.48926453966116,-34.544514124037754],[-58.48802992538936,-34.543969103035565],[-58.48800743554698,-34.543959174702806],[-58.48770145329752,-34.5438240955811],[-58.48715489178446,-34.543582806705615],[-58.487137294123514,-34.543575037864656],[-58.48711480319612,-34.54356510878708],[-58.48660096075877,-34.543338260811474],[-58.48658336311065,-34.543330492030094],[-58.486583056959894,-34.54333035687461],[-58.48656087231296,-34.54332056285283],[-58.48605798023373,-34.543098545629306],[-58.48589181706371,-34.543025187117884],[-58.48586932772805,-34.543015258391016],[-58.48515782158415,-34.542701135024274],[-58.48513533157489,-34.54269120578732],[-58.48438488897878,-34.54235988505167],[-58.48436240000087,-34.54234995604605],[-58.48365055776542,-34.54203567047366],[-58.48358027720606,-34.5420046405369],[-58.48355778757172,-34.541994711007575],[-58.48258153994477,-34.54156367595454],[-58.48255905139538,-34.5415537466148],[-58.48196155050027,-34.541289930440946],[-58.4819390620981,-34.54128000098655],[-58.48144711591239,-34.5410627870711],[-58.481424626784474,-34.54105285714718],[-58.481245647725444,-34.54097382990913],[-58.48086361630405,-34.54080514472911],[-58.48078208070224,-34.5407691424491],[-58.480759592599014,-34.54075921274722],[-58.48074519458949,-34.54075285525154],[-58.47975209327708,-34.54031434304729],[-58.47974977926077,-34.540313321259184],[-58.47967711622877,-34.540281235787525],[-58.479509696708156,-34.54020730888201],[-58.47926670595564,-34.54010001106448],[-58.4791282912988,-34.540038890958506],[-58.479055628312054,-34.540006804882985],[-58.47860496278259,-34.53980780124633],[-58.47813515670441,-34.53960034321053],[-58.47812156952366,-34.539594343310064],[-58.47806249452486,-34.539568256471426],[-58.477849929960676,-34.53947439003767],[-58.47746998753921,-34.53930661070431],[-58.477415946163845,-34.539282746486016],[-58.47734328351568,-34.53925065921048],[-58.47609137539786,-34.53869781537516],[-58.476055500950125,-34.53868197288668],[-58.4760272153561,-34.53866948169465],[-58.47602510737004,-34.53866855078719],[-58.47598283934576,-34.538649884798254],[-58.475954554668476,-34.53863739298881],[-58.47590796773996,-34.53869903860281],[-58.47584686857838,-34.53877988618344],[-58.47576220017738,-34.53889192206709],[-58.47568128567383,-34.538998989720056],[-58.47554617176805,-34.53917777344715],[-58.47548818021474,-34.53925450910118],[-58.475453480201736,-34.53930042427003],[-58.4754205521294,-34.539343995530864],[-58.474928859632094,-34.53999459922243],[-58.47435749186781,-34.54076664442551],[-58.473787814837756,-34.54153650254515],[-58.47323752889332,-34.542280158943946],[-58.472693444859516,-34.54301536138047],[-58.472095485006015,-34.543823383683375],[-58.471538616104155,-34.544575976618454],[-58.47101416013939,-34.54528560539832],[-58.47043250710375,-34.54607263202276],[-58.46994113595287,-34.5467220421368],[-58.46940235214841,-34.54741708659196],[-58.469130617012354,-34.547767672422545],[-58.468977065615306,-34.547960334234205],[-58.46884951716631,-34.54812037010525],[-58.46866923346269,-34.54835354570761],[-58.46855471310996,-34.54849032108433],[-58.46851020332554,-34.54854616929439],[-58.46822756660625,-34.54890083789491],[-58.46819097058801,-34.54894654457668],[-58.46837465220388,-34.54908231498778],[-58.46930429013961,-34.549587989487215],[-58.47015895148508,-34.55006077242987],[-58.47100919687966,-34.55053115543397],[-58.471865069453564,-34.55100455998838],[-58.4727050335101,-34.551469227582494],[-58.47357428978319,-34.551950084689786],[-58.47443734115173,-34.55242741425036],[-58.47358759304927,-34.55354026114664]]]}}