{"type":"Feature","properties":{"slug":"san-fernando","name":"San Fernando","region":"norte","sort":4},"geometry":{"type":"MultiPolygon","coordinates":[[[[-58.36352442,-34.02206128],[-58.35800889,-34.02761347],[-58.35692851,-34.02890571],[-58.35379007,-34.0326596],[-58.34992778,-34.03656766],[-58.34498854,-34.03839716],[-58.3449857,-34.038413],[-58.35084026,-34.04482138],[-58.35084026,-34.04813816],[-58.35355398,-34.05190722],[-58.35318973,-34.05219682],[-58.35298153,-34.05198862],[-58.35208923,-34.05133427],[-58.35092924,-34.04993633],[-58.34947182,-34.04856814],[-58.34863901,-34.04901429],[-58.34840107,-34.0500553],[-58.34840107,-34.05130452],[-58.34875798,-34.05231579],[-58.34965028,-34.05353527],[-58.35036412,-34.05463577],[-58.35063181,-34.05573627],[-58.3508995,-34.05683677],[-58.35173231,-34.05746138],[-58.35253538,-34.05701523],[-58.35372511,-34.05627165],[-58.35443895,-34.05570652],[-58.35599528,-34.05423755],[-58.35687076,-34.05507324],[-58.35822763,-34.05959612],[-58.36009205,-34.06090766],[-58.35954668,-34.06138971],[-58.35897561,-34.06167524],[-58.35904699,-34.06224631],[-58.35961806,-34.062746],[-58.36068882,-34.06292446],[-58.36136696,-34.06324569],[-58.36136696,-34.06370968],[-58.36200942,-34.0640666],[-58.36300879,-34.06456629],[-58.36472353,-34.06395561],[-58.36602783,-34.06469727],[-58.36591065,-34.06472274],[-58.36462402,-34.06500244],[-58.36419678,-34.06530762],[-58.3626709,-34.06988525],[-58.3625849,-34.07044903],[-58.3624989,-34.0710128],[-58.36212158,-34.07348633],[-58.36334757,-34.07818594],[-58.36358643,-34.07910156],[-58.36358498,-34.07911136],[-58.36328125,-34.08117676],[-58.36199951,-34.0869751],[-58.36157227,-34.09008789],[-58.36279297,-34.09460449],[-58.36357913,-34.09873185],[-58.3638379,-34.10009036],[-58.36383906,-34.10009646],[-58.36450195,-34.10357666],[-58.36495004,-34.10644445],[-58.36572266,-34.11138916],[-58.36583312,-34.11279763],[-58.36481238,-34.11380498],[-58.36278984,-34.115887],[-58.36094576,-34.11808801],[-58.35963705,-34.12070541],[-58.359875,-34.1220736],[-58.36082678,-34.12344179],[-58.36374162,-34.12653509],[-58.36570468,-34.13022326],[-58.36677544,-34.13236477],[-58.36857777,-34.13732953],[-58.36791992,-34.1394043],[-58.36810303,-34.14178467],[-58.36810476,-34.14178533],[-58.36968994,-34.14239502],[-58.36970823,-34.14242604],[-58.37109375,-34.14477539],[-58.37072918,-34.14726663],[-58.37072754,-34.14727783],[-58.36871338,-34.1519165],[-58.36894962,-34.15262523],[-58.36920166,-34.15338135],[-58.36922468,-34.15340437],[-58.3717041,-34.15588379],[-58.37174761,-34.15594403],[-58.37329102,-34.15808105],[-58.37314881,-34.1604986],[-58.37310791,-34.16119385],[-58.37249077,-34.16441047],[-58.37109375,-34.17169189],[-58.36938477,-34.17340088],[-58.36839118,-34.17423224],[-58.36699355,-34.17537105],[-58.36657715,-34.17590643],[-58.36580382,-34.17650129],[-58.36562536,-34.17549002],[-58.36526844,-34.17549002],[-58.36419769,-34.17626335],[-58.36318642,-34.17703667],[-58.36306744,-34.17733411],[-58.36229412,-34.17828589],[-58.36158028,-34.17840486],[-58.35824903,-34.18066535],[-58.35765417,-34.18078432],[-58.35694033,-34.18161714],[-58.35509625,-34.1835207],[-58.35372806,-34.18560273],[-58.35378754,-34.1861976],[-58.35283576,-34.18827963],[-58.35253833,-34.19048063],[-58.3526573,-34.19375239],[-58.35200295,-34.19773798],[-58.351765,-34.19952258],[-58.3522409,-34.20083128],[-58.353966,-34.20463842],[-58.35628598,-34.20683942],[-58.35813006,-34.20713685],[-58.35926031,-34.20666096],[-58.3601526,-34.20713686],[-58.35985517,-34.20838607],[-58.36074747,-34.21040861],[-58.36122336,-34.21106297],[-58.36211566,-34.2117768],[-58.36342436,-34.2113604],[-58.36384077,-34.21255013],[-58.36437615,-34.21255013],[-58.36508998,-34.2117768],[-58.36717201,-34.21017067],[-58.36806431,-34.21023015],[-58.3681238,-34.21272859],[-58.3685402,-34.21409678],[-58.37038428,-34.21415626],[-58.37532167,-34.21344243],[-58.38014007,-34.21189578],[-58.38543438,-34.20987324],[-58.38573181,-34.21159834],[-58.38483951,-34.21249064],[-58.38388773,-34.2144537],[-58.38364978,-34.21600035],[-58.38359029,-34.21897467],[-58.38305491,-34.22040235],[-58.38198416,-34.22183003],[-58.38037802,-34.22349565],[-58.38037802,-34.22444743],[-58.38192467,-34.22480435],[-58.38460156,-34.22522076],[-58.38537489,-34.22522076],[-58.38662411,-34.22486384],[-58.3884087,-34.22456641],[-58.38965792,-34.22426897],[-58.39346506,-34.22438795],[-58.39465479,-34.22539922],[-58.39643938,-34.22575614],[-58.3963799,-34.22629152],[-58.39358403,-34.22664844],[-58.39257276,-34.22801663],[-58.3923943,-34.22992019],[-58.39352454,-34.23015814],[-58.39554709,-34.22938482],[-58.39786706,-34.2290279],[-58.40090087,-34.22801663],[-58.40149574,-34.23027711],[-58.40096036,-34.23039609],[-58.39887833,-34.23134787],[-58.39721271,-34.23218068],[-58.39400044,-34.23301349],[-58.39032,-34.2348285],[-58.38963809,-34.23521648],[-58.38906305,-34.23699909],[-58.38864665,-34.24027085],[-58.38870614,-34.24199596],[-58.38900357,-34.24324518],[-58.39001484,-34.24473234],[-58.39138303,-34.24598156],[-58.39334608,-34.24693334],[-58.39322711,-34.24746872],[-58.39382198,-34.24859896],[-58.39501171,-34.24919383],[-58.39542811,-34.25008613],[-58.39602298,-34.25062151],[-58.3967963,-34.25038356],[-58.39703425,-34.2510974],[-58.39697476,-34.25204918],[-58.39703425,-34.25294148],[-58.39810501,-34.25472608],[-58.40119831,-34.25781937],[-58.40268547,-34.2585927],[-58.40369674,-34.2577004],[-58.40435109,-34.2577004],[-58.40577877,-34.25877116],[-58.40679004,-34.25972294],[-58.40768234,-34.259485],[-58.40851515,-34.25835475],[-58.40911001,-34.25829527],[-58.41077564,-34.25900911],[-58.41160845,-34.2603773],[-58.41220331,-34.26121011],[-58.41303287,-34.26187985],[-58.41430664,-34.26312256],[-58.41550583,-34.26376828],[-58.41668701,-34.2644043],[-58.42077637,-34.26519775],[-58.4262085,-34.26531982],[-58.42938232,-34.26489258],[-58.43169727,-34.26562361],[-58.43170166,-34.265625],[-58.43182636,-34.26560719],[-58.43469238,-34.26519775],[-58.43548584,-34.26379394],[-58.4362793,-34.26300049],[-58.43682861,-34.26330566],[-58.43684672,-34.26383075],[-58.43688965,-34.26507568],[-58.43709485,-34.26597857],[-58.43719456,-34.2664173],[-58.43719482,-34.26641846],[-58.43748435,-34.26641846],[-58.44268799,-34.26641846],[-58.44598389,-34.26550293],[-58.45147705,-34.2658081],[-58.45269775,-34.26330566],[-58.45367432,-34.26489258],[-58.45361328,-34.2678833],[-58.45458984,-34.269104],[-58.45468433,-34.26921873],[-58.45629883,-34.2711792],[-58.46270752,-34.27380371],[-58.46508789,-34.27398682],[-58.46819992,-34.27432325],[-58.46960449,-34.2744751],[-58.47040214,-34.27428841],[-58.47247314,-34.27380371],[-58.47540283,-34.27337646],[-58.47799913,-34.273126],[-58.48091397,-34.27205524],[-58.48727902,-34.27044911],[-58.49061027,-34.2696163],[-58.49322768,-34.26967578],[-58.49471484,-34.26949732],[-58.49649944,-34.26884297],[-58.49870044,-34.26759375],[-58.49994965,-34.26753427],[-58.50000914,-34.26866451],[-58.49840301,-34.26908092],[-58.49661841,-34.26973527],[-58.49602354,-34.2718173],[-58.49566663,-34.27413727],[-58.49394152,-34.27526752],[-58.49114565,-34.27669519],[-58.48983695,-34.2771116],[-58.48745748,-34.27806338],[-58.48686262,-34.27955055],[-58.48733851,-34.28050233],[-58.4882903,-34.2810972],[-58.48948003,-34.28139463],[-58.49055078,-34.28193001],[-58.49388203,-34.28300076],[-58.49566662,-34.28383358],[-58.49745122,-34.28502331],[-58.49864095,-34.28579663],[-58.50024709,-34.28746225],[-58.5014963,-34.28918736],[-58.50298347,-34.29115042],[-58.50435166,-34.29305399],[-58.50560087,-34.29394628],[-58.50673112,-34.29471961],[-58.50875366,-34.29573088],[-58.50965231,-34.29619614],[-58.51277905,-34.29657785],[-58.51706208,-34.29600678],[-58.52148787,-34.29557848],[-58.52562814,-34.29486464],[-58.53033947,-34.29486464],[-58.53676401,-34.29572125],[-58.54004767,-34.29572125],[-58.53970638,-34.29837571],[-58.54466434,-34.2977057],[-58.54905063,-34.29711294],[-58.549102,-34.297106],[-58.55518793,-34.29443747],[-58.56271583,-34.29113668],[-58.570004,-34.287941],[-58.5725641,-34.28697389],[-58.597238,-34.277653],[-58.608303,-34.274427],[-58.6153,-34.272929],[-58.624771,-34.271318],[-58.631842,-34.270083],[-58.638199,-34.268839],[-58.63829036,-34.26882091],[-58.64893585,-34.26671269],[-58.649515,-34.266598],[-58.653805,-34.264832],[-58.65978191,-34.2628899],[-58.66325,-34.261763],[-58.67788052,-34.25771378],[-58.678064,-34.257663],[-58.691117,-34.254358],[-58.712152,-34.248902],[-58.71206367,-34.24828327],[-58.71175571,-34.24612596],[-58.711754,-34.246114],[-58.711728,-34.243214],[-58.71161465,-34.24202719],[-58.71149044,-34.24072659],[-58.711488,-34.240701],[-58.71142643,-34.24009178],[-58.711307,-34.23891],[-58.7112447,-34.23794655],[-58.711223,-34.237611],[-58.71113153,-34.23720505],[-58.71080128,-34.23573944],[-58.7107604,-34.235558],[-58.710506,-34.234429],[-58.710017,-34.232346],[-58.709659,-34.230592],[-58.70956584,-34.22906531],[-58.70956474,-34.22904727],[-58.709548,-34.228773],[-58.709677,-34.227158],[-58.709942,-34.225689],[-58.70997516,-34.22554427],[-58.71001548,-34.22536824],[-58.710575,-34.222926],[-58.7109548,-34.22132231],[-58.710984,-34.221199],[-58.71098425,-34.221176],[-58.710997,-34.220022],[-58.71087326,-34.21930664],[-58.710837,-34.219097],[-58.709909,-34.218452],[-58.70960291,-34.21828416],[-58.708461,-34.217658],[-58.707153,-34.216865],[-58.70676393,-34.21666458],[-58.70492763,-34.21571862],[-58.704808,-34.215657],[-58.703326,-34.214834],[-58.70164,-34.213691],[-58.700479,-34.212351],[-58.699663,-34.211188],[-58.69952766,-34.21097428],[-58.69894751,-34.21005818],[-58.698639,-34.209571],[-58.6982,-34.208758],[-58.697565,-34.207107],[-58.697126,-34.206265],[-58.696486,-34.20496],[-58.695746,-34.203394],[-58.6955788,-34.20305672],[-58.69476648,-34.20141806],[-58.694356,-34.20059],[-58.694241,-34.199937],[-58.693979,-34.198509],[-58.693927,-34.197461],[-58.693843,-34.196292],[-58.693776,-34.195489],[-58.69380756,-34.19483016],[-58.693809,-34.1948],[-58.69381683,-34.19430898],[-58.693823,-34.193922],[-58.69402,-34.193012],[-58.69415164,-34.19227887],[-58.694157,-34.192249],[-58.69421218,-34.19206595],[-58.69421219,-34.19206592],[-58.6942122,-34.19206588],[-58.694384,-34.191496],[-58.694687,-34.19031],[-58.694844,-34.189688],[-58.694931,-34.189182],[-58.69502526,-34.18845205],[-58.695099,-34.187881],[-58.69509261,-34.18779833],[-58.69503021,-34.18699134],[-58.695023,-34.186898],[-58.6949872,-34.18681589],[-58.694594,-34.185914],[-58.694422,-34.185242],[-58.694306,-34.184646],[-58.69426,-34.184141],[-58.693902,-34.183063],[-58.693564,-34.181951],[-58.693396,-34.180974],[-58.693249,-34.180028],[-58.693198,-34.179118],[-58.69312,-34.177912],[-58.692978,-34.176652],[-58.693019,-34.176117],[-58.692958,-34.175876],[-58.692647,-34.175123],[-58.692526,-34.17464],[-58.692338,-34.174263],[-58.691901,-34.173401],[-58.6914,-34.172432],[-58.691802,-34.172248],[-58.69205213,-34.17222405],[-58.692669,-34.172165],[-58.693713,-34.17214],[-58.695913,-34.172089],[-58.69638039,-34.17200033],[-58.697294,-34.171827],[-58.698851,-34.171696],[-58.70005,-34.171709],[-58.70057677,-34.17170868],[-58.701693,-34.171708],[-58.703182,-34.17165],[-58.70345168,-34.17161175],[-58.704028,-34.17153],[-58.704649,-34.171573],[-58.70497593,-34.17153806],[-58.705641,-34.171467],[-58.70598206,-34.1714043],[-58.707757,-34.171078],[-58.709938,-34.170663],[-58.71096521,-34.17044613],[-58.71179,-34.170272],[-58.71226086,-34.17014335],[-58.71326442,-34.16986916],[-58.714008,-34.169666],[-58.7141318,-34.16961623],[-58.715003,-34.169266],[-58.71577994,-34.16909955],[-58.71659,-34.168926],[-58.718143,-34.168641],[-58.719648,-34.168463],[-58.721689,-34.168593],[-58.72241484,-34.16866875],[-58.72373,-34.168806],[-58.72490406,-34.16897395],[-58.725177,-34.169013],[-58.726626,-34.16911],[-58.727943,-34.169151],[-58.72796495,-34.16915249],[-58.728898,-34.169216],[-58.730942,-34.169182],[-58.733221,-34.168905],[-58.7338265,-34.16881611],[-58.734815,-34.168671],[-58.738087,-34.168103],[-58.739963,-34.167625],[-58.74109563,-34.16723479],[-58.741632,-34.16705],[-58.743448,-34.166474],[-58.7442756,-34.16635542],[-58.744467,-34.166328],[-58.745638,-34.166027],[-58.74586976,-34.16591352],[-58.74645736,-34.16562581],[-58.7467,-34.165507],[-58.747009,-34.164978],[-58.74702907,-34.16489748],[-58.747289,-34.163855],[-58.747287,-34.163172],[-58.74715,-34.162404],[-58.7470942,-34.16157691],[-58.747065,-34.161144],[-58.746853,-34.160071],[-58.74669545,-34.15933499],[-58.746579,-34.158791],[-58.746493,-34.157178],[-58.746364,-34.155959],[-58.74641135,-34.15557943],[-58.74646361,-34.15516052],[-58.746489,-34.154957],[-58.7465354,-34.15487298],[-58.74674159,-34.15449966],[-58.74679,-34.154412],[-58.74697587,-34.15434083],[-58.74718168,-34.15426201],[-58.74720654,-34.15425249],[-58.747563,-34.154116],[-58.74782857,-34.15410224],[-58.74903,-34.15404],[-58.75038664,-34.15388577],[-58.750754,-34.153844],[-58.75078937,-34.15383801],[-58.751598,-34.153701],[-58.752477,-34.15371],[-58.75276446,-34.15363514],[-58.754278,-34.153241],[-58.756413,-34.152533],[-58.757805,-34.15209],[-58.7582,-34.151906],[-58.75842674,-34.15179307],[-58.758971,-34.151522],[-58.759834,-34.150797],[-58.75986164,-34.15076693],[-58.7606424,-34.14991769],[-58.760917,-34.149619],[-58.76100739,-34.14949415],[-58.761662,-34.14859],[-58.762434,-34.147839],[-58.763233,-34.146583],[-58.764044,-34.145201],[-58.764556,-34.144121],[-58.765234,-34.141982],[-58.765565,-34.140687],[-58.766048,-34.139198],[-58.766403,-34.138289],[-58.766922,-34.136242],[-58.767039,-34.135223],[-58.767451,-34.134241],[-58.767491,-34.133392],[-58.768085,-34.132456],[-58.768427,-34.13177],[-58.768365,-34.13144],[-58.768048,-34.131048],[-58.76753633,-34.13054173],[-58.76729,-34.130298],[-58.76671548,-34.1299714],[-58.766516,-34.129858],[-58.765692,-34.12934],[-58.765034,-34.128789],[-58.764295,-34.128043],[-58.763886,-34.127563],[-58.763746,-34.127182],[-58.763679,-34.126792],[-58.76385,-34.126474],[-58.764575,-34.12592],[-58.76489,-34.125698],[-58.76686,-34.124589],[-58.768172,-34.123821],[-58.769194,-34.12317],[-58.770317,-34.12224],[-58.77061054,-34.12200878],[-58.771146,-34.121587],[-58.772074,-34.120735],[-58.773051,-34.119824],[-58.774231,-34.118642],[-58.775123,-34.117823],[-58.775601,-34.117391],[-58.776832,-34.11617],[-58.777573,-34.115412],[-58.77767269,-34.11531594],[-58.77804,-34.114962],[-58.77814002,-34.11485942],[-58.77933,-34.113639],[-58.779547,-34.113489],[-58.77974762,-34.11333591],[-58.77991,-34.113212],[-58.78001784,-34.11306003],[-58.780323,-34.11263],[-58.780424,-34.112381],[-58.780908,-34.112029],[-58.781887,-34.111104],[-58.783011,-34.110036],[-58.78369907,-34.10950709],[-58.78372,-34.109491],[-58.78417794,-34.10895225],[-58.784264,-34.108851],[-58.78471574,-34.10855581],[-58.784743,-34.108538],[-58.78475812,-34.10852457],[-58.7848634,-34.10843108],[-58.785395,-34.107959],[-58.78563351,-34.10759312],[-58.785865,-34.107238],[-58.787561,-34.105422],[-58.78813932,-34.10454979],[-58.78828978,-34.10432286],[-58.788417,-34.104131],[-58.789803,-34.102763],[-58.791209,-34.101007],[-58.79177819,-34.10039999],[-58.7920856,-34.10007214],[-58.792819,-34.09929],[-58.793988,-34.098304],[-58.795783,-34.097136],[-58.796712,-34.09631],[-58.797508,-34.095628],[-58.79817,-34.095198],[-58.79900069,-34.09464725],[-58.799081,-34.094594],[-58.79914642,-34.09452858],[-58.799779,-34.093896],[-58.800461,-34.093223],[-58.80240354,-34.09129441],[-58.80255,-34.091149],[-58.80263635,-34.09105673],[-58.80311793,-34.0905422],[-58.803675,-34.089947],[-58.804131,-34.089273],[-58.804357,-34.088664],[-58.80475,-34.087515],[-58.804829,-34.08648],[-58.804917,-34.086017],[-58.804998,-34.084872],[-58.80492,-34.083927],[-58.804778,-34.082623],[-58.804731,-34.081865],[-58.804584,-34.08125],[-58.804336,-34.080973],[-58.804028,-34.080777],[-58.803719,-34.080677],[-58.803275,-34.080495],[-58.802811,-34.080361],[-58.801684,-34.080038],[-58.80118574,-34.07991894],[-58.80097664,-34.07986898],[-58.800349,-34.079719],[-58.798742,-34.079493],[-58.797249,-34.079398],[-58.79597,-34.079289],[-58.795216,-34.079088],[-58.794726,-34.078818],[-58.79419,-34.078603],[-58.793145,-34.078259],[-58.792472,-34.077816],[-58.791306,-34.077265],[-58.790077,-34.076816],[-58.788114,-34.075898],[-58.786119,-34.07498],[-58.781485,-34.07293],[-58.78068454,-34.07256469],[-58.78032964,-34.07240271],[-58.778264,-34.07146],[-58.775823,-34.070397],[-58.77559873,-34.07029131],[-58.77513394,-34.07007228],[-58.771927,-34.068561],[-58.7697987,-34.06759486],[-58.767356,-34.066486],[-58.764134,-34.065041],[-58.763092,-34.064568],[-58.761447,-34.063912],[-58.76013416,-34.06335425],[-58.75891406,-34.0628359],[-58.758154,-34.062513],[-58.7561695,-34.06155903],[-58.755562,-34.061267],[-58.75463368,-34.06086109],[-58.752765,-34.060044],[-58.75157,-34.059519],[-58.75022632,-34.05889618],[-58.750172,-34.058871],[-58.74878572,-34.05827267],[-58.748571,-34.05818],[-58.746614,-34.057316],[-58.74418194,-34.05617093],[-58.743632,-34.055912],[-58.74301789,-34.05566471],[-58.742142,-34.055312],[-58.74104833,-34.05480808],[-58.740562,-34.054584],[-58.73817,-34.05355],[-58.73811743,-34.05352762],[-58.73685087,-34.05298852],[-58.735581,-34.052448],[-58.734751,-34.052125],[-58.732747,-34.051155],[-58.73198,-34.050796],[-58.730534,-34.050165],[-58.728656,-34.049402],[-58.72748218,-34.04880902],[-58.72711,-34.048621],[-58.725956,-34.048091],[-58.72303418,-34.04679186],[-58.717738,-34.044437],[-58.71368,-34.042696],[-58.71331929,-34.04252723],[-58.708544,-34.040293],[-58.705526,-34.038987],[-58.70511961,-34.03882936],[-58.703724,-34.038288],[-58.702178,-34.037571],[-58.7013815,-34.03718926],[-58.700682,-34.036854],[-58.699414,-34.036289],[-58.697944,-34.035636],[-58.691287,-34.032663],[-58.68895,-34.031622],[-58.688005,-34.031204],[-58.68652508,-34.03060049],[-58.686313,-34.030514],[-58.683106,-34.028967],[-58.68222435,-34.02859897],[-58.681144,-34.028148],[-58.68058166,-34.02795369],[-58.6795657,-34.02760264],[-58.678849,-34.027355],[-58.67824729,-34.02703671],[-58.67822785,-34.02702642],[-58.67766433,-34.02672834],[-58.67719201,-34.02647849],[-58.67565451,-34.02566519],[-58.675329,-34.025493],[-58.67530005,-34.02546679],[-58.67514508,-34.02556943],[-58.67071533,-34.02850342],[-58.66351318,-34.03210449],[-58.66046999,-34.03335031],[-58.65809053,-34.03406415],[-58.65499723,-34.03525388],[-58.65047626,-34.03668155],[-58.64882658,-34.0369565],[-58.64476555,-34.03763334],[-58.63850923,-34.03914348],[-58.63786511,-34.03929896],[-58.63480864,-34.03949615],[-58.63048878,-34.03977485],[-58.62382629,-34.03906101],[-58.61930532,-34.03834718],[-58.61242873,-34.03787293],[-58.61240488,-34.03787128],[-58.60717007,-34.03787128],[-58.60520895,-34.03725844],[-58.60336293,-34.03668155],[-58.59859298,-34.03591221],[-58.5959866,-34.03549182],[-58.59265536,-34.0338262],[-58.58965,-34.03294227],[-58.58861027,-34.03263647],[-58.58385135,-34.02978112],[-58.58075805,-34.02811549],[-58.57861654,-34.02716371],[-58.57592723,-34.02676031],[-58.57588557,-34.02675406],[-58.57539734,-34.02668083],[-58.5747602,-34.02658526],[-58.57385761,-34.02644987],[-58.57091731,-34.02602983],[-58.57054781,-34.02597704],[-58.57052637,-34.02597398],[-58.56100852,-34.02716371],[-58.55842709,-34.02700726],[-58.55513562,-34.02680778],[-58.5531563,-34.02668782],[-58.54815944,-34.02502219],[-58.54714959,-34.02462948],[-58.53963719,-34.02170799],[-58.53959338,-34.02169095],[-58.53819809,-34.02141189],[-58.53364472,-34.02050122],[-58.52551269,-34.01812744],[-58.52276611,-34.01721191],[-58.52001953,-34.01629639],[-58.51829083,-34.01604217],[-58.51379394,-34.01538086],[-58.51030883,-34.01420914],[-58.50853486,-34.01361272],[-58.50708126,-34.01312401],[-58.50671387,-34.01300049],[-58.49951746,-34.00853935],[-58.4925059,-34.00646098],[-58.48638916,-34.00500488],[-58.48610623,-34.00493083],[-58.47729492,-34.00262451],[-58.47444224,-34.0022051],[-58.47119141,-34.00207519],[-58.4631958,-34.00189209],[-58.45625974,-34.00279895],[-58.44841631,-34.00408563],[-58.44235548,-34.0045805],[-58.43356133,-34.00596612],[-58.42559906,-34.00675789],[-58.41621071,-34.0077476],[-58.41423266,-34.0079788],[-58.40943684,-34.00853935],[-58.39826589,-34.01051871],[-58.3863819,-34.01140941],[-58.38207455,-34.011881],[-58.3789247,-34.01222587],[-58.37553777,-34.01331447],[-58.37084359,-34.01618436],[-58.36822912,-34.01791615],[-58.36772889,-34.01835687],[-58.36352442,-34.02206128]]],[[[-58.54505008,-34.43072943],[-58.542057,-34.43166],[-58.53952,-34.43284],[-58.537371,-34.435099],[-58.536291,-34.436497],[-58.53342643,-34.43905755],[-58.53289,-34.439401],[-58.532428,-34.439693],[-58.53218372,-34.43984411],[-58.531998,-34.439959],[-58.530202,-34.441109],[-58.5291555,-34.44173914],[-58.528797,-34.441955],[-58.52838982,-34.4421591],[-58.523514,-34.443781],[-58.52214882,-34.44390983],[-58.516165,-34.443321],[-58.5164302,-34.44382653],[-58.51667391,-34.4442911],[-58.5171808,-34.44525734],[-58.51807953,-34.4466355],[-58.51832932,-34.44701853],[-58.51913396,-34.44807306],[-58.519475,-34.44852],[-58.520069,-34.448776],[-58.520613,-34.449059],[-58.520792,-34.449037],[-58.523442,-34.450381],[-58.524091,-34.450685],[-58.52504795,-34.45114647],[-58.52592,-34.451567],[-58.527483,-34.452337],[-58.527633,-34.452382],[-58.528513,-34.452883],[-58.52947826,-34.4534507],[-58.529676,-34.453567],[-58.533133,-34.455369],[-58.534546,-34.456103],[-58.534854,-34.456266],[-58.536236,-34.456992],[-58.536396,-34.457065],[-58.53842184,-34.4580391],[-58.540023,-34.458809],[-58.545705,-34.461544],[-58.54697,-34.462231],[-58.54803,-34.462552],[-58.550883,-34.463897],[-58.55117895,-34.46403947],[-58.55490255,-34.46583207],[-58.55663613,-34.46666665],[-58.560999,-34.468767],[-58.56103096,-34.46878221],[-58.56359166,-34.4700012],[-58.565005,-34.470674],[-58.565151,-34.470743],[-58.56588319,-34.47110876],[-58.56624697,-34.47134212],[-58.56680725,-34.47170152],[-58.566967,-34.471804],[-58.56835676,-34.47237756],[-58.5690983,-34.47268359],[-58.57143,-34.473738],[-58.57498362,-34.47542382],[-58.574984,-34.475424],[-58.57490291,-34.47552213],[-58.57486285,-34.4755706],[-58.574846,-34.475591],[-58.577922,-34.476027],[-58.57876,-34.477592],[-58.57886459,-34.47748675],[-58.578917,-34.477434],[-58.57892054,-34.47743566],[-58.581909,-34.478837],[-58.582787,-34.479259],[-58.584716,-34.480069],[-58.58614,-34.48238],[-58.58828644,-34.48344195],[-58.588616,-34.483605],[-58.58977122,-34.48418055],[-58.59119196,-34.48488839],[-58.59334343,-34.48596029],[-58.594226,-34.4864],[-58.59496356,-34.48684521],[-58.59543198,-34.48712797],[-58.596204,-34.487663],[-58.59703873,-34.488211],[-58.59847978,-34.48915705],[-58.59860188,-34.48923721],[-58.60010909,-34.4902267],[-58.600303,-34.490354],[-58.60026622,-34.49009167],[-58.60023893,-34.48989706],[-58.60022977,-34.48983171],[-58.600004,-34.489429],[-58.599793,-34.488741],[-58.599604,-34.487918],[-58.599251,-34.487269],[-58.59910763,-34.48690491],[-58.59905748,-34.48677757],[-58.59901,-34.486657],[-58.599027,-34.48612],[-58.599057,-34.485646],[-58.599504,-34.48525],[-58.600241,-34.484711],[-58.6005918,-34.48446759],[-58.600731,-34.484371],[-58.60088859,-34.48433521],[-58.601572,-34.48418],[-58.602354,-34.484161],[-58.602834,-34.483866],[-58.60290344,-34.48382464],[-58.60318449,-34.48365722],[-58.603435,-34.483508],[-58.60356688,-34.48342215],[-58.604251,-34.482941],[-58.60515438,-34.48211189],[-58.605212,-34.482059],[-58.606242,-34.481122],[-58.60630308,-34.48104121],[-58.60633215,-34.48100277],[-58.606382,-34.480909],[-58.60643385,-34.48081698],[-58.606488,-34.48067],[-58.60647094,-34.48038153],[-58.60639936,-34.48015648],[-58.60635932,-34.48003061],[-58.606341,-34.479973],[-58.6062834,-34.47994828],[-58.6059725,-34.47981481],[-58.605805,-34.479717],[-58.605412,-34.479629],[-58.604882,-34.479663],[-58.6044794,-34.47961789],[-58.60423499,-34.47953783],[-58.60411264,-34.47949776],[-58.603457,-34.479137],[-58.60278338,-34.47878381],[-58.60219752,-34.47854026],[-58.602031,-34.478474],[-58.6018194,-34.47835347],[-58.601636,-34.478249],[-58.60179108,-34.47806875],[-58.601907,-34.477934],[-58.60193899,-34.47787725],[-58.602044,-34.477691],[-58.60206863,-34.47734297],[-58.602083,-34.47714],[-58.602002,-34.476662],[-58.60190217,-34.47639061],[-58.601796,-34.476102],[-58.60157508,-34.47588997],[-58.601448,-34.475768],[-58.60143464,-34.47570889],[-58.601241,-34.474852],[-58.60113844,-34.47483126],[-58.600974,-34.474798],[-58.599372,-34.474656],[-58.59927,-34.474414],[-58.599023,-34.473395],[-58.599076,-34.473064],[-58.599215,-34.472658],[-58.599188,-34.472402],[-58.598945,-34.47211],[-58.598597,-34.471776],[-58.59859913,-34.47168857],[-58.59860393,-34.47149192],[-58.598609,-34.471284],[-58.5986322,-34.47125434],[-58.598932,-34.470871],[-58.599421,-34.470473],[-58.599837,-34.470052],[-58.59984097,-34.47004727],[-58.60000783,-34.46984838],[-58.600207,-34.469611],[-58.60023654,-34.46939528],[-58.60026,-34.469224],[-58.60010876,-34.46877793],[-58.600082,-34.468699],[-58.599409,-34.467656],[-58.59911178,-34.46707615],[-58.599022,-34.466901],[-58.59903168,-34.46682462],[-58.59898,-34.466737],[-58.598943,-34.466554],[-58.598881,-34.465973],[-58.598788,-34.463758],[-58.59878542,-34.46374093],[-58.59875753,-34.46355607],[-58.598671,-34.463434],[-58.59815875,-34.46317011],[-58.598077,-34.463128],[-58.59755289,-34.46288659],[-58.597506,-34.462865],[-58.597058,-34.462669],[-58.59693849,-34.4625197],[-58.59668,-34.462381],[-58.596465,-34.462113],[-58.596357,-34.461927],[-58.596185,-34.461629],[-58.595985,-34.461413],[-58.5956871,-34.46119837],[-58.59518,-34.460833],[-58.594578,-34.460327],[-58.594462,-34.460066],[-58.594461,-34.459872],[-58.594569,-34.459523],[-58.59474,-34.459236],[-58.594799,-34.458949],[-58.59475099,-34.45856931],[-58.594733,-34.458427],[-58.594694,-34.458182],[-58.594729,-34.457895],[-58.595058,-34.457202],[-58.595142,-34.456966],[-58.595153,-34.456721],[-58.59494,-34.456415],[-58.594703,-34.456129],[-58.59465,-34.455737],[-58.594634,-34.455317],[-58.594619,-34.454959],[-58.594442,-34.454551],[-58.59404,-34.453734],[-58.593511,-34.452728],[-58.593472,-34.452482],[-58.593519,-34.452175],[-58.593807,-34.45116],[-58.593975,-34.450527],[-58.594316,-34.449952],[-58.594548,-34.449623],[-58.594644,-34.449264],[-58.595171,-34.448343],[-58.5948349,-34.44826695],[-58.594615,-34.448228],[-58.59384823,-34.44804371],[-58.59337394,-34.4479364],[-58.5931925,-34.44789534],[-58.59183854,-34.44758899],[-58.59183848,-34.44758898],[-58.59183843,-34.44758897],[-58.580396,-34.445],[-58.58037873,-34.44498956],[-58.579511,-34.444465],[-58.578776,-34.44395],[-58.577654,-34.443086],[-58.57686747,-34.4424715],[-58.57636863,-34.44208178],[-58.576351,-34.442068],[-58.573298,-34.439904],[-58.57297906,-34.4396584],[-58.570315,-34.437607],[-58.570513,-34.437397],[-58.569045,-34.436297],[-58.568188,-34.435679],[-58.568047,-34.435807],[-58.567835,-34.435627],[-58.567365,-34.43529],[-58.567239,-34.435197],[-58.567153,-34.435139],[-58.566649,-34.434748],[-58.566523,-34.434646],[-58.566391,-34.434548],[-58.566562,-34.434387],[-58.56580328,-34.43384484],[-58.56472494,-34.4330743],[-58.563521,-34.432214],[-58.56203644,-34.4311008],[-58.561838,-34.430952],[-58.56182439,-34.43094304],[-58.561675,-34.431163],[-58.560342,-34.430001],[-58.56017524,-34.42970161],[-58.559272,-34.42808],[-58.559064,-34.427065],[-58.55861194,-34.42516018],[-58.558432,-34.424402],[-58.55842374,-34.42439673],[-58.55831207,-34.42432544],[-58.55794658,-34.42409212],[-58.55766,-34.424296],[-58.557233,-34.424689],[-58.556016,-34.425537],[-58.554035,-34.426625],[-58.551687,-34.427985],[-58.549325,-34.429125],[-58.546219,-34.430366],[-58.54521841,-34.43067709],[-58.54505008,-34.43072943]]],[[[-58.2855845,-34.22627037],[-58.28708197,-34.2295862],[-58.2913695,-34.23104396],[-58.29322869,-34.23373872],[-58.29437083,-34.236023],[-58.29655993,-34.23745068],[-58.29951047,-34.23944943],[-58.30084296,-34.2400205],[-58.30084296,-34.23687961],[-58.30169957,-34.23430979],[-58.30274653,-34.23088337],[-58.30398385,-34.22888462],[-58.30512599,-34.22869426],[-58.30512599,-34.23193033],[-58.30512599,-34.23430979],[-58.30588742,-34.23706996],[-58.30741028,-34.2373555],[-58.30757837,-34.23642602],[-58.3088889,-34.23632206],[-58.30988492,-34.24078192],[-58.31017045,-34.24363728],[-58.31150295,-34.24506495],[-58.31540527,-34.24563602],[-58.31807026,-34.24449388],[-58.32292436,-34.2422096],[-58.32882542,-34.2400205],[-58.33015792,-34.23678443],[-58.33015792,-34.23307247],[-58.32996757,-34.2298364],[-58.32968203,-34.22726659],[-58.33006274,-34.22307873],[-58.33063382,-34.21812946],[-58.33168078,-34.21489339],[-58.33339399,-34.21146696],[-58.33339399,-34.20870679],[-58.32944408,-34.20235363],[-58.32801641,-34.19884392],[-58.32486362,-34.19396603],[-58.32331697,-34.19212195],[-58.32257489,-34.19143287],[-58.32165135,-34.1905753],[-58.31920511,-34.18970401],[-58.31540527,-34.18900485],[-58.31159813,-34.18795789],[-58.30969456,-34.18948075],[-58.30721992,-34.1923361],[-58.30426939,-34.19443002],[-58.29903457,-34.19757091],[-58.29370458,-34.19995037],[-58.28961191,-34.20271055],[-58.28501095,-34.20659985],[-58.2838731,-34.20894249],[-58.28266388,-34.21022964],[-58.28190245,-34.21051518],[-58.28085549,-34.21051518],[-58.27999889,-34.21061036],[-58.27952299,-34.213085],[-58.27847603,-34.21384643],[-58.276858,-34.21603553],[-58.27628693,-34.21870053],[-58.27695318,-34.21984267],[-58.2790471,-34.22079445],[-58.28161692,-34.22355463],[-58.28342531,-34.22422088],[-58.2855845,-34.22627037]]],[[[-58.24277618,-34.24872932],[-58.24349002,-34.24956213],[-58.24545308,-34.25176314],[-58.24628589,-34.25360722],[-58.24646435,-34.25658155],[-58.24545308,-34.25931792],[-58.24575051,-34.26021022],[-58.24723767,-34.26169739],[-58.2484274,-34.26199482],[-58.2519966,-34.26437428],[-58.25282941,-34.26437428],[-58.25467349,-34.26360095],[-58.25610117,-34.26110252],[-58.25818319,-34.25830665],[-58.25978933,-34.25741436],[-58.26187136,-34.25509438],[-58.26240674,-34.25408311],[-58.26341801,-34.25313133],[-58.26466723,-34.25081135],[-58.26496466,-34.24920522],[-58.26597593,-34.24896727],[-58.26621387,-34.25039495],[-58.26579747,-34.25283389],[-58.26591644,-34.25438054],[-58.26668977,-34.25604617],[-58.26805796,-34.25711692],[-58.26912871,-34.25806871],[-58.26817693,-34.25979382],[-58.2669872,-34.2616379],[-58.26603541,-34.26288712],[-58.2652026,-34.26389839],[-58.26442928,-34.26425531],[-58.26288263,-34.26496914],[-58.26216879,-34.26645631],[-58.26151444,-34.26895474],[-58.26246622,-34.27008499],[-58.26377493,-34.27008499],[-58.26579747,-34.26943063],[-58.26716566,-34.26835988],[-58.26895026,-34.2691332],[-58.27061588,-34.26960909],[-58.27257893,-34.26949012],[-58.27269791,-34.27038242],[-58.27513685,-34.26972807],[-58.27656453,-34.2691332],[-58.27817067,-34.26800296],[-58.27781375,-34.26663477],[-58.27709991,-34.26425531],[-58.27656453,-34.26169739],[-58.27662402,-34.25991279],[-58.27561275,-34.25539181],[-58.27495839,-34.25158468],[-58.27501788,-34.25021649],[-58.27436353,-34.2466473],[-58.27430404,-34.24480321],[-58.27436353,-34.24093659],[-58.27300389,-34.23413841],[-58.27299534,-34.23409564],[-58.27192458,-34.23135926],[-58.27061837,-34.22898146],[-58.27030417,-34.22822551],[-58.2697331,-34.22744505],[-58.26923486,-34.22691352],[-58.26906923,-34.22654085],[-58.26795031,-34.22574086],[-58.26772797,-34.22579851],[-58.26726265,-34.22594545],[-58.26632963,-34.22632263],[-58.26531682,-34.22744505],[-58.26373395,-34.22876226],[-58.26278507,-34.22957704],[-58.2617768,-34.23050066],[-58.2599083,-34.23225156],[-58.25717192,-34.23409564],[-58.25443554,-34.23629664],[-58.25169916,-34.23897353],[-58.2489033,-34.24194786],[-58.24705921,-34.24337554],[-58.24277618,-34.24872932]]],[[[-58.47693894,-34.30336156],[-58.47389799,-34.30557446],[-58.47392654,-34.30603131],[-58.47471411,-34.30655287],[-58.47483985,-34.30695523],[-58.47487236,-34.3073128],[-58.47469036,-34.30746447],[-58.47467457,-34.30754343],[-58.47441887,-34.30770214],[-58.47416317,-34.30779913],[-58.47411026,-34.30786967],[-58.47399564,-34.3080372],[-58.47388983,-34.30816946],[-58.47373994,-34.30842516],[-58.47374876,-34.30851333],[-58.47379284,-34.30861032],[-58.47388102,-34.30878666],[-58.47383693,-34.30891892],[-58.47398682,-34.30909527],[-58.47404854,-34.30925398],[-58.47420725,-34.30944796],[-58.47435715,-34.30948323],[-58.47456876,-34.30948323],[-58.4749479,-34.30949204],[-58.47507594,-34.30947375],[-58.47547532,-34.30934712],[-58.47552102,-34.3093157],[-58.4756621,-34.30923634],[-58.47582469,-34.30923634],[-58.47594507,-34.30919817],[-58.47647733,-34.30889143],[-58.47692942,-34.30889143],[-58.47726255,-34.30896281],[-58.47733393,-34.30920076],[-58.47711978,-34.30958147],[-58.47688183,-34.30977183],[-58.47676286,-34.30993839],[-58.4765963,-34.31024772],[-58.47690563,-34.31022393],[-58.47721496,-34.31005736],[-58.47773844,-34.30962906],[-58.4779288,-34.30936732],[-58.47809536,-34.30910558],[-58.47842848,-34.30920076],[-58.47814295,-34.30960527],[-58.47776223,-34.31003357],[-58.47714358,-34.31046187],[-58.47711978,-34.31084258],[-58.47728634,-34.31127089],[-58.47750049,-34.31138986],[-58.47804777,-34.31155642],[-58.47842848,-34.3116754],[-58.47899956,-34.31162781],[-58.47911853,-34.31181816],[-58.47828572,-34.31191334],[-58.47740532,-34.3121037],[-58.47700081,-34.31234165],[-58.47638215,-34.31257959],[-58.47585867,-34.31274615],[-58.47512103,-34.31331722],[-58.47488309,-34.31353138],[-58.47507311,-34.31394916],[-58.47469273,-34.31415004],[-58.47433581,-34.31434039],[-58.47419304,-34.31467352],[-58.4744072,-34.31500664],[-58.47495447,-34.31510182],[-58.47519242,-34.31522079],[-58.47521621,-34.31533977],[-58.47469273,-34.31543494],[-58.47424063,-34.31553012],[-58.47369336,-34.31545874],[-58.47340782,-34.31533977],[-58.47314608,-34.31531597],[-58.47312704,-34.31502568],[-58.47279868,-34.31486863],[-58.47232755,-34.31488291],[-58.47181358,-34.31494002],[-58.47129962,-34.31513989],[-58.47122823,-34.31529694],[-58.47141383,-34.31552536],[-58.47170749,-34.31568568],[-58.47119492,-34.31583945],[-58.47060006,-34.31610119],[-58.47026693,-34.31598222],[-58.46991001,-34.31588704],[-58.46960068,-34.31598222],[-58.46948171,-34.31622017],[-58.46895823,-34.31632486],[-58.46864414,-34.31635342],[-58.46810162,-34.31646763],[-58.4678732,-34.31669606],[-58.46785892,-34.31698159],[-58.4681159,-34.3174099],[-58.46875836,-34.31768116],[-58.46920093,-34.31786675],[-58.46992905,-34.31815229],[-58.47065716,-34.31828078],[-58.47119968,-34.31860915],[-58.47159943,-34.31872336],[-58.47232755,-34.31953714],[-58.4723561,-34.31989406],[-58.47232755,-34.32017959],[-58.4727273,-34.32053651],[-58.47332692,-34.32093626],[-58.47386944,-34.32123607],[-58.47472604,-34.3214645],[-58.47512579,-34.32135029],[-58.4760395,-34.32113613],[-58.47638215,-34.32099337],[-58.47656775,-34.32070783],[-58.47656775,-34.32035091],[-58.47638215,-34.31999399],[-58.47602523,-34.31992261],[-58.4757968,-34.31973701],[-58.4757968,-34.31950858],[-58.47571114,-34.31918022],[-58.47539705,-34.31880902],[-58.47511152,-34.3182665],[-58.47495447,-34.31773826],[-58.47489736,-34.31739562],[-58.47504013,-34.31715292],[-58.47528284,-34.31702442],[-58.47552554,-34.31786675],[-58.47585391,-34.31858059],[-58.47632504,-34.31909456],[-58.47666768,-34.3194372],[-58.4776385,-34.32006538],[-58.47823813,-34.3204223],[-58.47895197,-34.32046513],[-58.48037964,-34.32032236],[-58.48486962,-34.31887715],[-58.48736449,-34.31768395],[-58.48853057,-34.31689752],[-58.48861386,-34.31683058],[-58.48885401,-34.31673194],[-58.48908463,-34.31656083],[-58.48950125,-34.31624837],[-58.48991786,-34.31598427],[-58.49037168,-34.31564577],[-58.49066554,-34.31553045],[-58.4909594,-34.31528123],[-58.49111935,-34.31513616],[-58.49128674,-34.31501713],[-58.49143553,-34.31487949],[-58.49148017,-34.31473442],[-58.49161408,-34.31461539],[-58.49175543,-34.31459679],[-58.49190422,-34.31454099],[-58.4919935,-34.3144294],[-58.49209021,-34.31431781],[-58.49219809,-34.31422853],[-58.49232084,-34.3141467],[-58.4925961,-34.31394955],[-58.49271885,-34.31385284],[-58.49282673,-34.3137896],[-58.49316895,-34.31348086],[-58.49335866,-34.31330603],[-58.49343677,-34.31321675],[-58.49363764,-34.31307912],[-58.49402822,-34.3127555],[-58.49428488,-34.31253232],[-58.4943927,-34.31239464],[-58.49476842,-34.31217251],[-58.49508035,-34.31190645],[-58.49524252,-34.31189727],[-58.49552522,-34.31169392],[-58.49576328,-34.31155505],[-58.49587736,-34.31145089],[-58.49596167,-34.31129714],[-58.49608566,-34.31121779],[-58.49615014,-34.31119795],[-58.49626917,-34.31114835],[-58.4964378,-34.31103428],[-58.49665107,-34.31083093],[-58.49693873,-34.31067222],[-58.49706768,-34.31057799],[-58.49721648,-34.31045895],[-58.49735535,-34.31034984],[-58.49744958,-34.31026057],[-58.49759837,-34.31019609],[-58.49775708,-34.31012665],[-58.49788603,-34.31001754],[-58.49806954,-34.30985387],[-58.49826793,-34.30965548],[-58.49837705,-34.30959101],[-58.49852584,-34.30950669],[-58.49860519,-34.30941246],[-58.4987887,-34.30927359],[-58.49888789,-34.30918927],[-58.49892941,-34.30910956],[-58.50077849,-34.30778053],[-58.50102008,-34.30755753],[-58.50114456,-34.30755753],[-58.50124375,-34.30749305],[-58.5013975,-34.30739882],[-58.5014471,-34.30732442],[-58.50146198,-34.30721035],[-58.50152645,-34.30709132],[-58.50152925,-34.30708752],[-58.50159589,-34.30699708],[-58.5016429,-34.30698262],[-58.50178932,-34.30693757],[-58.50190339,-34.30690285],[-58.50199267,-34.30682845],[-58.50215634,-34.30671934],[-58.50228529,-34.30661519],[-58.50238448,-34.30653087],[-58.50255807,-34.30643168],[-58.50274654,-34.30633744],[-58.50300444,-34.30611922],[-58.50314332,-34.30599522],[-58.50328219,-34.30586627],[-58.50337642,-34.30578692],[-58.50346641,-34.30569693],[-58.50354009,-34.30568276],[-58.50370872,-34.30560341],[-58.50386247,-34.30553397],[-58.50394679,-34.30541494],[-58.50402667,-34.3053074],[-58.50407574,-34.30524135],[-58.50435348,-34.30505784],[-58.50442292,-34.30504792],[-58.50475534,-34.30485401],[-58.50478002,-34.30483961],[-58.50477985,-34.30483876],[-58.50488151,-34.3047755],[-58.50530225,-34.30440576],[-58.50629748,-34.30353117],[-58.50636216,-34.30353025],[-58.50650103,-34.30353521],[-58.50664982,-34.30343106],[-58.50686805,-34.30318803],[-58.50699204,-34.30308388],[-58.50717059,-34.30292517],[-58.50729459,-34.30288053],[-58.50734073,-34.30282353],[-58.5073789,-34.30277638],[-58.50743346,-34.30267719],[-58.50752273,-34.30250856],[-58.50760705,-34.30244904],[-58.50781039,-34.30238456],[-58.50797406,-34.30227049],[-58.50814269,-34.3021713],[-58.50825962,-34.3020488],[-58.50849316,-34.30169849],[-58.50851169,-34.30167996],[-58.50867889,-34.30128286],[-58.50869979,-34.30084396],[-58.50844899,-34.30007065],[-58.50827511,-34.29990123],[-58.50803098,-34.29929735],[-58.50748758,-34.29875395],[-58.50669338,-34.29823144],[-58.50653791,-34.2981969],[-58.50553039,-34.29741426],[-58.50464516,-34.29672663],[-58.50351391,-34.29592473],[-58.50299405,-34.29555623],[-58.50236534,-34.29519182],[-58.50163246,-34.29492532],[-58.50112802,-34.29485869],[-58.500319,-34.29488725],[-58.49907216,-34.29525844],[-58.49810134,-34.29584855],[-58.49688306,-34.29674322],[-58.49581706,-34.29740947],[-58.49526503,-34.29768549],[-58.49495094,-34.29780922],[-58.49394204,-34.29818042],[-58.49283798,-34.29841837],[-58.49190523,-34.29857065],[-58.4909159,-34.2986074],[-58.48823186,-34.2986645],[-58.4834777,-34.29869306],[-58.48227845,-34.29893576],[-58.48080794,-34.29980664],[-58.47980857,-34.30052048],[-58.47823813,-34.30191961],[-58.47776699,-34.30246212],[-58.47693894,-34.30336156]]],[[[-58.33200201,-34.23168049],[-58.33235892,-34.23465481],[-58.33218046,-34.23858092],[-58.33265636,-34.24078192],[-58.33360814,-34.24197165],[-58.33402455,-34.24423214],[-58.33390557,-34.24667109],[-58.33319174,-34.24869363],[-58.33253738,-34.25035926],[-58.33295379,-34.25154899],[-58.33497633,-34.25113258],[-58.3386645,-34.24827723],[-58.34157934,-34.24583828],[-58.34265009,-34.24536239],[-58.34449418,-34.24286395],[-58.34681415,-34.23846195],[-58.34788491,-34.23643941],[-58.34901515,-34.23655838],[-58.35032386,-34.23745068],[-58.35103769,-34.2378076],[-58.3523464,-34.23697479],[-58.3523464,-34.23459533],[-58.35258434,-34.23227535],[-58.35109718,-34.2334056],[-58.35008591,-34.23370303],[-58.35085923,-34.23287022],[-58.35157307,-34.23168049],[-58.35222742,-34.23019332],[-58.35222742,-34.22936051],[-58.35121615,-34.23037178],[-58.35026437,-34.23096665],[-58.34859875,-34.23233484],[-58.34776594,-34.23316765],[-58.34770645,-34.23298919],[-58.34842029,-34.23138305],[-58.34955053,-34.23001486],[-58.35109718,-34.22858719],[-58.35151359,-34.22715951],[-58.35115667,-34.22442313],[-58.35032386,-34.22263853],[-58.34893922,-34.22050536],[-58.34502955,-34.21817704],[-58.34248469,-34.21622693],[-58.34067742,-34.21508355],[-58.33842655,-34.21300172],[-58.33699887,-34.21288274],[-58.33521428,-34.21431042],[-58.33354865,-34.21621399],[-58.33229944,-34.2183555],[-58.33134765,-34.22311443],[-58.33200201,-34.23168049]]],[[[-58.32000666,-34.17653465],[-58.31974258,-34.17662268],[-58.31882772,-34.1764161],[-58.31820194,-34.17660383],[-58.31682882,-34.17843466],[-58.31663516,-34.17949098],[-58.31711202,-34.18130901],[-58.32323369,-34.18664979],[-58.32534665,-34.188363],[-58.32631747,-34.19013332],[-58.32803069,-34.19201786],[-58.33070437,-34.19480909],[-58.33130029,-34.1946209],[-58.3335294,-34.19520559],[-58.33447108,-34.19525515],[-58.3357597,-34.19391697],[-58.33605707,-34.19267792],[-58.33665385,-34.19190364],[-58.33562592,-34.19024754],[-58.33511196,-34.18904829],[-58.33516907,-34.1867069],[-58.33574014,-34.18539343],[-58.33574014,-34.18402287],[-58.33534039,-34.18242387],[-58.33528328,-34.18099619],[-58.33591146,-34.17894034],[-58.336197,-34.17734134],[-58.3362541,-34.17591366],[-58.33562593,-34.17482863],[-58.33311321,-34.17351517],[-58.33191397,-34.17094535],[-58.33138573,-34.16987935],[-58.3310764,-34.16861824],[-58.33081466,-34.16747609],[-58.33083845,-34.16690502],[-58.3301722,-34.16552494],[-58.32924421,-34.16438279],[-58.32819725,-34.16297891],[-58.32805448,-34.16236025],[-58.32769756,-34.16131329],[-58.32684095,-34.16052807],[-58.32557984,-34.16050427],[-58.3248898,-34.16102775],[-58.32481841,-34.16155124],[-58.32567502,-34.1621461],[-58.32498498,-34.16245543],[-58.32412837,-34.16252682],[-58.3239856,-34.16278856],[-58.32450908,-34.16285994],[-58.32414741,-34.16335011],[-58.32334791,-34.16529175],[-58.32271973,-34.16746182],[-58.32203444,-34.1697461],[-58.32243419,-34.17111667],[-58.32174891,-34.17180195],[-58.32112073,-34.17231592],[-58.32049255,-34.17237302],[-58.32060677,-34.17294409],[-58.32094941,-34.17334384],[-58.32079196,-34.1746869],[-58.32000666,-34.17653465]]],[[[-58.2535819,-34.20486497],[-58.25302595,-34.20592128],[-58.25252559,-34.20708878],[-58.25202523,-34.20825629],[-58.25172872,-34.20912728],[-58.25148781,-34.21020212],[-58.25128396,-34.21120284],[-58.25089479,-34.21218502],[-58.25064879,-34.21280459],[-58.25143266,-34.21407882],[-58.25132102,-34.21515011],[-58.25202523,-34.21570606],[-58.25326686,-34.2160767],[-58.253934,-34.21587285],[-58.254447,-34.21530232],[-58.25457355,-34.21645828],[-58.25400248,-34.21702935],[-58.2543356,-34.21845703],[-58.25490668,-34.21864738],[-58.25610025,-34.21866176],[-58.25604882,-34.21917087],[-58.25500185,-34.21936122],[-58.25381212,-34.2190281],[-58.25309829,-34.2190281],[-58.25186097,-34.21898051],[-58.250814,-34.21907569],[-58.25048088,-34.22026542],[-58.25029052,-34.22097926],[-58.24971945,-34.22150274],[-58.24986222,-34.22231175],[-58.25024293,-34.22288283],[-58.25090918,-34.22421532],[-58.25152784,-34.22635684],[-58.25186097,-34.22849835],[-58.25276516,-34.22964049],[-58.25333623,-34.22992603],[-58.25500185,-34.22887907],[-58.2565723,-34.22811764],[-58.25823792,-34.2269755],[-58.26033185,-34.22511952],[-58.262283,-34.22350148],[-58.26375827,-34.22197863],[-58.26461488,-34.21936122],[-58.26480523,-34.21840944],[-58.26556666,-34.2163631],[-58.26523354,-34.21422159],[-58.26623291,-34.21312704],[-58.26732746,-34.21089034],[-58.26685157,-34.20884401],[-58.26456729,-34.20732115],[-58.26376191,-34.20680863],[-58.26247336,-34.20598865],[-58.26128363,-34.20527481],[-58.25771444,-34.20479892],[-58.25666748,-34.20479892],[-58.25661989,-34.20513205],[-58.25619158,-34.20527481],[-58.25410079,-34.20460552],[-58.2535819,-34.20486497]]],[[[-58.29108717,-34.26987084],[-58.29165824,-34.2700136],[-58.2931811,-34.26972807],[-58.29470395,-34.26844316],[-58.29579851,-34.26715825],[-58.29570333,-34.26620647],[-58.29489431,-34.26534986],[-58.29465637,-34.26416013],[-58.29446601,-34.26182826],[-58.29389494,-34.26092406],[-58.29418047,-34.25982951],[-58.29446601,-34.25892531],[-58.29460878,-34.2572121],[-58.29594127,-34.25602237],[-58.29641717,-34.25573684],[-58.29551297,-34.25454711],[-58.29475154,-34.2527863],[-58.29418047,-34.25093033],[-58.29261003,-34.2497406],[-58.29108717,-34.24721837],[-58.28994503,-34.24493408],[-58.28894566,-34.24288775],[-58.28846977,-34.24079382],[-58.28804146,-34.23893784],[-58.28689932,-34.23798606],[-58.28589995,-34.23746258],[-58.28494816,-34.2373674],[-58.28397652,-34.23731981],[-58.28233076,-34.23731981],[-58.28161692,-34.23841436],[-58.28128379,-34.24003239],[-58.28180728,-34.24193596],[-58.28228317,-34.24407748],[-58.28228317,-34.24740872],[-58.28228317,-34.2519297],[-58.28247352,-34.25511818],[-58.28285424,-34.25711692],[-58.28375843,-34.25825907],[-58.28485299,-34.25963915],[-58.28528129,-34.26135236],[-58.28580477,-34.26235174],[-58.28642343,-34.2625421],[-58.28723245,-34.26292281],[-58.28799387,-34.26439807],[-58.28894566,-34.26558781],[-58.28956432,-34.266492],[-58.29032575,-34.26672995],[-58.29084923,-34.26677754],[-58.29065887,-34.26872869],[-58.29108717,-34.26987084]]],[[[-58.28266388,-34.23555901],[-58.28447227,-34.23632043],[-58.28547165,-34.23660597],[-58.28604272,-34.23655838],[-58.28632825,-34.23627285],[-58.28708968,-34.23674874],[-58.28851736,-34.23817641],[-58.28937396,-34.24065105],[-58.29089682,-34.24493408],[-58.29241967,-34.24769426],[-58.29365699,-34.2492647],[-58.29508467,-34.25012131],[-58.29755931,-34.25073997],[-58.29908216,-34.25140622],[-58.3002243,-34.25164416],[-58.30098573,-34.25093033],[-58.30084296,-34.2488364],[-58.3007002,-34.24517203],[-58.30012912,-34.24184078],[-58.29951047,-34.240889],[-58.29603645,-34.23846195],[-58.29379976,-34.23703427],[-58.29241967,-34.23527347],[-58.29114788,-34.23344872],[-58.29072703,-34.2328449],[-58.29023057,-34.23213258],[-58.28856494,-34.2307525],[-58.28547165,-34.22870616],[-58.28442468,-34.22656464],[-58.28356808,-34.22585081],[-58.28228784,-34.22519339],[-58.28180728,-34.22494661],[-58.28095067,-34.22409001],[-58.28058632,-34.22370831],[-58.2799513,-34.22304304],[-58.27914228,-34.2223292],[-58.27855793,-34.22195734],[-58.27809532,-34.22166295],[-58.2772863,-34.22166296],[-58.27647728,-34.2219009],[-58.2763821,-34.2236617],[-58.27666764,-34.22513697],[-58.27738148,-34.22637429],[-58.27876157,-34.22837304],[-58.2808079,-34.23256089],[-58.28204522,-34.23479758],[-58.28266388,-34.23555901]]],[[[-58.47665859,-34.28534894],[-58.47365095,-34.28572965],[-58.47241363,-34.28571062],[-58.46971057,-34.28555833],[-58.46725496,-34.28542508],[-58.466208,-34.28574869],[-58.46596054,-34.28652915],[-58.46586536,-34.28683372],[-58.46628414,-34.28671951],[-58.46668389,-34.28685276],[-58.46853035,-34.28670047],[-58.46912046,-34.28673854],[-58.46950117,-34.28651012],[-58.47001514,-34.2863959],[-58.47043392,-34.2866624],[-58.47083367,-34.28696697],[-58.4718616,-34.28689083],[-58.4724517,-34.28698601],[-58.47321313,-34.28711926],[-58.47450756,-34.28738576],[-58.47570681,-34.28765226],[-58.47759134,-34.28786165],[-58.47913323,-34.28797586],[-58.48019923,-34.28786165],[-58.48027537,-34.28803297],[-58.48040862,-34.28837561],[-58.48073223,-34.28854693],[-58.48117005,-34.28841368],[-58.48200762,-34.28835658],[-58.48267387,-34.28833754],[-58.48305458,-34.28843272],[-58.4834924,-34.28839465],[-58.48381601,-34.28847079],[-58.48386043,-34.28865798],[-58.48370814,-34.2887246],[-58.48351778,-34.28877219],[-58.48296575,-34.28876267],[-58.48255648,-34.28874364],[-58.48179505,-34.28879122],[-58.48121447,-34.28887689],[-58.48059581,-34.28891496],[-58.48026268,-34.28894351],[-58.479901,-34.28901965],[-58.47979631,-34.28912435],[-58.47980583,-34.28946699],[-58.48002474,-34.28959072],[-58.4803769,-34.28959072],[-58.48072906,-34.28965735],[-58.48078616,-34.28965735],[-58.48105266,-34.28972397],[-58.48139531,-34.28969542],[-58.48155711,-34.28958121],[-58.48180457,-34.28951458],[-58.48216625,-34.28955265],[-58.4827278,-34.28964783],[-58.48295623,-34.28956217],[-58.48313707,-34.28955265],[-58.48337502,-34.28960976],[-58.48353682,-34.28953362],[-58.48351779,-34.28940037],[-58.48367959,-34.28923856],[-58.48383187,-34.28937181],[-58.48386994,-34.28956217],[-58.48376525,-34.28971446],[-58.48408886,-34.28982867],[-58.48436487,-34.28991433],[-58.484698,-34.28999047],[-58.48486932,-34.29015228],[-58.48499305,-34.29024746],[-58.48539839,-34.29012731],[-58.48558633,-34.29052664],[-58.48545308,-34.29079315],[-58.48488201,-34.29111675],[-58.48400637,-34.29117386],[-58.48334012,-34.29126904],[-58.48305458,-34.29176396],[-58.48318783,-34.29189721],[-58.48347337,-34.29199239],[-58.48387312,-34.292316],[-58.4842348,-34.29246829],[-58.48415865,-34.29279189],[-58.48421576,-34.29336296],[-58.48444419,-34.29359139],[-58.48503429,-34.29383885],[-58.48552922,-34.29399114],[-58.48570054,-34.29387693],[-58.48625258,-34.29357235],[-58.48623354,-34.29381982],[-58.48604319,-34.2939721],[-58.48596704,-34.29416246],[-58.4854922,-34.29472501],[-58.48545374,-34.29475648],[-58.4853435,-34.29485713],[-58.48507247,-34.29529756],[-58.48499083,-34.29557649],[-58.48504374,-34.29589391],[-58.48505035,-34.29607907],[-58.48506357,-34.29631713],[-58.48516938,-34.29656842],[-58.48529503,-34.29685939],[-58.48535325,-34.29702436],[-58.48556546,-34.29714373],[-58.48599103,-34.29724303],[-58.48592555,-34.29733675],[-58.48628697,-34.29739504],[-58.486816,-34.29756036],[-58.48724584,-34.29756036],[-58.48742883,-34.29756808],[-58.48834359,-34.29760666],[-58.48909746,-34.29765295],[-58.48919181,-34.29765945],[-58.48948101,-34.2976794],[-58.48987779,-34.29771908],[-58.49038699,-34.29771246],[-58.4908036,-34.29771246],[-58.49109457,-34.29768601],[-58.49137231,-34.29765956],[-58.49147151,-34.29765956],[-58.49276684,-34.29749764],[-58.49284663,-34.29747637],[-58.49436199,-34.29703284],[-58.49460224,-34.2969543],[-58.49609913,-34.29617814],[-58.49723858,-34.29534099],[-58.49745741,-34.29518021],[-58.49805749,-34.29466015],[-58.49851844,-34.29448498],[-58.49903572,-34.29429688],[-58.4999919,-34.29374825],[-58.50086971,-34.2935915],[-58.50101079,-34.2934034],[-58.50104214,-34.292651],[-58.50050918,-34.29138131],[-58.50003893,-34.29066026],[-58.4994276,-34.28967273],[-58.49833034,-34.28866952],[-58.49731146,-34.28774469],[-58.49540356,-34.2861295],[-58.49404727,-34.28529669],[-58.49240544,-34.28474942],[-58.49166781,-34.2843925],[-58.49131089,-34.28424973],[-58.48895522,-34.28367866],[-58.48724201,-34.28353589],[-58.48519567,-34.2835121],[-58.4832149,-34.2837686],[-58.48188822,-34.2839404],[-58.48062711,-34.2843925],[-58.47892384,-34.28508244],[-58.47665859,-34.28534894]]],[[[-58.33111447,-34.15181448],[-58.33288251,-34.15349737],[-58.33088604,-34.15301373],[-58.33088604,-34.15375612],[-58.32957258,-34.15512669],[-58.32843044,-34.15506958],[-58.3264888,-34.15655437],[-58.32597483,-34.15775362],[-58.32717408,-34.15872444],[-58.32812882,-34.16091825],[-58.3283876,-34.1617178],[-58.3283876,-34.16205092],[-58.32848278,-34.1625744],[-58.32898247,-34.16350239],[-58.32938698,-34.16414485],[-58.32990797,-34.16449873],[-58.33055291,-34.16526319],[-58.33115043,-34.16660828],[-58.3314478,-34.16789689],[-58.33159648,-34.16923507],[-58.33209211,-34.16987938],[-58.3328851,-34.17156449],[-58.33333116,-34.17240704],[-58.33417371,-34.17369566],[-58.3349667,-34.1738939],[-58.33585435,-34.17420045],[-58.33659675,-34.17340095],[-58.33665385,-34.1714022],[-58.33745335,-34.16580571],[-58.33813864,-34.16357854],[-58.33808153,-34.16152268],[-58.33808153,-34.15980947],[-58.33893814,-34.16015211],[-58.33870971,-34.15940972],[-58.33876591,-34.15729597],[-58.33972466,-34.15620025],[-58.34096371,-34.15436646],[-58.34210364,-34.15228485],[-58.34210364,-34.15129361],[-58.34116196,-34.15055018],[-58.3389406,-34.1500302],[-58.33802442,-34.14981573],[-58.33596857,-34.14930177],[-58.33476932,-34.14787409],[-58.33334164,-34.1462751],[-58.33270738,-34.14637268],[-58.33185686,-34.14650352],[-58.33202818,-34.14827384],[-58.3313429,-34.14981573],[-58.33077182,-34.15061523],[-58.33111447,-34.15181448]]],[[[-58.3567817,-34.11993209],[-58.35612735,-34.12070541],[-58.35559197,-34.12040798],[-58.35469967,-34.12112182],[-58.35434275,-34.12260898],[-58.35315302,-34.12457204],[-58.35220124,-34.1273679],[-58.35249867,-34.12933096],[-58.3526204,-34.13216325],[-58.35356943,-34.13281092],[-58.35398583,-34.13370322],[-58.35493762,-34.13507141],[-58.35583223,-34.13590681],[-58.3556812,-34.13721292],[-58.35582992,-34.13804573],[-58.35713862,-34.14060366],[-58.35779297,-34.14197185],[-58.35823912,-34.14286414],[-58.35895296,-34.1426262],[-58.35969654,-34.14176364],[-58.36044012,-34.14039545],[-58.36160011,-34.13762933],[-58.3629683,-34.13492269],[-58.36383085,-34.13438731],[-58.36365239,-34.13340579],[-58.36350368,-34.13227554],[-58.36400931,-34.13304887],[-58.36469341,-34.13385193],[-58.36454469,-34.13486321],[-58.36558571,-34.13605294],[-58.36662672,-34.13605294],[-58.36689441,-34.13524987],[-58.36674569,-34.13435757],[-58.36665646,-34.13337604],[-58.36555596,-34.13105607],[-58.36525853,-34.1304612],[-58.36383085,-34.12739765],[-58.36270061,-34.1260592],[-58.36100524,-34.1247505],[-58.35922065,-34.12189514],[-58.35904219,-34.11993209],[-58.35868527,-34.11892082],[-58.35779297,-34.1189803],[-58.3567817,-34.11993209]]],[[[-58.23320599,-34.25373254],[-58.2335986,-34.25405376],[-58.23416967,-34.25408946],[-58.23481213,-34.25416084],[-58.23541889,-34.253911],[-58.23663241,-34.25430361],[-58.23806009,-34.25505314],[-58.23884531,-34.25630236],[-58.23941638,-34.25690912],[-58.23991607,-34.25797987],[-58.24013022,-34.25915771],[-58.24002315,-34.26029985],[-58.24030868,-34.26215583],[-58.24059422,-34.26333366],[-58.24098683,-34.26411888],[-58.24087975,-34.26490411],[-58.24145082,-34.2658321],[-58.2419862,-34.26611763],[-58.24262866,-34.26711701],[-58.24341388,-34.26822345],[-58.24444894,-34.26850899],[-58.24612646,-34.26811638],[-58.2481966,-34.26783084],[-58.24916028,-34.26729547],[-58.24973135,-34.26697424],[-58.25008827,-34.2658321],[-58.25023104,-34.26461857],[-58.24976704,-34.26401181],[-58.24891043,-34.26358351],[-58.24826798,-34.26329797],[-58.24758983,-34.26279828],[-58.24584093,-34.26172753],[-58.24455602,-34.26029985],[-58.24434187,-34.25930048],[-58.24444894,-34.25872941],[-58.24469879,-34.25794418],[-58.24498432,-34.25733742],[-58.24541263,-34.2565522],[-58.2455197,-34.25576698],[-58.24537693,-34.25516021],[-58.24512709,-34.25423222],[-58.2446274,-34.25298301],[-58.24405633,-34.25166241],[-58.24316404,-34.25084149],[-58.24237881,-34.24966366],[-58.24170067,-34.2490212],[-58.24084406,-34.24802183],[-58.24002315,-34.24791476],[-58.23745333,-34.24866429],[-58.23556166,-34.24969935],[-58.23327738,-34.25141256],[-58.2327063,-34.25251901],[-58.23302753,-34.25309008],[-58.23349153,-34.25348269],[-58.23320599,-34.25373254]]],[[[-58.36862072,-34.21708072],[-58.36847201,-34.21752687],[-58.36799611,-34.21746738],[-58.3673715,-34.2180325],[-58.3673715,-34.2198171],[-58.36769868,-34.22076888],[-58.36841252,-34.22142323],[-58.36870995,-34.22175041],[-58.3702566,-34.22166118],[-58.3715653,-34.22118529],[-58.3722494,-34.22085811],[-58.37296324,-34.22062017],[-58.37436117,-34.2211258],[-58.37471809,-34.22154221],[-58.37552116,-34.22204784],[-58.37614577,-34.22204784],[-58.37697858,-34.22225605],[-58.3755509,-34.22323757],[-58.37448014,-34.22427859],[-58.37462886,-34.22517089],[-58.37516424,-34.2255278],[-58.37599705,-34.2255278],[-58.37697858,-34.22543857],[-58.37724627,-34.22487345],[-58.37781139,-34.22460576],[-58.37888215,-34.22460576],[-58.37914984,-34.22445705],[-58.3797447,-34.2229104],[-58.38007188,-34.22246425],[-58.3810534,-34.22154221],[-58.38191596,-34.22085811],[-58.38257031,-34.2198171],[-58.38274877,-34.219133],[-58.38260005,-34.21812173],[-58.38260005,-34.21675354],[-58.38265954,-34.21615868],[-58.38298672,-34.21413613],[-58.38319492,-34.21345204],[-58.38355184,-34.21267871],[-58.38355184,-34.21223257],[-58.38328415,-34.21205411],[-58.37656994,-34.2141092],[-58.37501552,-34.21458228],[-58.37296324,-34.21517715],[-58.36992943,-34.21624791],[-58.36873969,-34.21678328],[-58.36862072,-34.21708072]]],[[[-58.31671397,-34.24744441],[-58.31540526,-34.24958593],[-58.31534578,-34.25184642],[-58.31516732,-34.2536905],[-58.31552424,-34.25553458],[-58.31713037,-34.2554751],[-58.31837959,-34.25428536],[-58.31885548,-34.25250077],[-58.32022367,-34.25137053],[-58.32105649,-34.24958593],[-58.32153238,-34.24899106],[-58.32307903,-34.24899106],[-58.32343595,-34.24982388],[-58.32444722,-34.2497049],[-58.32579244,-34.24960979],[-58.32646496,-34.24946034],[-58.32743638,-34.24946034],[-58.32922977,-34.24856364],[-58.33170457,-34.24679006],[-58.33265636,-34.24607623],[-58.33295379,-34.24500547],[-58.33212098,-34.24256652],[-58.33110971,-34.24096038],[-58.33075279,-34.24018706],[-58.32968203,-34.24107936],[-58.32745959,-34.24205348],[-58.32631551,-34.2423615],[-58.32069957,-34.24488649],[-58.31867702,-34.24589777],[-58.31671397,-34.24744441]]],[[[-58.35290798,-34.07663015],[-58.35255106,-34.0773083],[-58.35208707,-34.07712984],[-58.35140892,-34.07698707],[-58.35055231,-34.07663015],[-58.34969571,-34.07663015],[-58.34919602,-34.07741538],[-58.34908895,-34.07802214],[-58.34912464,-34.07902151],[-58.34919602,-34.08030642],[-58.34923171,-34.08098457],[-58.34933879,-34.08169841],[-58.34958863,-34.0830547],[-58.3493031,-34.08430392],[-58.34916033,-34.08533898],[-58.34862495,-34.08623128],[-58.34816096,-34.08719496],[-58.34766127,-34.08823003],[-58.34773265,-34.08851556],[-58.34791111,-34.0887654],[-58.34787542,-34.08980047],[-58.34730435,-34.09108538],[-58.34758989,-34.09169214],[-58.34723297,-34.09265582],[-58.34755419,-34.0927629],[-58.34734004,-34.09297705],[-58.34705451,-34.09304843],[-58.34687605,-34.09386935],[-58.3470902,-34.09429765],[-58.34698312,-34.0949758],[-58.34637636,-34.09547548],[-58.34637636,-34.09597517],[-58.34691174,-34.09726008],[-58.34701881,-34.09843791],[-58.34776834,-34.09972282],[-58.34844649,-34.10075789],[-58.3488391,-34.10057943],[-58.34912464,-34.10022251],[-58.35023109,-34.09986559],[-58.35065939,-34.09947298],[-58.35108769,-34.09875914],[-58.35162307,-34.0980453],[-58.35215845,-34.09679609],[-58.35247968,-34.09547548],[-58.35301506,-34.0914423],[-58.3532649,-34.0865882],[-58.35358613,-34.08587436],[-58.35372889,-34.083947],[-58.35358613,-34.08262639],[-58.35333628,-34.08023504],[-58.35337198,-34.07866459],[-58.35340767,-34.07873598],[-58.35347905,-34.07755814],[-58.35362182,-34.07698707],[-58.35351474,-34.07680861],[-58.35290798,-34.07663015]]],[[[-58.46692194,-34.2969147],[-58.46723603,-34.29727638],[-58.46776734,-34.29724245],[-58.46795911,-34.29728874],[-58.46819718,-34.29734826],[-58.46858073,-34.29744745],[-58.4687196,-34.29744745],[-58.46889815,-34.29755326],[-58.4690238,-34.29763262],[-58.46924864,-34.29775165],[-58.4693421,-34.29776384],[-58.46931092,-34.29794263],[-58.46899683,-34.29806636],[-58.46894924,-34.29819961],[-58.46891117,-34.29838045],[-58.46922526,-34.29863743],[-58.46943465,-34.29876117],[-58.46964404,-34.29894201],[-58.46945368,-34.29912284],[-58.46936802,-34.29946549],[-58.46931092,-34.2996844],[-58.46929188,-34.29990331],[-58.46906345,-34.30017933],[-58.46894924,-34.30035065],[-58.46869226,-34.30041727],[-58.46848286,-34.30056956],[-58.46847335,-34.30068377],[-58.46862563,-34.30076943],[-58.46889213,-34.30086461],[-58.46889213,-34.30103593],[-58.46875888,-34.30124532],[-58.4686066,-34.3015499],[-58.46855901,-34.30174977],[-58.46836381,-34.30205425],[-58.46797842,-34.30214952],[-58.46767385,-34.30207338],[-58.46752156,-34.30228277],[-58.46710278,-34.3025683],[-58.46655074,-34.30313937],[-58.4667411,-34.30323455],[-58.46636038,-34.30365334],[-58.46617003,-34.30409116],[-58.46615099,-34.30430055],[-58.46637942,-34.30435766],[-58.46691242,-34.30414827],[-58.4673312,-34.30437669],[-58.46773095,-34.3044338],[-58.46872081,-34.3044338],[-58.46912056,-34.30462416],[-58.46938706,-34.30490969],[-58.46872081,-34.3049668],[-58.46765481,-34.30485259],[-58.46752156,-34.30532848],[-58.46868274,-34.3054998],[-58.4702627,-34.30569016],[-58.47094798,-34.30563305],[-58.4713287,-34.30502391],[-58.47140484,-34.30475741],[-58.47172845,-34.30475741],[-58.47193784,-34.30502391],[-58.47250891,-34.30517619],[-58.47262313,-34.30534751],[-58.47294673,-34.30530944],[-58.47334648,-34.30508101],[-58.47414598,-34.3044338],[-58.4751168,-34.30384369],[-58.47582112,-34.3033107],[-58.47639219,-34.30300612],[-58.47707748,-34.30235891],[-58.47781987,-34.30119773],[-58.47827672,-34.30047438],[-58.48147472,-34.29832335],[-58.48179833,-34.29807588],[-58.48172218,-34.29780938],[-58.48096076,-34.29714313],[-58.48018029,-34.29657206],[-58.47974247,-34.29630556],[-58.47920947,-34.29600099],[-58.47844908,-34.29578934],[-58.47736301,-34.29548703],[-58.47403177,-34.29482078],[-58.47224241,-34.29457331],[-58.4707957,-34.29430682],[-58.46992958,-34.29418308],[-58.46889213,-34.29416405],[-58.46888261,-34.29463042],[-58.46889213,-34.29496355],[-58.46841624,-34.29547751],[-58.46793083,-34.2956869],[-58.46719795,-34.29601051],[-58.46692194,-34.2969147]]],[[[-58.34344009,-34.26616679],[-58.34220277,-34.26768965],[-58.34106063,-34.26783241],[-58.34106063,-34.26926009],[-58.34129858,-34.27016429],[-58.34177447,-34.27044982],[-58.34220277,-34.27159196],[-58.34282143,-34.27168714],[-58.34291661,-34.27244857],[-58.34329732,-34.27287687],[-58.34344009,-34.27392383],[-58.34420152,-34.27459008],[-58.34462982,-34.27516115],[-58.34496295,-34.27592258],[-58.34643821,-34.27635088],[-58.3478183,-34.27639847],[-58.34843696,-34.27563705],[-58.34881767,-34.27482803],[-58.34905562,-34.27392383],[-58.34953151,-34.27306723],[-58.34972187,-34.27140161],[-58.34919839,-34.26940286],[-58.34929356,-34.26883179],[-58.34962669,-34.2683559],[-58.34929356,-34.26773724],[-58.34872249,-34.2670234],[-58.34796107,-34.2670234],[-58.34686651,-34.26721375],[-58.34591473,-34.26716617],[-58.34620026,-34.26669027],[-58.34686651,-34.26649992],[-58.3482466,-34.26626197],[-58.34853214,-34.26583367],[-58.34896044,-34.26521501],[-58.34943633,-34.2639301],[-58.34953151,-34.26255001],[-58.34919839,-34.26107474],[-58.3495791,-34.25902841],[-58.35015017,-34.25698207],[-58.35033726,-34.25562564],[-58.35019776,-34.25460261],[-58.34991222,-34.25431708],[-58.34934115,-34.25431708],[-58.34848455,-34.25445984],[-58.34796107,-34.2550785],[-58.34792733,-34.2551502],[-58.34758035,-34.25588752],[-58.34734241,-34.25702966],[-58.34662857,-34.25931394],[-58.34600991,-34.26093198],[-58.34496295,-34.26240724],[-58.34453464,-34.26326385],[-58.34391598,-34.26388251],[-58.34439187,-34.26416804],[-58.3442967,-34.26511983],[-58.34344009,-34.26616679]]],[[[-58.33965897,-34.14891781],[-58.34114583,-34.14901694],[-58.34149277,-34.14857088],[-58.34114583,-34.14767876],[-58.34010503,-34.14678665],[-58.33926247,-34.1451511],[-58.33901466,-34.14391205],[-58.33901466,-34.14252431],[-58.33901466,-34.14118613],[-58.33904223,-34.14038678],[-58.33894353,-34.13955774],[-58.33846948,-34.13880716],[-58.33825642,-34.13820347],[-58.33770212,-34.1380116],[-58.33718087,-34.13806372],[-58.33663569,-34.13905497],[-58.33658612,-34.14034358],[-58.33579313,-34.14168175],[-58.33500014,-34.14341643],[-58.33499259,-34.14354103],[-58.33490101,-34.14505197],[-58.33549576,-34.14688577],[-58.33663569,-34.14792657],[-58.33812255,-34.14852132],[-58.33965897,-34.14891781]]],[[[-58.33244221,-34.13532958],[-58.33296569,-34.13556752],[-58.33472649,-34.1352344],[-58.33610658,-34.13518681],[-58.33715354,-34.13456815],[-58.33810532,-34.13385431],[-58.33877157,-34.13328324],[-58.33891434,-34.1329977],[-58.33829568,-34.13271217],[-58.33815291,-34.13233145],[-58.33834327,-34.13190315],[-58.33848604,-34.13109414],[-58.3382005,-34.13042789],[-58.3373439,-34.12980923],[-58.33658247,-34.12957128],[-58.33582104,-34.12957128],[-58.335519,-34.12987333],[-58.33529756,-34.13009476],[-58.33463131,-34.13104655],[-58.33448854,-34.1321411],[-58.33429819,-34.13290253],[-58.33277533,-34.13366395],[-58.33225185,-34.13456815],[-58.33244221,-34.13532958]]],[[[-58.37523179,-34.24494728],[-58.37573147,-34.24535178],[-58.37611219,-34.24532799],[-58.37689741,-34.24520902],[-58.37723053,-34.24489969],[-58.37742089,-34.24447138],[-58.37751607,-34.24378134],[-58.37784919,-34.24280576],[-58.37806334,-34.24159224],[-58.37851544,-34.24083081],[-58.37866292,-34.24010983],[-58.37872959,-34.23978385],[-58.37889616,-34.23935554],[-58.37906272,-34.23854653],[-58.37906272,-34.23757095],[-58.37875339,-34.23740439],[-58.37837268,-34.23747577],[-58.37742089,-34.23811822],[-58.37656428,-34.23878447],[-58.37587424,-34.23966487],[-58.37568388,-34.24073563],[-58.37570768,-34.24118773],[-58.37554112,-34.24140188],[-58.37501763,-34.24147326],[-58.37485107,-34.24178259],[-58.37437518,-34.24290094],[-58.37439897,-34.24366237],[-58.37482728,-34.24447138],[-58.37523179,-34.24494728]]],[[[-58.47293022,-34.28442035],[-58.47392008,-34.28442035],[-58.47480523,-34.28427758],[-58.47533282,-34.2840679],[-58.47732746,-34.28367796],[-58.47896453,-34.28314496],[-58.48052546,-34.28245967],[-58.48077292,-34.282098],[-58.48043028,-34.28186957],[-58.47966885,-34.28152693],[-58.47896453,-34.28146982],[-58.47784143,-34.28164114],[-58.47530968,-34.28205993],[-58.4743579,-34.28274521],[-58.47277793,-34.28314496],[-58.47230204,-34.28341146],[-58.47194036,-34.28367796],[-58.47180711,-34.28394446],[-58.47192133,-34.28415385],[-58.47293022,-34.28442035]]],[[[-58.46635087,-34.29491596],[-58.46615099,-34.29503969],[-58.4658903,-34.29495627],[-58.4656751,-34.2948874],[-58.46481849,-34.29523956],[-58.46454368,-34.29528329],[-58.46439971,-34.29530619],[-58.46374298,-34.29543944],[-58.46366969,-34.29546199],[-58.46300058,-34.29566787],[-58.46257228,-34.2958963],[-58.46208687,-34.29635315],[-58.4617823,-34.29665772],[-58.46139207,-34.29681953],[-58.46136352,-34.29697181],[-58.46152532,-34.29721928],[-58.46177278,-34.29725735],[-58.461887,-34.29719072],[-58.46210591,-34.29721928],[-58.46233434,-34.29723831],[-58.46249289,-34.29731067],[-58.46324129,-34.29745293],[-58.4633813,-34.29754288],[-58.46357166,-34.29747626],[-58.46403803,-34.29743819],[-58.46440923,-34.29732397],[-58.46482801,-34.29732397],[-58.46556088,-34.29708603],[-58.46571317,-34.29688615],[-58.46600822,-34.29631508],[-58.46618906,-34.29597244],[-58.46632231,-34.29560124],[-58.46641749,-34.29513487],[-58.46658881,-34.29486837],[-58.46635087,-34.29491596]]],[[[-58.38093365,-34.23890932],[-58.38096934,-34.23905209],[-58.38121919,-34.2389926],[-58.38137385,-34.23880224],[-58.38170698,-34.2381122],[-58.38199251,-34.23748164],[-58.3820639,-34.23719611],[-58.38190923,-34.23694626],[-58.38154041,-34.23683919],[-58.3811716,-34.23685108],[-58.38048369,-34.23711925],[-58.38046966,-34.23712472],[-58.3802912,-34.23750544],[-58.38021981,-34.23795753],[-58.38035068,-34.23824307],[-58.38058863,-34.23850481],[-58.38093365,-34.23888552],[-58.38093365,-34.23890932]]],[[[-58.4637659,-34.28592457],[-58.46367211,-34.28598935],[-58.46356201,-34.28598935],[-58.4633114,-34.28592041],[-58.46299018,-34.28591446],[-58.4626392,-34.28608102],[-58.46242505,-34.28621784],[-58.46240721,-34.28633086],[-58.4622228,-34.28646173],[-58.46216331,-34.28658071],[-58.46218711,-34.28669968],[-58.46228823,-34.28678891],[-58.4624429,-34.28688409],[-58.46260946,-34.28685434],[-58.46279982,-34.28680081],[-58.46319838,-34.28681865],[-58.46375755,-34.28677106],[-58.46391222,-34.28676511],[-58.46409442,-34.28660479],[-58.46424534,-34.28659855],[-58.46457847,-34.28633681],[-58.46480451,-34.28621189],[-58.46486995,-34.28604533],[-58.46476786,-34.28590589],[-58.46462605,-34.2857122],[-58.46437621,-34.28581333],[-58.46384083,-34.28587282],[-58.4637659,-34.28592457]]]]}}