{"type":"Feature","properties":{"slug":"san-isidro","name":"San Isidro","region":"norte","sort":2,"particion":{"base":"San Isidro","areaBaseM2":52389005.78844475}},"geometry":{"type":"MultiPolygon","coordinates":[[[[-58.600303,-34.490354],[-58.60014817,-34.49045451],[-58.59999334,-34.49055503],[-58.59986632,-34.49063749],[-58.599864,-34.490639],[-58.59874109,-34.49156178],[-58.59826138,-34.491956],[-58.59794866,-34.49221298],[-58.59753811,-34.49255036],[-58.59634699,-34.4935292],[-58.595614,-34.494398],[-58.595241,-34.494839],[-58.594472,-34.495413],[-58.59320377,-34.49646219],[-58.592515,-34.497032],[-58.58969472,-34.49931234],[-58.589428,-34.499528],[-58.58825522,-34.50055487],[-58.58804365,-34.5007401],[-58.58665184,-34.50195875],[-58.58615984,-34.50238953],[-58.58608962,-34.50245102],[-58.585112,-34.503307],[-58.58501977,-34.50333849],[-58.584948,-34.503363],[-58.581274,-34.506497],[-58.580828,-34.506937],[-58.58034794,-34.50735294],[-58.568759,-34.517394],[-58.568672,-34.517395],[-58.56776684,-34.51817144],[-58.561963,-34.52315],[-58.56018342,-34.52470495],[-58.55704486,-34.52744734],[-58.55618648,-34.52819738],[-58.555641,-34.528674],[-58.553764,-34.530205],[-58.55375961,-34.53020121],[-58.55211333,-34.5287816],[-58.55193973,-34.52863191],[-58.55193966,-34.52863185],[-58.5519396,-34.52863179],[-58.546857,-34.524249],[-58.5466626,-34.52410666],[-58.54589,-34.523541],[-58.54585,-34.52343],[-58.54524614,-34.5229112],[-58.54280002,-34.52080961],[-58.540653,-34.518965],[-58.53869,-34.517247],[-58.538531,-34.517365],[-58.537116,-34.518527],[-58.534317,-34.516498],[-58.533063,-34.515605],[-58.532151,-34.515002],[-58.53212457,-34.51498672],[-58.53056,-34.514082],[-58.53123,-34.513086],[-58.526278,-34.510762],[-58.53068023026316,-34.512827990131576],[-58.55,-34.512],[-58.545,-34.487],[-58.4922878276884,-34.47009232208873],[-58.49228398,-34.47006924],[-58.49227446,-34.46998358],[-58.4922697,-34.46990268],[-58.49228398,-34.4698075],[-58.49231729,-34.4697266],[-58.49230302,-34.46967901],[-58.49234109,-34.4696457],[-58.4923982,-34.46958859],[-58.49246482,-34.46956956],[-58.49250289,-34.46954576],[-58.49249813,-34.46950769],[-58.49244579,-34.46944106],[-58.49241723,-34.46938396],[-58.4923982,-34.4692983],[-58.49236964,-34.46925071],[-58.4922935,-34.46920312],[-58.49223163,-34.46912698],[-58.4922126,-34.46904607],[-58.49220784,-34.4689271],[-58.49223163,-34.46892234],[-58.49228874,-34.46887475],[-58.49232205,-34.46880337],[-58.49232205,-34.46875102],[-58.49233157,-34.46864632],[-58.49236012,-34.4685797],[-58.49242199,-34.46848452],[-58.49249813,-34.46840838],[-58.49252193,-34.46835127],[-58.49248862,-34.46830368],[-58.49240296,-34.46828465],[-58.49235061,-34.46820374],[-58.49234109,-34.46814664],[-58.49239344,-34.46807049],[-58.4924791,-34.46803242],[-58.49255524,-34.46801339],[-58.49262187,-34.46795628],[-58.49268373,-34.46788966],[-58.49273608,-34.46784207],[-58.4927456,-34.46777544],[-58.49269801,-34.46774689],[-58.49260283,-34.46774689],[-58.49258855,-34.46768978],[-58.49263614,-34.46762316],[-58.49268373,-34.46755653],[-58.49282174,-34.46753274],[-58.49287409,-34.46750418],[-58.4929883,-34.46746611],[-58.49300734,-34.46741852],[-58.49295023,-34.46738521],[-58.49289788,-34.46737569],[-58.4928265,-34.46733762],[-58.49278843,-34.46729479],[-58.49274964,-34.46722293],[-58.49274012,-34.467192],[-58.49272823,-34.46715155],[-58.49271395,-34.4670992],[-58.49270919,-34.46703733],[-58.49272109,-34.46698499],[-58.49272585,-34.46693026],[-58.49272132,-34.46691441],[-58.49271157,-34.46688029],[-58.49268778,-34.46683032],[-58.49269254,-34.46679463],[-58.49271157,-34.4667637],[-58.49275916,-34.46672086],[-58.49281389,-34.46669231],[-58.49285434,-34.466659],[-58.49289717,-34.4666352],[-58.49295904,-34.46659713],[-58.49301376,-34.4665662],[-58.49306611,-34.46658286],[-58.49309704,-34.46662093],[-58.49313512,-34.46662093],[-58.49313512,-34.46659951],[-58.4931137,-34.46652099],[-58.49309228,-34.46644961],[-58.49307447,-34.46642734],[-58.49303518,-34.46637822],[-58.49297093,-34.46632111],[-58.49297807,-34.46625687],[-58.49302804,-34.46614266],[-58.49309228,-34.46609982],[-58.49317081,-34.46603558],[-58.49329216,-34.46601417],[-58.49331357,-34.46590709],[-58.49331634,-34.46590195],[-58.49336354,-34.46581429],[-58.49344207,-34.46574291],[-58.49347776,-34.46567866],[-58.4933921,-34.46564297],[-58.49334213,-34.46556445],[-58.49334927,-34.46547879],[-58.4933921,-34.46537885],[-58.49345634,-34.46532174],[-58.49364194,-34.46528605],[-58.49378471,-34.46518611],[-58.49384182,-34.46514328],[-58.49384895,-34.4650719],[-58.49386323,-34.46498624],[-58.49387751,-34.46484347],[-58.49388465,-34.46475781],[-58.49388465,-34.46465073],[-58.4939132,-34.4645508],[-58.49392748,-34.46446514],[-58.49395603,-34.46435806],[-58.49397744,-34.46428668],[-58.49397744,-34.46416532],[-58.49395603,-34.46407252],[-58.49396317,-34.46400114],[-58.49403455,-34.46390834],[-58.49411307,-34.46387979],[-58.49423443,-34.46382268],[-58.49432723,-34.46376557],[-58.49437006,-34.4637513],[-58.49449855,-34.46371561],[-58.49458421,-34.46368705],[-58.49469842,-34.46367278],[-58.49482691,-34.46360139],[-58.49493399,-34.46348718],[-58.49509103,-34.4634729],[-58.49522666,-34.46346576],[-58.49530518,-34.46346576],[-58.49533374,-34.46343007],[-58.49549792,-34.46333727],[-58.49562641,-34.46333727],[-58.4956435,-34.46334215],[-58.49572635,-34.46336582],[-58.49581915,-34.46339438],[-58.49586912,-34.46336582],[-58.4959405,-34.46328016],[-58.49611182,-34.46326589],[-58.49622604,-34.46324447],[-58.49624897,-34.46321899],[-58.49629028,-34.46317309],[-58.49624745,-34.46309457],[-58.49619748,-34.46300891],[-58.49617607,-34.46291611],[-58.49621176,-34.46287328],[-58.49629028,-34.46280903],[-58.4963688,-34.46275906],[-58.49647588,-34.46266626],[-58.49659009,-34.46260916],[-58.49674714,-34.4625235],[-58.49691846,-34.46245211],[-58.49711833,-34.46242356],[-58.49728965,-34.46238073],[-58.49733248,-34.46236645],[-58.49750381,-34.46220941],[-58.4976323,-34.4621523],[-58.49780362,-34.46213802],[-58.49786072,-34.46208092],[-58.49798922,-34.46203809],[-58.49814626,-34.46199526],[-58.4982462,-34.46195243],[-58.49838897,-34.46192387],[-58.49856029,-34.46185249],[-58.49858115,-34.46183858],[-58.49864595,-34.46179538],[-58.49881727,-34.4617811],[-58.49890293,-34.46169544],[-58.49896004,-34.46162406],[-58.49908853,-34.4615384],[-58.49923129,-34.46149557],[-58.49934551,-34.46148129],[-58.49948828,-34.46150985],[-58.49958821,-34.46155268],[-58.49973098,-34.46152412],[-58.4999023,-34.46139563],[-58.50003079,-34.46130997],[-58.50015928,-34.46119576],[-58.50023067,-34.46108154],[-58.50023067,-34.46095305],[-58.50017356,-34.46083884],[-58.50020211,-34.4607389],[-58.50023067,-34.46068179],[-58.50034488,-34.46058186],[-58.5004591,-34.46053903],[-58.50057331,-34.46059613],[-58.50068752,-34.46059613],[-58.50075891,-34.46058186],[-58.50077319,-34.46048192],[-58.5007018,-34.46039626],[-58.50067325,-34.46029632],[-58.5007018,-34.46008217],[-58.5007018,-34.46006789],[-58.50080174,-34.45992512],[-58.50094451,-34.45985374],[-58.50103017,-34.45983946],[-58.50103017,-34.4597538],[-58.50100161,-34.45968242],[-58.50096235,-34.45965437],[-58.50090167,-34.45961104],[-58.50090167,-34.45952537],[-58.50094451,-34.45943971],[-58.50100161,-34.45936833],[-58.50108727,-34.45936833],[-58.50114438,-34.45929695],[-58.50117293,-34.45916845],[-58.50123004,-34.45906852],[-58.50130143,-34.45906852],[-58.50135853,-34.45901141],[-58.50138709,-34.45894003],[-58.5015013,-34.4588972],[-58.50158696,-34.45888292],[-58.50171426,-34.45890838],[-58.50172973,-34.45891147],[-58.50178684,-34.45888292],[-58.50177751,-34.45884562],[-58.50177256,-34.45882581],[-58.50175828,-34.4587116],[-58.50177256,-34.45858311],[-58.50180111,-34.45849745],[-58.50202954,-34.45842606],[-58.50207237,-34.45838323],[-58.50202954,-34.45829757],[-58.50205809,-34.45818336],[-58.50217231,-34.45802631],[-58.5023008,-34.45785499],[-58.50238646,-34.45775506],[-58.50238646,-34.45758373],[-58.50244357,-34.45741241],[-58.50261489,-34.45734103],[-58.50264344,-34.45718398],[-58.50271483,-34.45705549],[-58.5027291,-34.45689845],[-58.50277193,-34.45678424],[-58.50282904,-34.45665574],[-58.50290042,-34.45651298],[-58.50298608,-34.45635593],[-58.50314313,-34.456256],[-58.50321469,-34.45620232],[-58.50325734,-34.45617033],[-58.50335728,-34.45602757],[-58.50344294,-34.4558848],[-58.50344294,-34.45574203],[-58.50342866,-34.45564209],[-58.50347149,-34.45558499],[-58.50358571,-34.45548505],[-58.50367137,-34.45535656],[-58.50372848,-34.45525662],[-58.50378558,-34.45512813],[-58.50394263,-34.45504247],[-58.50401401,-34.45495681],[-58.50405684,-34.45487115],[-58.50404256,-34.45478549],[-58.50407112,-34.4547141],[-58.50419961,-34.45454278],[-58.50428527,-34.45441429],[-58.50437093,-34.45432863],[-58.50445659,-34.45431436],[-58.50455653,-34.45422869],[-58.5045708,-34.45411448],[-58.5045708,-34.45395744],[-58.50462791,-34.45382895],[-58.50478496,-34.45371473],[-58.50488489,-34.45364335],[-58.50497055,-34.45350058],[-58.50497055,-34.45340064],[-58.50492772,-34.45331498],[-58.504942,-34.45322932],[-58.50498483,-34.45315794],[-58.50508477,-34.45304372],[-58.50515615,-34.45292951],[-58.50522754,-34.45278674],[-58.5052841,-34.45268492],[-58.50529892,-34.45265825],[-58.50543519,-34.452631],[-58.50551307,-34.45261542],[-58.5055375,-34.45259448],[-58.50561301,-34.45252976],[-58.50567012,-34.45237272],[-58.5057415,-34.45213001],[-58.50572722,-34.45191586],[-58.50477068,-34.4502312],[-58.50464219,-34.44995994],[-58.50465647,-34.44988856],[-58.50477068,-34.44986],[-58.50491345,-34.44988856],[-58.50571295,-34.44914617],[-58.50591282,-34.44901767],[-58.50621263,-34.4488178],[-58.50634112,-34.44877497],[-58.50648389,-34.44870359],[-58.50691219,-34.44848943],[-58.50724056,-34.44836094],[-58.50756893,-34.44821818],[-58.50785446,-34.44810396],[-58.50811144,-34.44800402],[-58.50843981,-34.44791836],[-58.50898233,-34.44784698],[-58.50948201,-34.44776132],[-58.50993887,-34.44767566],[-58.51031006,-34.44766138],[-58.51058132,-34.44759],[-58.51073737,-34.44757164],[-58.51106673,-34.44753289],[-58.51152359,-34.44744723],[-58.51206611,-34.44734729],[-58.51245158,-34.44727591],[-58.51282278,-34.44723308],[-58.51307976,-34.4472188],[-58.51349378,-34.44711887],[-58.51396968,-34.44699989],[-58.51444557,-34.4469523],[-58.51482628,-34.4469761],[-58.51504043,-34.44699989],[-58.5144043,-34.44592285],[-58.51422032,-34.44415388],[-58.51415501,-34.44352587],[-58.514412,-34.443476],[-58.51520887,-34.44340554],[-58.516165,-34.443321],[-58.5164302,-34.44382653],[-58.51667391,-34.4442911],[-58.5171808,-34.44525734],[-58.51807953,-34.4466355],[-58.51832932,-34.44701853],[-58.51913396,-34.44807306],[-58.519475,-34.44852],[-58.520069,-34.448776],[-58.520613,-34.449059],[-58.520792,-34.449037],[-58.523442,-34.450381],[-58.524091,-34.450685],[-58.52504795,-34.45114647],[-58.52592,-34.451567],[-58.527483,-34.452337],[-58.527633,-34.452382],[-58.528513,-34.452883],[-58.52947826,-34.4534507],[-58.529676,-34.453567],[-58.533133,-34.455369],[-58.534546,-34.456103],[-58.534854,-34.456266],[-58.536236,-34.456992],[-58.536396,-34.457065],[-58.53842184,-34.4580391],[-58.540023,-34.458809],[-58.545705,-34.461544],[-58.54697,-34.462231],[-58.54803,-34.462552],[-58.550883,-34.463897],[-58.55117895,-34.46403947],[-58.55490255,-34.46583207],[-58.55663613,-34.46666665],[-58.560999,-34.468767],[-58.56103096,-34.46878221],[-58.56359166,-34.4700012],[-58.565005,-34.470674],[-58.565151,-34.470743],[-58.56588319,-34.47110876],[-58.56624697,-34.47134212],[-58.56680725,-34.47170152],[-58.566967,-34.471804],[-58.56835676,-34.47237756],[-58.5690983,-34.47268359],[-58.57143,-34.473738],[-58.57498362,-34.47542382],[-58.574984,-34.475424],[-58.57490291,-34.47552213],[-58.57486285,-34.4755706],[-58.574846,-34.475591],[-58.577922,-34.476027],[-58.57876,-34.477592],[-58.57886459,-34.47748675],[-58.578917,-34.477434],[-58.57892054,-34.47743566],[-58.581909,-34.478837],[-58.582787,-34.479259],[-58.584716,-34.480069],[-58.58614,-34.48238],[-58.58828644,-34.48344195],[-58.588616,-34.483605],[-58.58977122,-34.48418055],[-58.59119196,-34.48488839],[-58.59334343,-34.48596029],[-58.594226,-34.4864],[-58.59496356,-34.48684521],[-58.59543198,-34.48712797],[-58.596204,-34.487663],[-58.59703873,-34.488211],[-58.59847978,-34.48915705],[-58.59860188,-34.48923721],[-58.60010909,-34.4902267],[-58.600303,-34.490354]]],[[[-58.49164697039176,-34.471323861030896],[-58.48600238450837,-34.49249105809363],[-58.48650977,-34.49272602],[-58.484387,-34.491743],[-58.481375,-34.490519],[-58.481115,-34.490438],[-58.48104542,-34.49041054],[-58.47939957,-34.48976107],[-58.47940539,-34.48975452],[-58.47944822,-34.48970218],[-58.47948629,-34.48963555],[-58.47949105,-34.4895832],[-58.47953864,-34.48951182],[-58.47958147,-34.48944519],[-58.47965285,-34.4893976],[-58.47970996,-34.48938333],[-58.47979086,-34.48939285],[-58.4798908,-34.48936905],[-58.47996026,-34.48935011],[-58.47999549,-34.4893405],[-58.48004308,-34.48928339],[-58.48002907,-34.48922735],[-58.48002881,-34.48922628],[-58.48007164,-34.48918345],[-58.48015254,-34.48914538],[-58.48021916,-34.48911683],[-58.48025248,-34.48906448],[-58.48027627,-34.48899785],[-58.48029055,-34.48887412],[-58.48029055,-34.48875039],[-58.48028519,-34.4887028],[-58.48029709,-34.48865224],[-58.48031494,-34.48862844],[-58.48032397,-34.48861138],[-58.48034171,-34.48857788],[-58.4803536,-34.48853326],[-58.48033873,-34.48849757],[-58.48030899,-34.48845593],[-58.48025842,-34.48847675],[-58.48023166,-34.4884946],[-58.48018704,-34.48851542],[-58.48012458,-34.48850947],[-58.48007996,-34.48851542],[-58.48004427,-34.48852434],[-58.4800175,-34.48850352],[-58.47997289,-34.48847675],[-58.47993422,-34.48844998],[-58.4799372,-34.48840834],[-58.47995504,-34.48838157],[-58.47997884,-34.48835481],[-58.48000858,-34.48831614],[-58.48002345,-34.48827747],[-58.48003535,-34.48825368],[-58.48008294,-34.4882507],[-58.48018109,-34.48825368],[-58.48022571,-34.48822988],[-58.4802376,-34.48819717],[-58.48022273,-34.48817337],[-58.48014837,-34.48816147],[-58.48010376,-34.48812876],[-58.48009484,-34.48809901],[-58.48010078,-34.48807522],[-58.4801335,-34.4880663],[-58.48015135,-34.48804845],[-58.48015432,-34.48802168],[-58.48016027,-34.48798301],[-58.48017217,-34.48796814],[-58.48016919,-34.4879503],[-58.48019299,-34.4879265],[-58.4802376,-34.48791461],[-58.48027627,-34.48789676],[-58.48030899,-34.48786701],[-58.48032088,-34.4878462],[-58.48028519,-34.48781943],[-58.48021381,-34.48783132],[-58.48017812,-34.48781645],[-58.48016027,-34.48779266],[-58.48014837,-34.48774209],[-58.48018704,-34.48771533],[-58.48022571,-34.48767963],[-58.4802614,-34.48763799],[-58.48021678,-34.48760825],[-58.48016919,-34.48757553],[-58.48017217,-34.48753984],[-58.48016027,-34.48748928],[-58.48016027,-34.48746548],[-58.48017217,-34.48745656],[-58.48023463,-34.48743574],[-58.48027032,-34.48740005],[-58.48029744,-34.48738016],[-58.48031494,-34.48736733],[-58.48038929,-34.48734056],[-58.48040119,-34.48730487],[-58.48039822,-34.48727215],[-58.48039822,-34.48723943],[-58.48039524,-34.48718887],[-58.48040119,-34.48710559],[-58.48038632,-34.48703718],[-58.48036847,-34.48698067],[-58.48034171,-34.48697769],[-58.48028222,-34.48697174],[-58.4802733,-34.486942],[-58.4802733,-34.48688549],[-58.48026735,-34.48685277],[-58.4802495,-34.48678436],[-58.48021381,-34.48676057],[-58.48016551,-34.48675574],[-58.48015432,-34.48675462],[-58.48010673,-34.4867219],[-58.48007996,-34.48669216],[-58.48005914,-34.48665052],[-58.48005914,-34.48661482],[-58.48007699,-34.48659698],[-58.48011268,-34.48657318],[-58.48011863,-34.48652559],[-58.48008591,-34.48649585],[-58.48006807,-34.48645421],[-58.48010673,-34.48642447],[-58.48019001,-34.48639175],[-58.4801923,-34.48639111],[-58.48026437,-34.48637093],[-58.48029709,-34.48635011],[-58.48032683,-34.48629955],[-58.48036253,-34.48623411],[-58.48041011,-34.4861895],[-58.48046068,-34.4861657],[-58.48050529,-34.48612704],[-58.48052909,-34.48606755],[-58.48052016,-34.48602293],[-58.48050529,-34.48598129],[-58.48045176,-34.48590991],[-58.48043986,-34.48588611],[-58.48040417,-34.48587422],[-58.48035955,-34.48586529],[-58.48032683,-34.4858415],[-58.48031494,-34.4858296],[-58.48032088,-34.48579986],[-58.4803655,-34.48576417],[-58.48040417,-34.48571955],[-58.48043093,-34.48569873],[-58.48046068,-34.48565114],[-58.48047852,-34.48558868],[-58.48047852,-34.48552027],[-58.4804809,-34.4854477],[-58.48046187,-34.48540487],[-58.48046663,-34.48532397],[-58.48046425,-34.48525258],[-58.48045473,-34.48521451],[-58.48045711,-34.48516216],[-58.48046901,-34.48508602],[-58.48046425,-34.48502415],[-58.48047139,-34.48495991],[-58.48047139,-34.4849266],[-58.48047852,-34.48489804],[-58.48050232,-34.48487187],[-58.4805166,-34.48482666],[-58.48051422,-34.48479097],[-58.4805047,-34.48476479],[-58.48048804,-34.48475052],[-58.48041904,-34.48476479],[-58.48036431,-34.48476479],[-58.4803191,-34.48477431],[-58.48031124,-34.4847725],[-58.48028817,-34.48476717],[-58.48027151,-34.48473386],[-58.48024772,-34.48468865],[-58.48020727,-34.48466248],[-58.48011209,-34.48463392],[-58.4800645,-34.48461489],[-58.48000263,-34.4845792],[-58.47991935,-34.48453161],[-58.47986462,-34.4844864],[-58.47982655,-34.48447212],[-58.47977182,-34.48444357],[-58.47974327,-34.48441263],[-58.47972899,-34.48437456],[-58.47973375,-34.48433887],[-58.47974803,-34.4843008],[-58.4797742,-34.48425797],[-58.479798,-34.48422941],[-58.47983369,-34.48420562],[-58.47990507,-34.4841842],[-58.47993363,-34.4841842],[-58.47996218,-34.48415089],[-58.47997265,-34.4841271],[-58.47993934,-34.48409379],[-58.47990603,-34.48403668],[-58.47988223,-34.48397005],[-58.47988223,-34.48389391],[-58.47986795,-34.48381301],[-58.47987747,-34.4837559],[-58.47988223,-34.48371307],[-58.47988699,-34.48369404],[-58.47992982,-34.48363693],[-58.47998217,-34.48357506],[-58.48004403,-34.48353223],[-58.48011542,-34.48350844],[-58.48019156,-34.4834894],[-58.48023439,-34.48345609],[-58.48033433,-34.4834323],[-58.48041999,-34.48344181],[-58.48043457,-34.48345518],[-58.4804771,-34.48349416],[-58.48047234,-34.48341326],[-58.48047469,-34.48337319],[-58.4804771,-34.48333236],[-58.48050089,-34.48323242],[-58.48051993,-34.48310869],[-58.480558,-34.48297068],[-58.48059131,-34.48283267],[-58.48063414,-34.48271846],[-58.48065794,-34.48265183],[-58.48066983,-34.48261852],[-58.48066769,-34.48257093],[-58.48064628,-34.48252453],[-58.48065341,-34.48247456],[-58.48067126,-34.48245315],[-58.48072123,-34.48242816],[-58.48072837,-34.48238176],[-58.48068554,-34.48225327],[-58.48071766,-34.4822033],[-58.48075335,-34.48216047],[-58.48078547,-34.4820998],[-58.48082117,-34.48204626],[-58.48085686,-34.48199272],[-58.48088898,-34.48197131],[-58.48092467,-34.48193561],[-58.48093895,-34.48192134],[-58.48097821,-34.48188208],[-58.48102104,-34.48183211],[-58.48104959,-34.48180712],[-58.48110313,-34.48180712],[-58.48116381,-34.48177857],[-58.48121148,-34.48174452],[-58.48121378,-34.48174288],[-58.48126375,-34.48168577],[-58.48128516,-34.48164294],[-58.48131728,-34.4815894],[-58.48136725,-34.48155014],[-58.48139581,-34.48153586],[-58.48144578,-34.4815323],[-58.48144815,-34.48153294],[-58.48147647,-34.48146686],[-58.48151454,-34.4813812],[-58.48159544,-34.48129078],[-58.48167158,-34.48123843],[-58.48175249,-34.48120036],[-58.48179532,-34.48112422],[-58.48180959,-34.48103856],[-58.48183339,-34.48090531],[-58.48185718,-34.48080061],[-58.4818905,-34.48071971],[-58.48190953,-34.48065784],[-58.48193333,-34.48056742],[-58.48195236,-34.48051508],[-58.48200471,-34.4804199],[-58.48199043,-34.48035327],[-58.48197616,-34.48025809],[-58.48192857,-34.48019147],[-58.48184767,-34.4801296],[-58.48174297,-34.48008201],[-58.48160972,-34.48000111],[-58.48152406,-34.4799678],[-58.48147647,-34.47994876],[-58.48144316,-34.47991069],[-58.48145268,-34.47984407],[-58.48147171,-34.47979172],[-58.48149551,-34.47975841],[-58.48151454,-34.47973461],[-58.4815431,-34.47970606],[-58.48159068,-34.47962992],[-58.48164779,-34.47955853],[-58.4817049,-34.47948715],[-58.48172393,-34.47942052],[-58.48177628,-34.47932059],[-58.48183339,-34.47923969],[-58.48189526,-34.47913975],[-58.4819476,-34.47904933],[-58.48199519,-34.47896367],[-58.48206182,-34.47883993],[-58.48215224,-34.47874],[-58.48224266,-34.47868765],[-58.48230928,-34.47864482],[-58.48230969,-34.47864439],[-58.48238067,-34.47856868],[-58.48246157,-34.47852585],[-58.48257578,-34.47849253],[-58.48269475,-34.47846398],[-58.48276138,-34.47848302],[-58.48285656,-34.47846874],[-58.48294222,-34.47844019],[-58.48298029,-34.47841163],[-58.48298505,-34.47834025],[-58.48299457,-34.47826887],[-58.48298029,-34.47820224],[-58.48295649,-34.47814037],[-58.48294705,-34.47808369],[-58.48294698,-34.47808327],[-58.48294839,-34.47808185],[-58.48298981,-34.47804044],[-58.48302788,-34.47802616],[-58.48307547,-34.47795478],[-58.48311354,-34.47788339],[-58.48315637,-34.47781677],[-58.48323727,-34.47778821],[-58.48332293,-34.47778821],[-58.48336576,-34.47774538],[-58.48337528,-34.47761689],[-58.48334197,-34.47755503],[-58.48334142,-34.47754472],[-58.48333721,-34.47746461],[-58.48335624,-34.47742178],[-58.4833848,-34.47736467],[-58.48341811,-34.47728853],[-58.48343715,-34.4772457],[-58.48348474,-34.47716955],[-58.48356564,-34.47713148],[-58.48365579,-34.47711509],[-58.48367033,-34.47711245],[-58.48370365,-34.4770601],[-58.48370055,-34.47705391],[-58.48369889,-34.47705058],[-58.48364654,-34.47699823],[-58.48364178,-34.47694588],[-58.48368937,-34.47690781],[-58.48374648,-34.47685546],[-58.48372744,-34.47680788],[-58.48376551,-34.47673173],[-58.4838369,-34.4766889],[-58.48390352,-34.47668414],[-58.48396063,-34.47668414],[-58.48403677,-34.47666511],[-58.48410815,-34.47660324],[-58.48414623,-34.47654138],[-58.48419857,-34.47645572],[-58.48425568,-34.47639861],[-58.48429375,-34.47632722],[-58.48432231,-34.4762368],[-58.48440797,-34.4761797],[-58.48446983,-34.47616066],[-58.4845317,-34.47614639],[-58.48457929,-34.47609404],[-58.48465067,-34.47602741],[-58.48483151,-34.47595127],[-58.48488386,-34.47595603],[-58.48494097,-34.47596555],[-58.48495048,-34.47593223],[-58.48492193,-34.47587513],[-58.4848791,-34.47585609],[-58.48483627,-34.47582754],[-58.48485055,-34.47576567],[-58.48489338,-34.47570381],[-58.48495048,-34.47565146],[-58.48501711,-34.47560387],[-58.48513608,-34.47555628],[-58.48524078,-34.47553724],[-58.48532168,-34.47554676],[-58.48537879,-34.47551345],[-58.48548824,-34.47549441],[-58.48550728,-34.47543731],[-58.48543589,-34.47538972],[-58.48537403,-34.47534689],[-58.48535975,-34.47529454],[-58.48543113,-34.47524695],[-58.48555011,-34.47520412],[-58.48560246,-34.47517081],[-58.48566908,-34.47512798],[-58.48573095,-34.47508039],[-58.48580233,-34.4750328],[-58.48587371,-34.47496141],[-58.48593082,-34.4749281],[-58.48604028,-34.47487099],[-58.4861069,-34.47486148],[-58.48619732,-34.47487575],[-58.486253,-34.47487178],[-58.48626395,-34.47487099],[-58.48631153,-34.47486148],[-58.48634961,-34.47483292],[-58.48636388,-34.47479961],[-58.48634576,-34.47479357],[-58.48630678,-34.47478058],[-58.48625443,-34.47476154],[-58.48622112,-34.47472347],[-58.48619732,-34.4746854],[-58.48620208,-34.47463781],[-58.48621636,-34.47459022],[-58.48629726,-34.47454739],[-58.48629726,-34.47451408],[-58.48625919,-34.474476],[-58.48623539,-34.47442841],[-58.48625919,-34.47438558],[-58.48623063,-34.47437607],[-58.48617829,-34.47438083],[-58.48614973,-34.47433324],[-58.48623539,-34.47426661],[-58.48627822,-34.4742333],[-58.48635912,-34.47424282],[-58.48644003,-34.47425233],[-58.48648286,-34.47422854],[-58.48651617,-34.47420475],[-58.48658279,-34.47421902],[-58.48660659,-34.47418571],[-58.48653996,-34.4741524],[-58.48649237,-34.47412384],[-58.48648761,-34.47405722],[-58.48652093,-34.47401439],[-58.48659231,-34.47401439],[-58.48665418,-34.47396204],[-58.48670177,-34.47391921],[-58.48670177,-34.47384307],[-58.48667321,-34.47380976],[-58.48663514,-34.473805],[-58.48664942,-34.47375741],[-58.48670177,-34.47369078],[-58.48676363,-34.47364795],[-58.48683026,-34.47359084],[-58.48687309,-34.47354326],[-58.48692068,-34.47352898],[-58.48700158,-34.47355277],[-58.48707772,-34.47352422],[-58.48707937,-34.47352351],[-58.48714435,-34.47349567],[-58.48719194,-34.47348615],[-58.48720621,-34.47344332],[-58.48721573,-34.47344332],[-58.48723952,-34.47340049],[-58.48724904,-34.47336718],[-58.4872533,-34.47331613],[-58.4872538,-34.47331007],[-58.48726332,-34.473272],[-58.48736802,-34.473272],[-58.48741085,-34.47328151],[-58.4875203,-34.47329103],[-58.48758693,-34.473272],[-58.48762024,-34.47325296],[-58.48763452,-34.47321965],[-58.48764879,-34.47317206],[-58.48763452,-34.47314351],[-58.48761154,-34.47313644],[-58.48757265,-34.47312447],[-58.48748699,-34.47313875],[-58.48743464,-34.4731673],[-58.48740133,-34.4731673],[-58.48735374,-34.47312447],[-58.48732994,-34.4730864],[-58.48731567,-34.47304833],[-58.48731567,-34.47299598],[-58.48732994,-34.47294363],[-58.48736802,-34.47291032],[-58.48744416,-34.47289128],[-58.48744416,-34.47291508],[-58.48747747,-34.47294363],[-58.48757741,-34.47294839],[-58.48759168,-34.47294363],[-58.48762024,-34.47287701],[-58.48763452,-34.47282466],[-58.48764879,-34.47277707],[-58.48768686,-34.47269617],[-58.48772969,-34.47264858],[-58.48777252,-34.47258671],[-58.48781535,-34.47254388],[-58.48787246,-34.47251533],[-58.48793909,-34.47248201],[-58.48801523,-34.47246298],[-58.48804378,-34.47248677],[-58.48807234,-34.47250105],[-58.48810089,-34.47245822],[-58.4881342,-34.47241539],[-58.48814848,-34.47231069],[-58.48815324,-34.47224883],[-58.48815324,-34.47216793],[-58.48816276,-34.47210606],[-58.48819131,-34.47209654],[-58.48828649,-34.47209178],[-58.48839118,-34.47202516],[-58.48845781,-34.4719966],[-58.48854823,-34.47203468],[-58.48863865,-34.47206323],[-58.48864341,-34.47207275],[-58.48864817,-34.47208703],[-58.48872907,-34.47210606],[-58.48879093,-34.47212985],[-58.48883376,-34.47217744],[-58.48887659,-34.47221552],[-58.48896225,-34.47230118],[-58.48898129,-34.47233449],[-58.48905743,-34.47240111],[-58.48913833,-34.4724487],[-58.48918592,-34.47249153],[-58.48925731,-34.47249629],[-58.4893049,-34.47246774],[-58.48936676,-34.47243919],[-58.48944766,-34.47240111],[-58.48949049,-34.47237732],[-58.48948574,-34.4723678],[-58.48947146,-34.47233449],[-58.48944291,-34.47226786],[-58.48940483,-34.47219648],[-58.48936676,-34.47211558],[-58.48934297,-34.47202992],[-58.48929538,-34.47197757],[-58.48927158,-34.47188715],[-58.48924303,-34.47184908],[-58.48924303,-34.47180149],[-58.48927158,-34.47173011],[-58.48927634,-34.47169203],[-58.489362,-34.47170631],[-58.48940959,-34.47172059],[-58.48947146,-34.47173487],[-58.48952381,-34.47177294],[-58.48956664,-34.47183956],[-58.48961423,-34.47192998],[-58.48964754,-34.47198709],[-58.48972368,-34.47207275],[-58.48977603,-34.47207751],[-58.4898141,-34.4721013],[-58.48980934,-34.47205371],[-58.48976651,-34.47195377],[-58.48972844,-34.47187287],[-58.48970941,-34.47175866],[-58.4897332,-34.47166824],[-58.48974748,-34.47165396],[-58.48980934,-34.471673],[-58.48984741,-34.47169679],[-58.48989976,-34.47173962],[-58.48998066,-34.47180625],[-58.49003301,-34.47185384],[-58.49009488,-34.47190619],[-58.49014723,-34.47197281],[-58.49020909,-34.47203944],[-58.49024563,-34.47209424],[-58.49024716,-34.47209654],[-58.49027572,-34.47214889],[-58.49030903,-34.47217269],[-58.49037565,-34.47220124],[-58.49040897,-34.47218696],[-58.49042324,-34.47215365],[-58.49039469,-34.47211082],[-58.49035654,-34.47204214],[-58.4903471,-34.47202516],[-58.49032807,-34.47195853],[-58.49031855,-34.47187763],[-58.49027572,-34.47179197],[-58.4902424,-34.47171107],[-58.49020433,-34.47162065],[-58.49015198,-34.47151119],[-58.49004729,-34.4713256],[-58.49002825,-34.47126849],[-58.48997115,-34.47114],[-58.48999018,-34.4710591],[-58.49001874,-34.47100199],[-58.49007584,-34.47096868],[-58.49010915,-34.47092585],[-58.49014247,-34.47089729],[-58.49015198,-34.4708735],[-58.49012343,-34.47081639],[-58.49018054,-34.47077832],[-58.49028999,-34.47074025],[-58.49035186,-34.47075453],[-58.49040421,-34.47078784],[-58.49044704,-34.47082115],[-58.49051842,-34.47083067],[-58.49061836,-34.47081163],[-58.49072306,-34.47075453],[-58.4907992,-34.47074025],[-58.49086106,-34.47075453],[-58.49092293,-34.47078784],[-58.49095148,-34.47081639],[-58.49099907,-34.47087826],[-58.49113232,-34.47096392],[-58.49120371,-34.47099247],[-58.49122656,-34.47100126],[-58.49126557,-34.47101627],[-58.4913322,-34.47104482],[-58.49139882,-34.47109241],[-58.49146069,-34.47114476],[-58.49152731,-34.47117807],[-58.49155111,-34.47122566],[-58.49153683,-34.47128753],[-58.49152255,-34.47135891],[-58.49157966,-34.47135415],[-58.49164697039176,-34.471323861030896]]]]}}