{"type":"Feature","properties":{"slug":"san-martin-villa-ballester","name":"San Martín y Villa Ballester","region":"norte","sort":8},"geometry":{"type":"MultiPolygon","coordinates":[[[[-58.553764,-34.530205],[-58.548805,-34.534481],[-58.54582,-34.537093],[-58.54445,-34.538303],[-58.542637,-34.539923],[-58.537781,-34.544164],[-58.5377667,-34.54414867],[-58.535354,-34.541563],[-58.533597,-34.539701],[-58.529811,-34.537332],[-58.52980789,-34.53733772],[-58.52922345,-34.5384141],[-58.528876,-34.539054],[-58.52873993,-34.53932813],[-58.527575,-34.541675],[-58.52897768,-34.54235397],[-58.529017,-34.542373],[-58.526691,-34.544985],[-58.526614,-34.545029],[-58.525933,-34.546777],[-58.52580656,-34.54712786],[-58.524613,-34.55044],[-58.522797,-34.553072],[-58.520983,-34.555385],[-58.520722,-34.555713],[-58.519106,-34.557966],[-58.51831344,-34.55901138],[-58.516852,-34.560939],[-58.51600943,-34.56210003],[-58.514328,-34.564417],[-58.513182,-34.565895],[-58.51217352,-34.5667892],[-58.510817,-34.567992],[-58.5105486,-34.56837182],[-58.51013482,-34.56895737],[-58.50995973,-34.56920514],[-58.50995804,-34.56920186],[-58.50995964,-34.56920528],[-58.51248448,-34.57463028],[-58.51248455,-34.57463044],[-58.51248457,-34.57463049],[-58.51558118,-34.58128403],[-58.51558529,-34.58129285],[-58.51558624,-34.5812949],[-58.52314397,-34.59753382],[-58.5253041,-34.59716563],[-58.529944,-34.596468],[-58.531611,-34.596214],[-58.532602,-34.596062],[-58.533021,-34.595998],[-58.534902,-34.595711],[-58.535849,-34.59556],[-58.53765126,-34.59528994],[-58.538078,-34.595226],[-58.538666,-34.595144],[-58.539358,-34.595575],[-58.541476,-34.59524],[-58.542248,-34.595118],[-58.543166,-34.594991],[-58.543671,-34.594917],[-58.543956,-34.595109],[-58.544209,-34.594842],[-58.544764,-34.594234],[-58.547824,-34.593763],[-58.550853,-34.593291],[-58.551522,-34.593192],[-58.552047,-34.593102],[-58.557214,-34.592342],[-58.558984,-34.592053],[-58.559983,-34.591889],[-58.560366,-34.591838],[-58.559901,-34.591592],[-58.56008,-34.591563],[-58.56143634,-34.59133983],[-58.562037,-34.591241],[-58.56206665,-34.59125855],[-58.562314,-34.591405],[-58.56240488,-34.59131441],[-58.56280084,-34.59091972],[-58.563252,-34.59047],[-58.56336551,-34.59035323],[-58.563671,-34.590039],[-58.564095,-34.589686],[-58.565124,-34.588869],[-58.571446,-34.583897],[-58.572262,-34.583251],[-58.57503673,-34.58107618],[-58.57503675,-34.58107615],[-58.576397,-34.58001],[-58.579044,-34.577917],[-58.580499,-34.576788],[-58.58209421,-34.57552754],[-58.582977,-34.57483],[-58.584179,-34.57387],[-58.58440832,-34.57367314],[-58.584624,-34.573488],[-58.5858038,-34.57257079],[-58.587769,-34.571043],[-58.589497,-34.569685],[-58.591244,-34.568306],[-58.593569,-34.566462],[-58.595693,-34.564802],[-58.597205,-34.563591],[-58.59791094,-34.56302463],[-58.598166,-34.56282],[-58.59835262,-34.5626768],[-58.599047,-34.562144],[-58.599678,-34.561641],[-58.60198535,-34.559816],[-58.60198543,-34.55981593],[-58.6019855,-34.55981587],[-58.602596,-34.559333],[-58.604581,-34.55776],[-58.60476508,-34.55762693],[-58.605494,-34.5571],[-58.607774,-34.555393],[-58.608674,-34.554696],[-58.612392,-34.551913],[-58.61422653,-34.55055857],[-58.614272,-34.550525],[-58.614372,-34.550491],[-58.616791,-34.5487],[-58.616857,-34.548644],[-58.616782,-34.548607],[-58.617003,-34.548442],[-58.61712199,-34.54835189],[-58.61889,-34.547013],[-58.619241,-34.54673],[-58.619126,-34.546701],[-58.61887472,-34.54669815],[-58.618861,-34.546698],[-58.618629,-34.546812],[-58.618353,-34.546919],[-58.61816415,-34.54694407],[-58.617901,-34.546979],[-58.617681,-34.546904],[-58.617594,-34.5468],[-58.617456,-34.546587],[-58.617341,-34.546288],[-58.617142,-34.546051],[-58.616925,-34.545771],[-58.616584,-34.545555],[-58.616181,-34.545353],[-58.615784,-34.545246],[-58.61552744,-34.54516187],[-58.615415,-34.545125],[-58.615266,-34.545043],[-58.615128,-34.544844],[-58.614973,-34.544601],[-58.614791,-34.544379],[-58.614565,-34.544106],[-58.6141,-34.543867],[-58.613662,-34.543635],[-58.613293,-34.543463],[-58.61311,-34.5433],[-58.61293744,-34.54315521],[-58.612793,-34.543034],[-58.612543,-34.54268],[-58.61233595,-34.54244794],[-58.612187,-34.542281],[-58.611823,-34.541809],[-58.611496,-34.541308],[-58.6114119,-34.54109726],[-58.611326,-34.540882],[-58.61124015,-34.540663],[-58.611139,-34.540405],[-58.611112,-34.540334],[-58.61102629,-34.54006823],[-58.611003,-34.539996],[-58.61095089,-34.53988568],[-58.610892,-34.539761],[-58.61072,-34.539488],[-58.610462,-34.539025],[-58.61040114,-34.53891755],[-58.610153,-34.53848],[-58.61004825,-34.53827458],[-58.609973,-34.538127],[-58.60995141,-34.53809814],[-58.609774,-34.537861],[-58.60945206,-34.53751394],[-58.60945119,-34.53751302],[-58.60935155,-34.53739951],[-58.60918,-34.537204],[-58.609081,-34.537021],[-58.60886002,-34.53664718],[-58.608841,-34.536615],[-58.608676,-34.536214],[-58.60863263,-34.53614825],[-58.60857942,-34.53606759],[-58.608488,-34.535929],[-58.608053,-34.535455],[-58.60792391,-34.53535783],[-58.607778,-34.535248],[-58.60739,-34.53504],[-58.60698064,-34.53490355],[-58.606937,-34.534889],[-58.606565,-34.534676],[-58.60635752,-34.53453018],[-58.606343,-34.534542],[-58.60626194,-34.53445426],[-58.60622105,-34.53440999],[-58.60616943,-34.53435412],[-58.60616312,-34.53434729],[-58.60587,-34.53403],[-58.60576715,-34.53368083],[-58.605708,-34.53348],[-58.60556,-34.532765],[-58.60548799,-34.53237265],[-58.605366,-34.531708],[-58.605276,-34.531062],[-58.605153,-34.530629],[-58.60509,-34.530024],[-58.605021,-34.529723],[-58.604958,-34.529056],[-58.604764,-34.528024],[-58.604626,-34.527426],[-58.60453485,-34.52715255],[-58.60453277,-34.5271328],[-58.6045241,-34.52705029],[-58.6045,-34.526821],[-58.604506,-34.52647],[-58.6045008,-34.52643595],[-58.604459,-34.526162],[-58.604201,-34.525542],[-58.60397292,-34.52509602],[-58.603932,-34.525016],[-58.60368829,-34.52452495],[-58.603664,-34.524476],[-58.603393,-34.523944],[-58.60318148,-34.52346373],[-58.603101,-34.523281],[-58.60292396,-34.5230513],[-58.602906,-34.523028],[-58.602397,-34.522399],[-58.602126,-34.522031],[-58.60177906,-34.52159833],[-58.601778,-34.521597],[-58.60175188,-34.52156483],[-58.60153087,-34.52127333],[-58.60151659,-34.52124054],[-58.60150925,-34.5212007],[-58.601399,-34.520603],[-58.601463,-34.519941],[-58.60154261,-34.51967085],[-58.601641,-34.519337],[-58.60184,-34.518803],[-58.601947,-34.518394],[-58.601815,-34.517782],[-58.60174624,-34.51758041],[-58.601716,-34.517433],[-58.60165565,-34.51721394],[-58.601662,-34.516843],[-58.601882,-34.516266],[-58.602059,-34.515796],[-58.602332,-34.515002],[-58.602572,-34.514176],[-58.602857,-34.513286],[-58.603069,-34.512857],[-58.603139,-34.51247],[-58.60305033,-34.51215868],[-58.603046,-34.512112],[-58.602965,-34.511818],[-58.602821,-34.511615],[-58.60261,-34.511283],[-58.60247678,-34.51109058],[-58.602485,-34.510614],[-58.602489,-34.510344],[-58.602606,-34.509918],[-58.602614,-34.509452],[-58.602549,-34.50891],[-58.602229,-34.507869],[-58.601984,-34.507103],[-58.601625,-34.50607],[-58.601466,-34.505341],[-58.601498,-34.504979],[-58.601461,-34.504615],[-58.601326,-34.504236],[-58.601335,-34.50373],[-58.601343,-34.503232],[-58.601013,-34.502862],[-58.600542,-34.502417],[-58.599897,-34.501561],[-58.59984384,-34.50143351],[-58.599676,-34.501031],[-58.59946829,-34.50033368],[-58.599466,-34.500326],[-58.599384,-34.499973],[-58.59922333,-34.49972792],[-58.598969,-34.49934],[-58.598559,-34.498962],[-58.598412,-34.498762],[-58.59835233,-34.4982557],[-58.598342,-34.498168],[-58.59854277,-34.4974711],[-58.598567,-34.497387],[-58.598798,-34.49681],[-58.598894,-34.496374],[-58.599025,-34.495972],[-58.599325,-34.495514],[-58.59965,-34.495144],[-58.600072,-34.494783],[-58.600469,-34.494377],[-58.600681,-34.494066],[-58.600821,-34.493599],[-58.600936,-34.493087],[-58.60091,-34.492523],[-58.600774,-34.491649],[-58.60070472,-34.49121209],[-58.60055817,-34.49074674],[-58.600517,-34.490616],[-58.600303,-34.490354],[-58.60014817,-34.49045451],[-58.59999334,-34.49055503],[-58.59986632,-34.49063749],[-58.599864,-34.490639],[-58.59874109,-34.49156178],[-58.59826138,-34.491956],[-58.59794866,-34.49221298],[-58.59753811,-34.49255036],[-58.59634699,-34.4935292],[-58.595614,-34.494398],[-58.595241,-34.494839],[-58.594472,-34.495413],[-58.59320377,-34.49646219],[-58.592515,-34.497032],[-58.58969472,-34.49931234],[-58.589428,-34.499528],[-58.58825522,-34.50055487],[-58.58804365,-34.5007401],[-58.58665184,-34.50195875],[-58.58615984,-34.50238953],[-58.58608962,-34.50245102],[-58.585112,-34.503307],[-58.58501977,-34.50333849],[-58.584948,-34.503363],[-58.581274,-34.506497],[-58.580828,-34.506937],[-58.58034794,-34.50735294],[-58.568759,-34.517394],[-58.568672,-34.517395],[-58.56776684,-34.51817144],[-58.561963,-34.52315],[-58.56018342,-34.52470495],[-58.55704486,-34.52744734],[-58.55618648,-34.52819738],[-58.555641,-34.528674],[-58.553764,-34.530205]]]]}}