{"type":"Feature","properties":{"slug":"san-telmo","name":"San Telmo","region":"caba","sort":13},"geometry":{"type":"Polygon","coordinates":[[[-58.36346055194598,-34.625125657716545],[-58.36649315397708,-34.62519964773091],[-58.366493327352224,-34.62519965147414],[-58.36797657673252,-34.6251997631352],[-58.36797114632129,-34.62547821331409],[-58.367982953415456,-34.627001266786586],[-58.367983649604945,-34.62709048698455],[-58.36798376842992,-34.62710577512732],[-58.36795049636793,-34.62714666538916],[-58.36809663225007,-34.627193681217115],[-58.36944974577509,-34.628327418264334],[-58.36957964531234,-34.62845112850141],[-58.36963535367008,-34.62850418204397],[-58.37046442630011,-34.62929904967853],[-58.37066305759671,-34.62949767394926],[-58.370663234060096,-34.62949785076114],[-58.37066327038708,-34.629497533488774],[-58.37066330132389,-34.62949726309489],[-58.370698058887534,-34.62919366314407],[-58.37071689957993,-34.62902846379567],[-58.370716520776696,-34.629000359104644],[-58.37071422354693,-34.6288301498504],[-58.37079867313644,-34.628119502730236],[-58.37092125067527,-34.627088935930416],[-58.37095243062706,-34.62682678839982],[-58.37096825953698,-34.62665647381104],[-58.37096827964903,-34.626656254796785],[-58.370968343696,-34.62665556526271],[-58.3709683877573,-34.626655092046434],[-58.37096872656504,-34.62665144696798],[-58.370968898853945,-34.62665144980265],[-58.37097019423379,-34.62665152379805],[-58.370970397045475,-34.62665153567001],[-58.37113207739232,-34.626660847000736],[-58.37113224967328,-34.626660857046495],[-58.37127719152596,-34.626669204539894],[-58.371560547170645,-34.62668552271619],[-58.371726106159535,-34.62669505702409],[-58.37172627844067,-34.626695067069015],[-58.372552259555675,-34.62674262932302],[-58.372552431837,-34.62674263936681],[-58.37279027078344,-34.62675632743534],[-58.37279044415723,-34.62675633567674],[-58.37364027541732,-34.62677900658254],[-58.37364044879514,-34.62677901121709],[-58.37366155618069,-34.62677957389097],[-58.3736617295585,-34.626779578525486],[-58.37387081448814,-34.626785155829786],[-58.37387098786595,-34.626785160464],[-58.374565451292575,-34.626803691493016],[-58.37456562467141,-34.62680369522484],[-58.37557794412637,-34.62730591248493],[-58.37569712899306,-34.627142686422594],[-58.375698013757294,-34.627141269127335],[-58.37594703316736,-34.626742467428784],[-58.37618123559256,-34.626367390756776],[-58.37618148253488,-34.626366912280055],[-58.37622955196335,-34.62627390311426],[-58.37675553114058,-34.62511856088524],[-58.37699790975966,-34.62395284874013],[-58.37707025708982,-34.62360489282597],[-58.37708783705925,-34.623491806057146],[-58.377108162233654,-34.623361185024535],[-58.377136829885195,-34.62297333833029],[-58.37714931184248,-34.622804460935704],[-58.377203543096435,-34.62207074431028],[-58.37721641571186,-34.62189708963912],[-58.377239559799435,-34.621014630329505],[-58.377239392086864,-34.621011261608295],[-58.37723330109742,-34.620888850014644],[-58.37722954576913,-34.6208128604435],[-58.377270267601965,-34.61981907457898],[-58.37727300184129,-34.61972858303275],[-58.377308539136955,-34.61855817101079],[-58.37731145093806,-34.61846035553731],[-58.37735345819844,-34.61762213534554],[-58.377362998907635,-34.617456857779494],[-58.3774303789714,-34.61629801759972],[-58.37726803142333,-34.61629050887268],[-58.37615962450674,-34.616235285441334],[-58.37603211507409,-34.616227796343715],[-58.375981180647265,-34.616224805043785],[-58.37586431434577,-34.6162178894798],[-58.375863127061365,-34.61621781921954],[-58.37525655197492,-34.61613702950823],[-58.374710919304604,-34.61610128262801],[-58.374538521733456,-34.616092847128],[-58.374342615908866,-34.6160833377808],[-58.3732727028258,-34.61603938393138],[-58.373132756080366,-34.6160344913334],[-58.37299604525717,-34.61602974249313],[-58.371719352299316,-34.61602998785851],[-58.37172229852841,-34.6159841447646],[-58.370695263978526,-34.615914424395044],[-58.37057006510598,-34.61589883659361],[-58.370349877379944,-34.61586621611515],[-58.37025246274437,-34.61586563615824],[-58.36949915178004,-34.61582524356362],[-58.36914672155966,-34.61579746344978],[-58.368816412634025,-34.61578439619973],[-58.368585079093855,-34.615762802689474],[-58.36757355681621,-34.61568982928274],[-58.36673996253526,-34.61562966421397],[-58.366597705576716,-34.616883510982305],[-58.366456905985444,-34.6181246115076],[-58.366329356674626,-34.61924938318391],[-58.36619577952948,-34.62042661500818],[-58.366072526671026,-34.62151321882173],[-58.36597197652034,-34.622399528967875],[-58.36594169624673,-34.62266643831765],[-58.365935794679835,-34.62273578425293],[-58.365886934434144,-34.623309924569725],[-58.36584530197631,-34.62379912000557],[-58.36579132236112,-34.62399168476058],[-58.36550581992286,-34.62392538132948],[-58.364809060448046,-34.624321744132644],[-58.364158436612335,-34.6246918550707],[-58.36352656160801,-34.624994371474884],[-58.36346055194598,-34.625125657716545]]]}}