{"type":"Feature","properties":{"slug":"temperley","name":"Temperley","region":"sur","sort":3,"particion":{"base":"Lomas de Zamora","areaBaseM2":88751507.26554573}},"geometry":{"type":"MultiPolygon","coordinates":[[[[-58.50079713,-34.72299155],[-58.50075647,-34.72304691],[-58.496278,-34.729145],[-58.49513225,-34.73070491],[-58.486886,-34.741932],[-58.486584,-34.7423429],[-58.48658398,-34.74234294],[-58.485017,-34.744475],[-58.48447,-34.745211],[-58.483725,-34.746214],[-58.482951,-34.747255],[-58.480105,-34.751082],[-58.475344,-34.757484],[-58.474648,-34.758422],[-58.472484,-34.761336],[-58.46843985,-34.76666983],[-58.466363,-34.769409],[-58.46361572,-34.77303058],[-58.46268851,-34.77425286],[-58.461062,-34.776397],[-58.45459098,-34.78506204],[-58.440959,-34.803316],[-58.437829,-34.807431],[-58.43787961,-34.80747297],[-58.43788144,-34.80747449],[-58.43671106,-34.8090301],[-58.43057054,-34.81719173],[-58.43054584,-34.81722456],[-58.43052818,-34.81724804],[-58.423506,-34.813752],[-58.418128,-34.811056],[-58.41670357,-34.81034707],[-58.4051567,-34.80460022],[-58.405102,-34.804573],[-58.407728,-34.801125],[-58.40775451,-34.80110403],[-58.40782573,-34.80104771],[-58.407838,-34.801038],[-58.40839,-34.80113],[-58.40840037,-34.80111681],[-58.40843575,-34.80107182],[-58.409093,-34.800236],[-58.40914305,-34.80014015],[-58.40950915,-34.79943899],[-58.40987246,-34.79874317],[-58.409954,-34.798587],[-58.405239,-34.796054],[-58.393707,-34.789813],[-58.387702,-34.786549],[-58.378442,-34.781563],[-58.373014,-34.778727],[-58.364104,-34.774104],[-58.358683,-34.771354],[-58.36,-34.76978113761806],[-58.36,-34.77],[-58.47,-34.76],[-58.47,-34.7135671950322],[-58.467265,-34.710958],[-58.471613,-34.715106],[-58.472241,-34.715722],[-58.475167,-34.718458],[-58.47577,-34.719085],[-58.47654845,-34.7201326],[-58.48013306,-34.72363663],[-58.48096848,-34.72440338],[-58.48359299,-34.7266655],[-58.48451615,-34.72756958],[-58.48438861,-34.72765375],[-58.484479,-34.727743],[-58.48421,-34.727917],[-58.483946,-34.728185],[-58.483721,-34.728366],[-58.483598,-34.728568],[-58.48357966,-34.728709],[-58.48369217,-34.72898483],[-58.48376847,-34.72919464],[-58.48389435,-34.72944641],[-58.48399353,-34.72962952],[-58.4840622,-34.72984695],[-58.48404251,-34.73002633],[-58.48402787,-34.73015976],[-58.48397065,-34.73036194],[-58.48389817,-34.73070526],[-58.48384858,-34.73100662],[-58.48379898,-34.73126984],[-58.4837966,-34.73130326],[-58.483791,-34.731317],[-58.48378941,-34.73140382],[-58.48378402,-34.73169916],[-58.48378754,-34.73183823],[-58.48390198,-34.73213577],[-58.48409653,-34.73221207],[-58.48427964,-34.73232269],[-58.48455811,-34.73239136],[-58.48484803,-34.73246002],[-58.48511505,-34.73239899],[-58.48547364,-34.73223877],[-58.48561097,-34.73208237],[-58.48584748,-34.73184586],[-58.48604584,-34.73154449],[-58.48619461,-34.73128891],[-58.48633576,-34.73102188],[-58.48646164,-34.73075867],[-58.4866333,-34.73046112],[-58.48681641,-34.73012543],[-58.48698044,-34.72986221],[-58.4871521,-34.72967911],[-58.48734665,-34.72958374],[-58.48767853,-34.72943497],[-58.48794175,-34.72929382],[-58.48813248,-34.72921371],[-58.48844529,-34.7291069],[-58.48875428,-34.72898102],[-58.48904801,-34.72886276],[-58.48934937,-34.72879791],[-58.48961258,-34.72875214],[-58.48980713,-34.72868729],[-58.49011231,-34.72861481],[-58.49032212,-34.72857284],[-58.49057007,-34.72854996],[-58.49082947,-34.72851181],[-58.4910965,-34.72847748],[-58.49144745,-34.7283783],[-58.49172211,-34.72826385],[-58.49199295,-34.72811127],[-58.49224854,-34.72796249],[-58.49243546,-34.72780991],[-58.49264908,-34.72753525],[-58.49290467,-34.72731018],[-58.49291828,-34.72729656],[-58.49292166,-34.72729111],[-58.49296613,-34.7272193],[-58.49313099,-34.7269531],[-58.49324438,-34.72677001],[-58.49328495,-34.7267045],[-58.49431195,-34.72504615],[-58.494337,-34.725041],[-58.494883,-34.725053],[-58.495233,-34.725057],[-58.495655,-34.725113],[-58.495862,-34.725047],[-58.496036,-34.724953],[-58.496272,-34.724784],[-58.496434,-34.724639],[-58.496541,-34.724509],[-58.49654157,-34.72450823],[-58.49759239,-34.72381131],[-58.49849,-34.723216],[-58.50011541,-34.72309474],[-58.500773,-34.723009],[-58.50079713,-34.72299155]]],[[[-58.45754334,-34.701174],[-58.456528676192804,-34.7],[-58.43834714707313,-34.7],[-58.441868,-34.69539],[-58.44691544,-34.68877658],[-58.44692429,-34.68876706],[-58.45032558,-34.69282281],[-58.45754334,-34.701174]]],[[[-58.36,-34.76637417225594],[-58.35261,-34.76263],[-58.34813227,-34.76039836],[-58.34813224,-34.76039835],[-58.34813222,-34.76039833],[-58.346414,-34.759542],[-58.34624089,-34.7595537],[-58.346192,-34.759557],[-58.34384938,-34.75827177],[-58.33669485,-34.75443142],[-58.33663877,-34.75440132],[-58.337865,-34.752538],[-58.33856267,-34.7515279],[-58.339283,-34.750485],[-58.341625,-34.746986],[-58.34170387,-34.74688441],[-58.341816,-34.74674],[-58.34218433,-34.74615465],[-58.342427,-34.745769],[-58.342615,-34.745493],[-58.342718,-34.745338],[-58.342817,-34.745186],[-58.342897,-34.745064],[-58.342961,-34.744965],[-58.343039,-34.74483],[-58.343095,-34.744744],[-58.343148,-34.744664],[-58.343202,-34.744582],[-58.343259,-34.744494],[-58.343319,-34.744402],[-58.34337,-34.744325],[-58.343427,-34.744237],[-58.343454,-34.744195],[-58.343614,-34.743951],[-58.343699,-34.743817],[-58.343895,-34.743514],[-58.344094,-34.743205],[-58.34470182,-34.74237406],[-58.34596,-34.740654],[-58.346962,-34.739344],[-58.34731444,-34.7398401],[-58.35105635,-34.73996701],[-58.356157,-34.74014],[-58.35913943,-34.74167402],[-58.36,-34.74211665442724],[-58.36,-34.76637417225594]]]]}}