{"type":"Feature","properties":{"slug":"tigre-nordelta","name":"Tigre y Nordelta","region":"norte","sort":3},"geometry":{"type":"MultiPolygon","coordinates":[[[[-58.53970638,-34.29837571],[-58.53876276,-34.30571498],[-58.5346225,-34.30457284],[-58.52876903,-34.30328793],[-58.52277278,-34.30314516],[-58.51891806,-34.30443007],[-58.51549163,-34.30600052],[-58.51037598,-34.30877685],[-58.50704956,-34.31158447],[-58.50372314,-34.31439209],[-58.49468994,-34.32366943],[-58.48498535,-34.33459473],[-58.4776001,-34.3494873],[-58.47198486,-34.36029053],[-58.46854835,-34.36478872],[-58.46447754,-34.37011719],[-58.45959473,-34.37719727],[-58.45452881,-34.3861084],[-58.45412124,-34.38801828],[-58.45545373,-34.3879231],[-58.4565007,-34.38763756],[-58.45783319,-34.38678096],[-58.45945123,-34.38601953],[-58.4600223,-34.38573399],[-58.46154515,-34.38620989],[-58.46306801,-34.3865906],[-58.46373426,-34.38716167],[-58.4648764,-34.38773274],[-58.46573301,-34.38849417],[-58.46649443,-34.38982667],[-58.46830282,-34.38982667],[-58.46954014,-34.3901122],[-58.47125336,-34.3901122],[-58.47258585,-34.39134952],[-58.47563156,-34.39058809],[-58.47620263,-34.39115916],[-58.47553639,-34.39296755],[-58.47534603,-34.39391934],[-58.47563156,-34.39506148],[-58.47620263,-34.39525184],[-58.4772496,-34.3949663],[-58.47772549,-34.39449041],[-58.47772549,-34.39525184],[-58.47801102,-34.39572773],[-58.47905799,-34.39553737],[-58.48010495,-34.39534702],[-58.48105673,-34.39601326],[-58.48029531,-34.3989638],[-58.48029531,-34.39943969],[-58.48096156,-34.39963005],[-58.48162781,-34.39991558],[-58.4816278,-34.40134326],[-58.48115191,-34.40181915],[-58.48143745,-34.40267576],[-58.48143745,-34.40343718],[-58.48172298,-34.40438897],[-58.48334102,-34.40429379],[-58.4834362,-34.40486486],[-58.48229405,-34.40572147],[-58.48134227,-34.40686361],[-58.48115191,-34.40772021],[-58.48124709,-34.408672],[-58.48153263,-34.4095286],[-58.48153263,-34.41048039],[-58.48143745,-34.41162253],[-58.48143745,-34.41257431],[-58.4816278,-34.41362128],[-58.48229405,-34.41419235],[-58.48600601,-34.41190806],[-58.48648191,-34.41209842],[-58.48619637,-34.41324056],[-58.48629155,-34.41371645],[-58.48771923,-34.41390681],[-58.48905172,-34.41305021],[-58.49038422,-34.4121936],[-58.49114565,-34.41285985],[-58.49228779,-34.41285985],[-58.49390582,-34.41209842],[-58.49495279,-34.41114664],[-58.49571421,-34.41209842],[-58.49504797,-34.41381163],[-58.49390582,-34.41562002],[-58.494001,-34.41581038],[-58.49457207,-34.4157152],[-58.49482192,-34.41606022],[-58.49442931,-34.41770205],[-58.49410808,-34.4183802],[-58.49371547,-34.41870143],[-58.49371547,-34.41920111],[-58.49339424,-34.41952234],[-58.49328716,-34.41995064],[-58.49342993,-34.42023618],[-58.4935727,-34.42055741],[-58.49332286,-34.42070017],[-58.49321578,-34.4210214],[-58.49350132,-34.4214497],[-58.49328716,-34.42162816],[-58.49253763,-34.42209216],[-58.4918238,-34.42259184],[-58.49114565,-34.42369829],[-58.49082442,-34.42434075],[-58.49068165,-34.42519735],[-58.49068165,-34.4258755],[-58.49086011,-34.42644657],[-58.49160964,-34.4267678],[-58.49150257,-34.42741025],[-58.49143118,-34.42769579],[-58.49168103,-34.4280884],[-58.49196656,-34.42837393],[-58.49218071,-34.4285167],[-58.49207364,-34.42869516],[-58.49203795,-34.42930192],[-58.49110996,-34.42958746],[-58.49007489,-34.43033699],[-58.48936105,-34.43126498],[-58.48878998,-34.43237143],[-58.48868291,-34.43297819],[-58.48836168,-34.43408464],[-58.48821891,-34.4351554],[-58.48814753,-34.43583354],[-58.48821891,-34.43636892],[-58.48811184,-34.43686861],[-58.48836168,-34.43726122],[-58.4887186,-34.43726122],[-58.48957521,-34.43693999],[-58.48975366,-34.43704707],[-58.48939675,-34.4373326],[-58.48918259,-34.43733261],[-58.48893275,-34.43765383],[-58.48921829,-34.43804644],[-58.4896109,-34.43808214],[-58.48982505,-34.4382249],[-58.49028904,-34.4382249],[-58.49053889,-34.43861751],[-58.4909315,-34.4386889],[-58.49221641,-34.43833198],[-58.49339424,-34.43768952],[-58.494465,-34.436476],[-58.49574991,-34.43454864],[-58.49771296,-34.43180036],[-58.49828403,-34.43112221],[-58.49910495,-34.43058683],[-58.50046124,-34.42862378],[-58.50128215,-34.42691057],[-58.50242429,-34.42509028],[-58.50395905,-34.42284169],[-58.5054938,-34.42426936],[-58.50385197,-34.42730318],[-58.50303106,-34.42919485],[-58.50270983,-34.42976592],[-58.50171046,-34.4311579],[-58.50081816,-34.43244281],[-58.50003294,-34.43333511],[-58.49960463,-34.43415602],[-58.49953325,-34.43522678],[-58.49978309,-34.43586924],[-58.50024709,-34.43633323],[-58.50056831,-34.4373326],[-58.501068,-34.43833198],[-58.50171046,-34.43965258],[-58.50206738,-34.44015227],[-58.50235291,-34.44040211],[-58.50278121,-34.44061626],[-58.50320952,-34.44061626],[-58.50313813,-34.44029503],[-58.50338798,-34.44033073],[-58.50388766,-34.44040211],[-58.50435166,-34.44015227],[-58.50492273,-34.4395812],[-58.50560088,-34.43950981],[-58.50645748,-34.43979535],[-58.50706424,-34.44022365],[-58.50824208,-34.44054488],[-58.50909868,-34.44097318],[-58.50977683,-34.44083041],[-58.51002667,-34.44104456],[-58.51041928,-34.44154425],[-58.51099035,-34.44161564],[-58.51127589,-34.44186548],[-58.51188265,-34.44211532],[-58.51266787,-34.44211532],[-58.5134174,-34.4422224],[-58.51404283,-34.44244718],[-58.51413495,-34.44333294],[-58.51415501,-34.44352587],[-58.514412,-34.443476],[-58.51520887,-34.44340554],[-58.516165,-34.443321],[-58.52214882,-34.44390983],[-58.523514,-34.443781],[-58.52838982,-34.4421591],[-58.528797,-34.441955],[-58.5291555,-34.44173914],[-58.530202,-34.441109],[-58.531998,-34.439959],[-58.53218372,-34.43984411],[-58.532428,-34.439693],[-58.53289,-34.439401],[-58.53342643,-34.43905755],[-58.536291,-34.436497],[-58.537371,-34.435099],[-58.53952,-34.43284],[-58.542057,-34.43166],[-58.54505008,-34.43072943],[-58.54521841,-34.43067709],[-58.546219,-34.430366],[-58.549325,-34.429125],[-58.551687,-34.427985],[-58.554035,-34.426625],[-58.556016,-34.425537],[-58.557233,-34.424689],[-58.55766,-34.424296],[-58.55794658,-34.42409212],[-58.55831207,-34.42432544],[-58.55842374,-34.42439673],[-58.558432,-34.424402],[-58.55861194,-34.42516018],[-58.559064,-34.427065],[-58.559272,-34.42808],[-58.56017524,-34.42970161],[-58.560342,-34.430001],[-58.561675,-34.431163],[-58.56182439,-34.43094304],[-58.561838,-34.430952],[-58.56203644,-34.4311008],[-58.563521,-34.432214],[-58.56472494,-34.4330743],[-58.56580328,-34.43384484],[-58.566562,-34.434387],[-58.566391,-34.434548],[-58.566523,-34.434646],[-58.566649,-34.434748],[-58.567153,-34.435139],[-58.567239,-34.435197],[-58.567365,-34.43529],[-58.567835,-34.435627],[-58.568047,-34.435807],[-58.568188,-34.435679],[-58.569045,-34.436297],[-58.570513,-34.437397],[-58.570315,-34.437607],[-58.57297906,-34.4396584],[-58.573298,-34.439904],[-58.576351,-34.442068],[-58.57636863,-34.44208178],[-58.57686747,-34.4424715],[-58.577654,-34.443086],[-58.578776,-34.44395],[-58.579511,-34.444465],[-58.58037873,-34.44498956],[-58.580396,-34.445],[-58.59183843,-34.44758897],[-58.59183848,-34.44758898],[-58.59183854,-34.44758899],[-58.5931925,-34.44789534],[-58.59337394,-34.4479364],[-58.59384823,-34.44804371],[-58.594615,-34.448228],[-58.5948349,-34.44826695],[-58.595171,-34.448343],[-58.594644,-34.449264],[-58.594548,-34.449623],[-58.594316,-34.449952],[-58.593975,-34.450527],[-58.593807,-34.45116],[-58.593519,-34.452175],[-58.593472,-34.452482],[-58.593511,-34.452728],[-58.59404,-34.453734],[-58.594442,-34.454551],[-58.594619,-34.454959],[-58.594634,-34.455317],[-58.59465,-34.455737],[-58.594703,-34.456129],[-58.59494,-34.456415],[-58.595153,-34.456721],[-58.595142,-34.456966],[-58.595058,-34.457202],[-58.594729,-34.457895],[-58.594694,-34.458182],[-58.594733,-34.458427],[-58.59475099,-34.45856931],[-58.594799,-34.458949],[-58.59474,-34.459236],[-58.594569,-34.459523],[-58.594461,-34.459872],[-58.594462,-34.460066],[-58.594578,-34.460327],[-58.59518,-34.460833],[-58.5956871,-34.46119837],[-58.595985,-34.461413],[-58.596185,-34.461629],[-58.596357,-34.461927],[-58.596465,-34.462113],[-58.59668,-34.462381],[-58.59693849,-34.4625197],[-58.597058,-34.462669],[-58.597506,-34.462865],[-58.59755289,-34.46288659],[-58.598077,-34.463128],[-58.59815875,-34.46317011],[-58.598671,-34.463434],[-58.59875753,-34.46355607],[-58.59878542,-34.46374093],[-58.598788,-34.463758],[-58.598881,-34.465973],[-58.598943,-34.466554],[-58.59898,-34.466737],[-58.59903168,-34.46682462],[-58.599022,-34.466901],[-58.59911178,-34.46707615],[-58.599409,-34.467656],[-58.600082,-34.468699],[-58.60010876,-34.46877793],[-58.60026,-34.469224],[-58.60023654,-34.46939528],[-58.600207,-34.469611],[-58.60000783,-34.46984838],[-58.59984097,-34.47004727],[-58.599837,-34.470052],[-58.599421,-34.470473],[-58.598932,-34.470871],[-58.5986322,-34.47125434],[-58.598609,-34.471284],[-58.59860393,-34.47149192],[-58.59859913,-34.47168857],[-58.598597,-34.471776],[-58.598945,-34.47211],[-58.599188,-34.472402],[-58.599215,-34.472658],[-58.599076,-34.473064],[-58.599023,-34.473395],[-58.59927,-34.474414],[-58.599372,-34.474656],[-58.600974,-34.474798],[-58.60113844,-34.47483126],[-58.601241,-34.474852],[-58.60143464,-34.47570889],[-58.601448,-34.475768],[-58.60157508,-34.47588997],[-58.601796,-34.476102],[-58.60190217,-34.47639061],[-58.602002,-34.476662],[-58.602083,-34.47714],[-58.60206863,-34.47734297],[-58.602044,-34.477691],[-58.60193899,-34.47787725],[-58.601907,-34.477934],[-58.60179108,-34.47806875],[-58.601636,-34.478249],[-58.6018194,-34.47835347],[-58.602031,-34.478474],[-58.60219752,-34.47854026],[-58.60278338,-34.47878381],[-58.603457,-34.479137],[-58.60411264,-34.47949776],[-58.60423499,-34.47953783],[-58.6044794,-34.47961789],[-58.604882,-34.479663],[-58.605412,-34.479629],[-58.605805,-34.479717],[-58.6059725,-34.47981481],[-58.6062834,-34.47994828],[-58.606341,-34.479973],[-58.60635932,-34.48003061],[-58.60639936,-34.48015648],[-58.60647094,-34.48038153],[-58.606488,-34.48067],[-58.60643385,-34.48081698],[-58.606382,-34.480909],[-58.60633215,-34.48100277],[-58.60630308,-34.48104121],[-58.606242,-34.481122],[-58.605212,-34.482059],[-58.60515438,-34.48211189],[-58.604251,-34.482941],[-58.60356688,-34.48342215],[-58.603435,-34.483508],[-58.60318449,-34.48365722],[-58.60290344,-34.48382464],[-58.602834,-34.483866],[-58.602354,-34.484161],[-58.601572,-34.48418],[-58.60088859,-34.48433521],[-58.600731,-34.484371],[-58.6005918,-34.48446759],[-58.600241,-34.484711],[-58.599504,-34.48525],[-58.599057,-34.485646],[-58.599027,-34.48612],[-58.59901,-34.486657],[-58.59905748,-34.48677757],[-58.59910763,-34.48690491],[-58.599251,-34.487269],[-58.599604,-34.487918],[-58.599793,-34.488741],[-58.600004,-34.489429],[-58.60022977,-34.48983171],[-58.60023893,-34.48989706],[-58.60026622,-34.49009167],[-58.600303,-34.490354],[-58.600517,-34.490616],[-58.60055817,-34.49074674],[-58.60070472,-34.49121209],[-58.600774,-34.491649],[-58.60091,-34.492523],[-58.600936,-34.493087],[-58.600821,-34.493599],[-58.600681,-34.494066],[-58.600469,-34.494377],[-58.600072,-34.494783],[-58.59965,-34.495144],[-58.599325,-34.495514],[-58.599025,-34.495972],[-58.598894,-34.496374],[-58.598798,-34.49681],[-58.598567,-34.497387],[-58.59854277,-34.4974711],[-58.598342,-34.498168],[-58.59835233,-34.4982557],[-58.598412,-34.498762],[-58.598559,-34.498962],[-58.598969,-34.49934],[-58.59922333,-34.49972792],[-58.599384,-34.499973],[-58.599466,-34.500326],[-58.59946829,-34.50033368],[-58.599676,-34.501031],[-58.59984384,-34.50143351],[-58.599897,-34.501561],[-58.600542,-34.502417],[-58.601013,-34.502862],[-58.601343,-34.503232],[-58.601335,-34.50373],[-58.601326,-34.504236],[-58.601461,-34.504615],[-58.601498,-34.504979],[-58.601466,-34.505341],[-58.601625,-34.50607],[-58.601984,-34.507103],[-58.602229,-34.507869],[-58.602549,-34.50891],[-58.602614,-34.509452],[-58.602606,-34.509918],[-58.602489,-34.510344],[-58.602485,-34.510614],[-58.60247678,-34.51109058],[-58.60261,-34.511283],[-58.602821,-34.511615],[-58.602965,-34.511818],[-58.603046,-34.512112],[-58.60305033,-34.51215868],[-58.603139,-34.51247],[-58.603069,-34.512857],[-58.602857,-34.513286],[-58.602572,-34.514176],[-58.602332,-34.515002],[-58.602059,-34.515796],[-58.601882,-34.516266],[-58.601662,-34.516843],[-58.60165565,-34.51721394],[-58.601716,-34.517433],[-58.60174624,-34.51758041],[-58.601815,-34.517782],[-58.601947,-34.518394],[-58.60184,-34.518803],[-58.601641,-34.519337],[-58.60154261,-34.51967085],[-58.601463,-34.519941],[-58.601399,-34.520603],[-58.60150925,-34.5212007],[-58.60151659,-34.52124054],[-58.60153087,-34.52127333],[-58.60175188,-34.52156483],[-58.601778,-34.521597],[-58.60177906,-34.52159833],[-58.602126,-34.522031],[-58.602397,-34.522399],[-58.602906,-34.523028],[-58.60292396,-34.5230513],[-58.603101,-34.523281],[-58.60318148,-34.52346373],[-58.603393,-34.523944],[-58.603664,-34.524476],[-58.60368829,-34.52452495],[-58.603932,-34.525016],[-58.60397292,-34.52509602],[-58.604201,-34.525542],[-58.604459,-34.526162],[-58.6045008,-34.52643595],[-58.604506,-34.52647],[-58.6045,-34.526821],[-58.6045241,-34.52705029],[-58.60453277,-34.5271328],[-58.60453485,-34.52715255],[-58.604626,-34.527426],[-58.604764,-34.528024],[-58.604958,-34.529056],[-58.605021,-34.529723],[-58.60509,-34.530024],[-58.605153,-34.530629],[-58.605276,-34.531062],[-58.605366,-34.531708],[-58.60548799,-34.53237265],[-58.60556,-34.532765],[-58.605708,-34.53348],[-58.60576715,-34.53368083],[-58.60587,-34.53403],[-58.60616312,-34.53434729],[-58.60616943,-34.53435412],[-58.60622105,-34.53440999],[-58.60626194,-34.53445426],[-58.606343,-34.534542],[-58.60635752,-34.53453018],[-58.60636734,-34.53452219],[-58.60645032,-34.53445466],[-58.60687571,-34.53410844],[-58.60928988,-34.53214363],[-58.61122619,-34.53056773],[-58.61209527,-34.52986042],[-58.61445862,-34.52793697],[-58.616814,-34.52602],[-58.62073271,-34.52282309],[-58.62398515,-34.52016972],[-58.624545,-34.519713],[-58.633563,-34.512396],[-58.63365723,-34.5123217],[-58.639765,-34.507506],[-58.639636,-34.507369],[-58.640509,-34.50667],[-58.641344,-34.505965],[-58.642356,-34.505126],[-58.644509,-34.50325],[-58.6458081,-34.50201747],[-58.645914,-34.501917],[-58.64613344,-34.5017442],[-58.64659082,-34.50138405],[-58.646662,-34.501328],[-58.647708,-34.500453],[-58.6481589,-34.50006219],[-58.64836193,-34.49988623],[-58.65000486,-34.49849206],[-58.65080269,-34.49781503],[-58.651493,-34.497225],[-58.65280508,-34.49608283],[-58.652829,-34.496062],[-58.65286592,-34.49603119],[-58.653638,-34.495387],[-58.654077,-34.495006],[-58.654674,-34.494506],[-58.655805,-34.493552],[-58.656411,-34.493038],[-58.65694333,-34.49257121],[-58.657142,-34.492397],[-58.65733837,-34.49223598],[-58.658125,-34.491591],[-58.65880175,-34.4909942],[-58.65880177,-34.49099418],[-58.6588018,-34.49099416],[-58.659073,-34.490755],[-58.65945318,-34.49044141],[-58.660112,-34.489898],[-58.66081909,-34.48928233],[-58.661303,-34.488861],[-58.6613846,-34.48880246],[-58.66186654,-34.48845672],[-58.662269,-34.488168],[-58.663061,-34.48747],[-58.663874,-34.486815],[-58.664427,-34.486342],[-58.665369,-34.485521],[-58.666128,-34.484891],[-58.667051,-34.484106],[-58.66789,-34.483437],[-58.668596,-34.482839],[-58.669318,-34.482239],[-58.669845,-34.481769],[-58.670358,-34.481332],[-58.67092,-34.480862],[-58.671531,-34.480352],[-58.671956,-34.48],[-58.672504,-34.479558],[-58.673612,-34.478619],[-58.674247,-34.478074],[-58.674833,-34.477581],[-58.675286,-34.477201],[-58.67626,-34.476386],[-58.677012,-34.475759],[-58.677703,-34.475146],[-58.67821,-34.474651],[-58.678558,-34.474241],[-58.678926,-34.473769],[-58.679367,-34.473237],[-58.679788,-34.472737],[-58.680209,-34.472237],[-58.680691,-34.471575],[-58.681565,-34.470392],[-58.68295377,-34.46853117],[-58.68480259,-34.46615098],[-58.68557163,-34.4651609],[-58.68688125,-34.46347488],[-58.68981727,-34.45969501],[-58.69034346,-34.45901759],[-58.69459654,-34.45354211],[-58.694651,-34.453472],[-58.696285,-34.451706],[-58.698648,-34.448477],[-58.69896744,-34.44782503],[-58.699185,-34.447381],[-58.69980306,-34.44675131],[-58.700301,-34.446244],[-58.70436324,-34.44089175],[-58.705563,-34.439311],[-58.70558421,-34.43932281],[-58.70560976,-34.43933705],[-58.705781,-34.439103],[-58.70611359,-34.43887395],[-58.706568,-34.438561],[-58.70675025,-34.43832288],[-58.711353,-34.432309],[-58.711392,-34.431866],[-58.71234007,-34.43066864],[-58.712647,-34.430281],[-58.714822,-34.427683],[-58.716047,-34.426075],[-58.71874,-34.422581],[-58.720686,-34.420071],[-58.726072,-34.413309],[-58.72841,-34.410489],[-58.731993,-34.406105],[-58.734634,-34.40246],[-58.73440559,-34.40237404],[-58.734254,-34.402317],[-58.73415968,-34.40226542],[-58.73234878,-34.40127514],[-58.73217147,-34.40117818],[-58.725851,-34.397795],[-58.72290284,-34.39621065],[-58.72153411,-34.39550484],[-58.720846,-34.39515],[-58.715909,-34.392543],[-58.71594912,-34.3925249],[-58.721358,-34.390084],[-58.719012,-34.390043],[-58.71869,-34.390035],[-58.718254,-34.389997],[-58.717789,-34.389919],[-58.717459,-34.389844],[-58.717056,-34.389728],[-58.716669,-34.389593],[-58.716373,-34.389469],[-58.716119,-34.389344],[-58.71577,-34.389151],[-58.715521,-34.388993],[-58.715121,-34.388693],[-58.714867,-34.38847],[-58.714621,-34.388227],[-58.714432,-34.388011],[-58.714267,-34.387796],[-58.714092,-34.387543],[-58.711182,-34.382673],[-58.708908,-34.378934],[-58.706266,-34.374559],[-58.70532886,-34.37297257],[-58.705406,-34.372934],[-58.709058,-34.371052],[-58.71703945,-34.36691408],[-58.719252,-34.365767],[-58.721257,-34.364705],[-58.72120342,-34.36460442],[-58.721021,-34.364262],[-58.720619,-34.36329],[-58.72044016,-34.36311314],[-58.719351,-34.362036],[-58.718465,-34.361596],[-58.716418,-34.360582],[-58.715874,-34.360313],[-58.703917,-34.354201],[-58.699286,-34.351799],[-58.690393,-34.347182],[-58.6897554,-34.34766776],[-58.689192,-34.348097],[-58.68814207,-34.34911907],[-58.688,-34.349393],[-58.687258,-34.350315],[-58.686457,-34.351111],[-58.68632238,-34.35114134],[-58.68620554,-34.35116767],[-58.686031,-34.351207],[-58.68577752,-34.35107165],[-58.68531,-34.350822],[-58.68489219,-34.35043005],[-58.684793,-34.350337],[-58.68352765,-34.34945392],[-58.683085,-34.349145],[-58.68238451,-34.3485291],[-58.6821223,-34.34829855],[-58.681818,-34.348031],[-58.68176688,-34.34798939],[-58.68175413,-34.34797902],[-58.680813,-34.347213],[-58.68025169,-34.34635558],[-58.679814,-34.345687],[-58.67950785,-34.34499706],[-58.679258,-34.344434],[-58.67914937,-34.3442429],[-58.67844,-34.342995],[-58.67837151,-34.34264451],[-58.67828998,-34.34222732],[-58.678184,-34.341685],[-58.677682,-34.340316],[-58.677038,-34.338449],[-58.67668515,-34.33753254],[-58.67638597,-34.33675546],[-58.676211,-34.336301],[-58.67561303,-34.33456681],[-58.67546,-34.334123],[-58.675071,-34.332674],[-58.6749085,-34.33213206],[-58.67447633,-34.33069069],[-58.674325,-34.330186],[-58.67377539,-34.32842454],[-58.673598,-34.327856],[-58.67333068,-34.32706718],[-58.67294795,-34.32593785],[-58.672846,-34.325637],[-58.67206,-34.323446],[-58.671048,-34.320402],[-58.670527,-34.318724],[-58.669875,-34.316704],[-58.669545,-34.315709],[-58.669325,-34.315177],[-58.66911,-34.314344],[-58.668628,-34.313129],[-58.668247,-34.31185],[-58.667692,-34.310288],[-58.666974,-34.308234],[-58.66641541,-34.30621575],[-58.666289,-34.305759],[-58.6658437,-34.30481993],[-58.665793,-34.304713],[-58.664994,-34.302614],[-58.664483,-34.301029],[-58.663965,-34.299912],[-58.663714,-34.298775],[-58.663063,-34.297291],[-58.66236,-34.295567],[-58.661894,-34.294215],[-58.66157891,-34.29308471],[-58.661395,-34.292425],[-58.66129556,-34.29215367],[-58.66085,-34.290938],[-58.660343,-34.289653],[-58.659878,-34.288268],[-58.659528,-34.287288],[-58.658995,-34.28614],[-58.658045,-34.283667],[-58.657628,-34.282204],[-58.656941,-34.280464],[-58.656053,-34.277611],[-58.65566682,-34.27645905],[-58.655056,-34.274637],[-58.654375,-34.272532],[-58.653304,-34.270788],[-58.65312684,-34.27062089],[-58.651788,-34.269358],[-58.65173705,-34.26931184],[-58.65015,-34.267874],[-58.6500749,-34.2677231],[-58.649515,-34.266598],[-58.64893585,-34.26671269],[-58.63829036,-34.26882091],[-58.638199,-34.268839],[-58.631842,-34.270083],[-58.624771,-34.271318],[-58.6153,-34.272929],[-58.608303,-34.274427],[-58.597238,-34.277653],[-58.5725641,-34.28697389],[-58.570004,-34.287941],[-58.56271583,-34.29113668],[-58.549102,-34.297106],[-58.54905063,-34.29711294],[-58.54466434,-34.2977057],[-58.53970638,-34.29837571]]],[[[-58.46893812,-34.32656621],[-58.46848235,-34.32673925],[-58.46790319,-34.32684853],[-58.46779379,-34.32690488],[-58.46754257,-34.3270343],[-58.46713825,-34.32719821],[-58.46638424,-34.32743862],[-58.4658925,-34.32741676],[-58.46567395,-34.32729656],[-58.46526962,-34.32732934],[-58.46516294,-34.32735824],[-58.46474509,-34.3274714],[-58.46447116,-34.32758347],[-58.46426428,-34.3276681],[-58.46384903,-34.32790851],[-58.46330264,-34.32812706],[-58.46272348,-34.32832376],[-58.46222081,-34.32848767],[-58.46215412,-34.32852519],[-58.46169628,-34.32878272],[-58.46153236,-34.32890293],[-58.46121546,-34.32909962],[-58.46083299,-34.32939467],[-58.46057073,-34.32978807],[-58.46035218,-34.32998476],[-58.46001342,-34.33010497],[-58.45982765,-34.33010497],[-58.45957631,-34.33011589],[-58.45944518,-34.33019239],[-58.45929219,-34.33036723],[-58.45930312,-34.3304328],[-58.45963095,-34.33058578],[-58.45936869,-34.33079341],[-58.45887694,-34.33082619],[-58.45864746,-34.33095732],[-58.45846169,-34.3312633],[-58.4585054,-34.33149278],[-58.45834149,-34.33165669],[-58.45790438,-34.3320938],[-58.4576749,-34.33221401],[-58.45751099,-34.33236699],[-58.45752191,-34.33250905],[-58.45763119,-34.33268389],[-58.45759841,-34.33284781],[-58.45732522,-34.33333955],[-58.45717223,-34.33348161],[-58.45705202,-34.33349254],[-58.4568444,-34.33345976],[-58.45669141,-34.3337548],[-58.45646193,-34.3345416],[-58.45645533,-34.33461205],[-58.45639636,-34.33524097],[-58.45639266,-34.3355154],[-58.45638544,-34.33604961],[-58.45641815,-34.33620385],[-58.45653842,-34.33677084],[-58.45670234,-34.33748114],[-58.45690996,-34.33830071],[-58.45701924,-34.33847555],[-58.45722687,-34.33945904],[-58.45738164,-34.34037051],[-58.45742356,-34.34061737],[-58.45752191,-34.34122932],[-58.4575547,-34.34183034],[-58.45752191,-34.34251879],[-58.4572815,-34.34355691],[-58.45677883,-34.34457319],[-58.45630894,-34.3452507],[-58.45586192,-34.34554178],[-58.45584441,-34.34556629],[-58.45548468,-34.34588371],[-58.45489217,-34.3462646],[-58.45432083,-34.34656086],[-58.45374948,-34.34679363],[-58.45323619,-34.34700498],[-58.45154058,-34.34714126],[-58.45037464,-34.34761716],[-58.44980357,-34.3478551],[-58.44980357,-34.34840238],[-58.44925629,-34.34911622],[-58.44799518,-34.35040112],[-58.44735272,-34.35135291],[-58.44647232,-34.35297094],[-58.4461154,-34.35392273],[-58.44566331,-34.35508866],[-58.44563951,-34.35568353],[-58.44580607,-34.35627839],[-58.44640094,-34.35651634],[-58.44787621,-34.35613563],[-58.44875661,-34.35549317],[-58.44968459,-34.35468415],[-58.4505412,-34.35423206],[-58.45158816,-34.35389893],[-58.45223062,-34.35337545],[-58.45308722,-34.35197157],[-58.45342035,-34.35144809],[-58.45306343,-34.35116255],[-58.45255538,-34.35089226],[-58.45268863,-34.35027597],[-58.45269572,-34.34999939],[-58.45342151,-34.34919331],[-58.45389536,-34.34919331],[-58.45327758,-34.34959211],[-58.45303964,-34.35009179],[-58.45301584,-34.35056769],[-58.45329573,-34.35084229],[-58.45363364,-34.35104038],[-58.45369548,-34.35127536],[-58.45349173,-34.35180501],[-58.45270651,-34.3531375],[-58.45249236,-34.35351822],[-58.45089812,-34.35499348],[-58.44994634,-34.35594527],[-58.44958942,-34.35642116],[-58.44939906,-34.357135],[-58.44892317,-34.35818196],[-58.44704339,-34.3606804],[-58.44623438,-34.3615608],[-58.44473532,-34.36277432],[-58.44397389,-34.36334539],[-58.44323626,-34.36415441],[-58.44271277,-34.3650586],[-58.4429772,-34.36532481],[-58.44302091,-34.36553243],[-58.44282421,-34.36595861],[-58.44279143,-34.36629737],[-58.44275865,-34.36663612],[-58.44283514,-34.36689839],[-58.44306462,-34.3679693],[-58.44325039,-34.36832991],[-58.44338153,-34.36862496],[-58.44350173,-34.36918227],[-58.44372028,-34.3699472],[-58.44421203,-34.37067936],[-58.44455078,-34.37149893],[-58.44499882,-34.37229665],[-58.44577468,-34.37366261],[-58.4459699,-34.37412742],[-58.44600416,-34.37420899],[-58.4463757,-34.37485372],[-58.44705322,-34.37558588],[-58.44752311,-34.37597927],[-58.44785094,-34.37601205],[-58.44813506,-34.37626339],[-58.4488235,-34.37644916],[-58.44936988,-34.37660215],[-58.44968678,-34.37677699],[-58.44997223,-34.37699901],[-58.44997563,-34.37700165],[-58.44997903,-34.3770043],[-58.45019143,-34.3769453],[-58.45131028,-34.37705947],[-58.4521156,-34.37729374],[-58.45223476,-34.37729038],[-58.4526154,-34.37727966],[-58.45284075,-34.37724152],[-58.45332569,-34.37715946],[-58.45383929,-34.37695183],[-58.45435289,-34.37665679],[-58.45464794,-34.37638359],[-58.45469636,-34.37626474],[-58.45476814,-34.37608855],[-58.45479,-34.37597927],[-58.45504134,-34.37557495],[-58.45519034,-34.37547853],[-58.45522711,-34.37545474],[-58.45545659,-34.37538918],[-58.45557679,-34.37523619],[-58.45584998,-34.37512691],[-58.45588849,-34.37510682],[-58.45610132,-34.37499578],[-58.45630894,-34.37479908],[-58.45639537,-34.37471266],[-58.45651657,-34.37459146],[-58.45659306,-34.37415435],[-58.45671327,-34.37378281],[-58.45689904,-34.37362982],[-58.45698804,-34.3735531],[-58.45721594,-34.37335663],[-58.45744907,-34.37312486],[-58.4590955,-34.371488],[-58.45917649,-34.3711676],[-58.45938293,-34.37035099],[-58.45956539,-34.37026411],[-58.45971837,-34.37015483],[-58.459926,-34.36977236],[-58.45993493,-34.36975375],[-58.45994628,-34.36973012],[-58.46005713,-34.36949917],[-58.45994785,-34.36936804],[-58.45976879,-34.36925861],[-58.45975116,-34.36923691],[-58.45996363,-34.36878424],[-58.46000249,-34.36870145],[-58.46059258,-34.36799115],[-58.4607243,-34.36794725],[-58.4609532,-34.36787095],[-58.46102323,-34.36781493],[-58.46128103,-34.36760869],[-58.46165257,-34.36737921],[-58.46187112,-34.367259],[-58.46214431,-34.36666891],[-58.46215524,-34.36640664],[-58.46220651,-34.3663163],[-58.46238472,-34.36600232],[-58.46298574,-34.3654013],[-58.463382,-34.36503145],[-58.46347749,-34.36494234],[-58.46356162,-34.36491006],[-58.46410916,-34.36469995],[-58.46420851,-34.36466183],[-58.46441726,-34.36458172],[-58.46443946,-34.36457475],[-58.4645921,-34.3645172],[-58.4652417,-34.36411744],[-58.46546704,-34.36369615],[-58.4656248,-34.36340122],[-58.4665409,-34.36196877],[-58.46664893,-34.36179129],[-58.46724047,-34.36081947],[-58.46754028,-34.36015322],[-58.46753955,-34.36014684],[-58.46757536,-34.36011231],[-58.46773692,-34.35966353],[-58.46777206,-34.35956593],[-58.46771742,-34.35940202],[-58.46750979,-34.35938016],[-58.46750591,-34.35936753],[-58.46746608,-34.3592381],[-58.46753367,-34.35919304],[-58.46789226,-34.35895398],[-58.4681847,-34.35878782],[-58.46837308,-34.35868079],[-58.46862441,-34.3585278],[-58.46879926,-34.35800328],[-58.46882111,-34.35768637],[-58.46887392,-34.35743993],[-58.46888668,-34.3573804],[-58.46890835,-34.3573726],[-58.46943306,-34.3571837],[-58.47049623,-34.35524218],[-58.47070067,-34.35491075],[-58.47079902,-34.35468127],[-58.4706351,-34.35432066],[-58.4704757,-34.35430737],[-58.47024171,-34.35428787],[-58.4707947,-34.35346038],[-58.47176065,-34.35201492],[-58.47238353,-34.35166523],[-58.47250285,-34.35159153],[-58.47349815,-34.35097679],[-58.47360742,-34.35078009],[-58.47448164,-34.34939228],[-58.47503895,-34.34827766],[-58.47629563,-34.34586265],[-58.47739932,-34.34375361],[-58.47784736,-34.34269363],[-58.47867786,-34.34154622],[-58.47900569,-34.340825],[-58.47972691,-34.33946997],[-58.481144,-34.33708259],[-58.48143527,-34.3367081],[-58.48144255,-34.33667249],[-58.48161604,-34.33638029],[-58.48165018,-34.3363228],[-58.48201079,-34.33586384],[-58.48226213,-34.33555787],[-58.48258996,-34.33498963],[-58.48288501,-34.33461809],[-58.48313634,-34.33421377],[-58.48330026,-34.33407171],[-58.48356252,-34.33368924],[-58.4839122,-34.33340512],[-58.48421818,-34.33288059],[-58.48444766,-34.33257462],[-58.48463343,-34.33253091],[-58.48489569,-34.33222493],[-58.48511425,-34.33187525],[-58.48519074,-34.33168948],[-58.48555135,-34.33120866],[-58.48598846,-34.33068413],[-58.48602124,-34.33034538],[-58.48608681,-34.3299192],[-58.48641464,-34.32943838],[-58.48643649,-34.32867344],[-58.48632722,-34.32767903],[-58.48621794,-34.32706708],[-58.48621296,-34.32703722],[-58.48617973,-34.32683784],[-58.48615237,-34.32667368],[-58.48599693,-34.32661472],[-58.48587888,-34.32656994],[-58.48583547,-34.32655348],[-58.48532187,-34.32658626],[-58.48510332,-34.32669554],[-58.48478642,-34.32681574],[-58.48428375,-34.32684853],[-58.48395592,-34.32691409],[-58.48326747,-34.32690316],[-58.48273202,-34.32689224],[-58.48208729,-34.32684853],[-58.48146441,-34.32677203],[-58.48098359,-34.32677203],[-58.48034979,-34.32675018],[-58.47964073,-34.3266988],[-58.47959578,-34.32669554],[-58.47903847,-34.32669554],[-58.47859044,-34.32669554],[-58.47721355,-34.32659719],[-58.47624099,-34.3265207],[-58.4753373,-34.32638167],[-58.47306355,-34.32632621],[-58.47080494,-34.32637404],[-58.47004695,-34.32645206],[-58.46893812,-34.32656621]]],[[[-58.44562671,-34.34212542],[-58.44585514,-34.34258227],[-58.44674982,-34.34275359],[-58.44726378,-34.34262034],[-58.44762546,-34.34248709],[-58.44808232,-34.34244902],[-58.44844399,-34.34275359],[-58.44848207,-34.34309624],[-58.4479681,-34.3436102],[-58.44768257,-34.34399091],[-58.44768257,-34.34412416],[-58.44812039,-34.34473331],[-58.44865339,-34.34513305],[-58.44897699,-34.34532341],[-58.44920542,-34.34541859],[-58.44947192,-34.34539955],[-58.44989071,-34.34558991],[-58.45011913,-34.34585641],[-58.45027142,-34.34614195],[-58.45040467,-34.34635134],[-58.45078538,-34.34661784],[-58.45187042,-34.34650362],[-58.45333617,-34.34616098],[-58.45444024,-34.34564702],[-58.45482823,-34.34525884],[-58.45498909,-34.34509127],[-58.45509106,-34.34478536],[-58.45527457,-34.34447733],[-58.45583821,-34.3440841],[-58.4563363,-34.34366465],[-58.45646738,-34.34299615],[-58.45659846,-34.34217036],[-58.45661436,-34.34135564],[-58.4566392,-34.3400824],[-58.45665089,-34.33948326],[-58.45565852,-34.3360911],[-58.4546877,-34.33319768],[-58.4541547,-34.33135122],[-58.45341231,-34.33068497],[-58.4528222,-34.33074207],[-58.45192753,-34.331237],[-58.45059503,-34.33222686],[-58.44888182,-34.3342256],[-58.44764449,-34.33544389],[-58.4455125,-34.33774721],[-58.44459879,-34.33877513],[-58.44404675,-34.33942235],[-58.44381832,-34.33999342],[-58.44440843,-34.34085002],[-58.44530311,-34.34189699],[-58.44562671,-34.34212542]]],[[[-58.44507944,-34.32685879],[-58.44457975,-34.32694445],[-58.44418,-34.32693018],[-58.44340905,-34.32700156],[-58.44299503,-34.32713005],[-58.44252389,-34.32718716],[-58.44195282,-34.32724427],[-58.44133892,-34.32802949],[-58.44063936,-34.32984264],[-58.44049659,-34.33079918],[-58.44025389,-34.33188422],[-58.44025389,-34.33265516],[-58.44059653,-34.33399718],[-58.44066792,-34.33476812],[-58.44089634,-34.33499655],[-58.44112477,-34.3347824],[-58.44133892,-34.33571039],[-58.44141031,-34.33625291],[-58.4417815,-34.33565328],[-58.44229547,-34.3350251],[-58.44282371,-34.33431127],[-58.44403723,-34.33269799],[-58.44533642,-34.33148447],[-58.44680693,-34.33048509],[-58.44723221,-34.33003109],[-58.44890561,-34.32921446],[-58.44994781,-34.32848635],[-58.4500763,-34.32830075],[-58.44986215,-34.32784389],[-58.44954806,-34.32768685],[-58.44857724,-34.32748697],[-58.4479919,-34.32742986],[-58.4474351,-34.32714433],[-58.44699252,-34.32714433],[-58.44623585,-34.32717288],[-58.44590749,-34.32715861],[-58.44552202,-34.32677313],[-58.44507944,-34.32685879]]],[[[-58.44284655,-34.33796517],[-58.44362701,-34.33800324],[-58.44412194,-34.33785095],[-58.44469301,-34.33737506],[-58.44636815,-34.33583317],[-58.44848245,-34.33345867],[-58.44893797,-34.33290167],[-58.44939483,-34.33238771],[-58.44978506,-34.33191182],[-58.44998194,-34.33147586],[-58.45002272,-34.33142925],[-58.45012548,-34.33115521],[-58.45047986,-34.330408],[-58.45070829,-34.32976078],[-58.45067022,-34.32930393],[-58.4504989,-34.32915164],[-58.44949001,-34.329342],[-58.44792908,-34.33019861],[-58.44589226,-34.33162628],[-58.44455976,-34.33284457],[-58.44332244,-34.33442453],[-58.4429798,-34.33495753],[-58.44269426,-34.33564281],[-58.44248487,-34.3363281],[-58.44237066,-34.33688013],[-58.44229452,-34.33731795],[-58.44250391,-34.33783192],[-58.44284655,-34.33796517]]],[[[-58.43795533,-34.32678741],[-58.43712728,-34.32714433],[-58.43708445,-34.32744414],[-58.43723856,-34.32768684],[-58.43744137,-34.32812943],[-58.43751729,-34.32827558],[-58.4377633,-34.32874914],[-58.43801244,-34.32922874],[-58.43879766,-34.32989975],[-58.43942584,-34.33059931],[-58.43928307,-34.33107044],[-58.43965426,-34.33174145],[-58.43979703,-34.33161296],[-58.43999691,-34.33107044],[-58.44021106,-34.33025666],[-58.44042521,-34.32952855],[-58.44105699,-34.32807366],[-58.44136748,-34.32730137],[-58.44136748,-34.32694445],[-58.44101056,-34.32678741],[-58.44023961,-34.32678741],[-58.43884049,-34.32675886],[-58.43795533,-34.32678741]]]]}}