{"type":"Feature","properties":{"slug":"villa-urquiza-coghlan","name":"Villa Urquiza y Coghlan","region":"caba","sort":6},"geometry":{"type":"Polygon","coordinates":[[[-58.51553576857417,-34.58127414707185],[-58.515459093149076,-34.58128070257597],[-58.515298628010505,-34.581294420425756],[-58.51516148793665,-34.58130614411879],[-58.514999110089384,-34.581320024644],[-58.5149702127839,-34.58132249506749],[-58.51490250172233,-34.58136836388742],[-58.51485553898525,-34.581415259644466],[-58.51485454019466,-34.5814162570426],[-58.51474097308135,-34.58152966187574],[-58.51465483932076,-34.581615671569224],[-58.51458323641277,-34.581687171166195],[-58.5145835320473,-34.58168762716306],[-58.51457270702747,-34.58169932950461],[-58.51451630813752,-34.58175028280111],[-58.51392056124099,-34.582404321409044],[-58.51381334707973,-34.58252211446923],[-58.51340041298845,-34.58298084856198],[-58.513272087981065,-34.58312340473088],[-58.51246762993358,-34.58401719761651],[-58.51235683992394,-34.58414034346849],[-58.51180985540731,-34.58474374233512],[-58.511154026321556,-34.58546732328699],[-58.511040252849874,-34.58559279295834],[-58.51049239954532,-34.586198791240726],[-58.50978795643326,-34.58697787876536],[-58.50902154692262,-34.58782550712264],[-58.50824371890118,-34.58868566996409],[-58.50750391547391,-34.589503771551314],[-58.50672358771209,-34.59036667202265],[-58.506071756477944,-34.59108754818084],[-58.50542212646342,-34.591805814000566],[-58.50528467533349,-34.59195783598251],[-58.5047684845378,-34.59252766981752],[-58.50411670285964,-34.593247267870964],[-58.50347172005461,-34.593959253914015],[-58.50331123523567,-34.59386184024049],[-58.50214192901985,-34.59313910789158],[-58.501928121766866,-34.593006919807685],[-58.500817103856825,-34.59232098745605],[-58.49948736351279,-34.59149989640506],[-58.49820262400738,-34.59070666523205],[-58.49706654034048,-34.59000521284748],[-58.495928175353185,-34.58930227027139],[-58.49559258984596,-34.589095031996926],[-58.49536142715018,-34.58895157000458],[-58.494794684452685,-34.588599950334384],[-58.494225645087404,-34.58824685025678],[-58.49389083410405,-34.588039113989],[-58.493663850802086,-34.587895999262315],[-58.49254052805878,-34.58718774053842],[-58.49197057050998,-34.58682829126204],[-58.49141381869284,-34.58647728801588],[-58.49085076827545,-34.58612226958694],[-58.49028619098699,-34.585766262717456],[-58.48956005633142,-34.58530838473017],[-58.48896942846867,-34.58493589747464],[-58.48879415727158,-34.58482403134742],[-58.48810424441528,-34.58442451782898],[-58.48703374798335,-34.583804508939046],[-58.485960371156004,-34.58318280005439],[-58.48582505124257,-34.58310437228392],[-58.48509616343863,-34.58268076455401],[-58.48474760422742,-34.5824782174961],[-58.48412168521295,-34.582114445801416],[-58.483134956403696,-34.58154093774674],[-58.48301437330534,-34.58147081468129],[-58.4821464533331,-34.58096544961349],[-58.48113011794943,-34.58037361915083],[-58.48099463591388,-34.58029469383219],[-58.480484559854105,-34.579999409258136],[-58.48031124831265,-34.57989912200798],[-58.48018439069738,-34.57982571491095],[-58.47923365123401,-34.57927533944862],[-58.4789890918047,-34.579130861790425],[-58.47865631576918,-34.57893428064965],[-58.47819973186784,-34.57867475459727],[-58.47777423026328,-34.578432900101554],[-58.477334340813094,-34.578182876146194],[-58.47715143818359,-34.57807909155434],[-58.47559550246726,-34.577196213356736],[-58.47500806430441,-34.57686288415109],[-58.474979986486964,-34.57684690185487],[-58.474852073538685,-34.57677409503681],[-58.47462021709969,-34.57664207137754],[-58.47383030814602,-34.57619234492401],[-58.47373571274625,-34.57614074730842],[-58.473685985224606,-34.576113623132734],[-58.47354838925784,-34.576038703721686],[-58.472887998634135,-34.57566100396008],[-58.472743762012946,-34.5755777739102],[-58.47195974798884,-34.57512549910249],[-58.47180725446759,-34.57503853661941],[-58.47086641760621,-34.57450210841864],[-58.46992703465557,-34.573966454375565],[-58.469135309397274,-34.57351500095047],[-58.46828909648342,-34.573032494057486],[-58.46808280219982,-34.57291482378605],[-58.468842080328145,-34.572017731582086],[-58.469587125687326,-34.57113739548585],[-58.47041745111707,-34.57015634415815],[-58.471177786114396,-34.56925789833996],[-58.47196278986434,-34.56833029104557],[-58.472784461957644,-34.56735929362636],[-58.473369827681005,-34.56666768335336],[-58.47298985538144,-34.56644167936269],[-58.47295884559847,-34.566423235007925],[-58.47242192061301,-34.56610387259467],[-58.47137271507473,-34.56545815834925],[-58.47065128779516,-34.56501108137426],[-58.47044066715114,-34.56487376677131],[-58.46961240766511,-34.56433366066321],[-58.468611938124866,-34.56368122957112],[-58.46765055842208,-34.563054352418995],[-58.467542102791164,-34.56297400204182],[-58.466577501847695,-34.562259861841966],[-58.46649186218607,-34.56219648199534],[-58.46691544214592,-34.562017522276804],[-58.46768555987636,-34.561693617501696],[-58.46703884337077,-34.56132137710532],[-58.46774023393548,-34.56053978731518],[-58.468466466317885,-34.559730444574726],[-58.46893154692517,-34.559212172912375],[-58.46918578969931,-34.55893483100514],[-58.469651203254436,-34.55842712036059],[-58.4700699664083,-34.557950748666286],[-58.47087360351467,-34.557036526429535],[-58.471557463770345,-34.55616934890123],[-58.471851430394125,-34.55579650392062],[-58.472450927811735,-34.55502306220701],[-58.47274446085441,-34.55464443958179],[-58.47298511697805,-34.55432923057593],[-58.472985138764926,-34.554329201728464],[-58.47358759304927,-34.55354026114664],[-58.47393046939182,-34.553731222128256],[-58.47425342980662,-34.55391218347193],[-58.475177456231016,-34.55442992675472],[-58.47608165877607,-34.55493653693237],[-58.476991832545984,-34.55544652005983],[-58.47791129569734,-34.55596163699786],[-58.47881808661473,-34.55646963540156],[-58.47935550884331,-34.55677069906745],[-58.47972241828951,-34.55697628873522],[-58.48052690382473,-34.55742696261313],[-58.48062948622177,-34.55748448449427],[-58.480806644415324,-34.55758382822432],[-58.481537416038584,-34.5579922514725],[-58.482447486077334,-34.558500785646046],[-58.48340873167066,-34.559037755461716],[-58.48356069364174,-34.559110690163635],[-58.48370167386554,-34.5591784144512],[-58.4843510717152,-34.55949014168697],[-58.48498986927266,-34.55979681753303],[-58.485018862345136,-34.559810736744105],[-58.48516682554576,-34.559881275052945],[-58.4853019346159,-34.559945618178254],[-58.486255871577896,-34.56040024110969],[-58.48638953843979,-34.56046394598689],[-58.48717533794849,-34.5608334552764],[-58.48732075122438,-34.56090180820143],[-58.488131851900164,-34.561293274131124],[-58.48827518696321,-34.56136249080618],[-58.488292931544315,-34.561371059757164],[-58.48831037310801,-34.56137925737926],[-58.489087180559636,-34.56174435357017],[-58.48927754994656,-34.561833822322285],[-58.49004405471471,-34.56220197493553],[-58.490401300243214,-34.562373590257295],[-58.490518877382435,-34.56242997366464],[-58.49099191533611,-34.56265698478033],[-58.49183468141706,-34.56144803149674],[-58.49193073985506,-34.56130800638878],[-58.492884303882185,-34.56176377459691],[-58.49413008280982,-34.56235911291416],[-58.494289297654475,-34.562435623675846],[-58.4954177713456,-34.562977527429815],[-58.49659351404779,-34.56354208323607],[-58.49682323205594,-34.563652374973614],[-58.49786088883486,-34.56415237806023],[-58.49799141679918,-34.564215300359066],[-58.49905309972755,-34.564727117669655],[-58.4991400334327,-34.56476899414291],[-58.49971307213448,-34.56504735218918],[-58.5002355344115,-34.565297199872305],[-58.50086273217462,-34.56560004320787],[-58.50143816514603,-34.565877828985464],[-58.5018775333311,-34.56608994825942],[-58.501998615869375,-34.56614878486821],[-58.50256068845474,-34.566422203046905],[-58.50271225486377,-34.56649588736464],[-58.50333223675382,-34.56679977674861],[-58.50395741561393,-34.567106196049885],[-58.504094778367154,-34.56717769831184],[-58.50410140966351,-34.56718115036504],[-58.504241315578746,-34.567254062344844],[-58.504657538511744,-34.567458433355554],[-58.505072145999534,-34.56766202916625],[-58.50520864536377,-34.56772909634255],[-58.50626301384539,-34.56824740200004],[-58.507316799153394,-34.568765347155],[-58.50841809302499,-34.56930662969915],[-58.508604690846106,-34.56939834027656],[-58.508818013763744,-34.56951523458638],[-58.509040472963434,-34.5700034273427],[-58.50923349288315,-34.569913431223306],[-58.509254522260626,-34.56990362479814],[-58.50931212144918,-34.569854384291354],[-58.509394559773995,-34.56978390757949],[-58.50948420953869,-34.56970726683014],[-58.509522005772276,-34.56967495439814],[-58.50957347047401,-34.56962144422682],[-58.509676604426495,-34.56951421010182],[-58.509685806940155,-34.56950424133049],[-58.509804848066665,-34.5693752946885],[-58.509844880452924,-34.56931622514783],[-58.50985111607939,-34.56930702370787],[-58.509874864147605,-34.56927198339446],[-58.50987529313918,-34.56927135042903],[-58.509879170043014,-34.56928063184472],[-58.509921032577914,-34.56938083921778],[-58.51029484715918,-34.570275637900394],[-58.51031806753676,-34.57032514703796],[-58.510318183185646,-34.57032539308295],[-58.510334290069004,-34.57035973664792],[-58.511052290358066,-34.57186651981834],[-58.512710998394766,-34.57534723208957],[-58.51382389380878,-34.57768241332207],[-58.515396237073226,-34.58098140668252],[-58.51553576857417,-34.58127414707185]]]}}