{"type":"Feature","properties":{"slug":"villa-crespo","name":"Villa Crespo","region":"caba","sort":4},"geometry":{"type":"Polygon","coordinates":[[[-58.42337046439579,-34.59775309579909],[-58.42375620668038,-34.597832538504306],[-58.424957256162664,-34.59785701864381],[-58.42630587453738,-34.597887222471456],[-58.426442469081785,-34.59790487129709],[-58.426567906269064,-34.59792103647548],[-58.42678829291573,-34.5979494812089],[-58.42777627037006,-34.598334144887495],[-58.42785554506763,-34.598369241395936],[-58.42799058800827,-34.598429140422475],[-58.42854164969183,-34.5986735949965],[-58.42855102818961,-34.59867775593027],[-58.42916476831594,-34.598964341781674],[-58.429223088323745,-34.59900449933255],[-58.42943185651599,-34.59913138941789],[-58.429649543422755,-34.599325890999886],[-58.430153110471274,-34.5997757539374],[-58.43019090952997,-34.599809567542955],[-58.43027799996006,-34.599887407339935],[-58.431041082723894,-34.60075445801703],[-58.43115719704175,-34.60088639198752],[-58.43187551720937,-34.601702577183666],[-58.43220130894098,-34.6020775963931],[-58.432243441632785,-34.60213894439448],[-58.43314460422121,-34.6025837563302],[-58.43333687771966,-34.60267859363733],[-58.43386848608438,-34.60294098005149],[-58.4339166817943,-34.60296479551884],[-58.43497445608414,-34.60348674183715],[-58.43515106544892,-34.60358009520448],[-58.435340700284705,-34.60368027957137],[-58.43661880106533,-34.604288534246606],[-58.436854781641294,-34.60440081894897],[-58.4370271763962,-34.60448284771761],[-58.43705489191494,-34.60449603517349],[-58.43705590888823,-34.604496519455765],[-58.437059972380325,-34.60449858548707],[-58.43717717064443,-34.60455816667247],[-58.43719170898866,-34.60456555333019],[-58.437977552944886,-34.60496481983708],[-58.438513596197446,-34.60523714484717],[-58.43920415657378,-34.605587963253505],[-58.439287874778955,-34.605610938967494],[-58.440144027191465,-34.60584568591456],[-58.44033752032873,-34.60589875131387],[-58.44146765491223,-34.606208611508784],[-58.44160213139794,-34.60624419928247],[-58.44282638298506,-34.60657659821387],[-58.442982407051204,-34.6066174704082],[-58.444169541365774,-34.60692801903239],[-58.44513371589389,-34.60718021194922],[-58.44567997102396,-34.60736254865285],[-58.44624963503948,-34.60762073177344],[-58.4470422032722,-34.6074233015752],[-58.44906368321476,-34.60691974434303],[-58.449292038131404,-34.606862798232434],[-58.4502390132356,-34.60662691383477],[-58.45065798795473,-34.606520265713854],[-58.450740778223704,-34.60649921795832],[-58.450990376393555,-34.60643568776814],[-58.4510157831852,-34.60642922082632],[-58.45105192004396,-34.60642002274811],[-58.451509562039156,-34.60630358793919],[-58.45201702965371,-34.60617243671603],[-58.45243020767137,-34.60606564134306],[-58.45296075457058,-34.605928290969594],[-58.45307113939156,-34.60589949714835],[-58.45400369994378,-34.60565696314312],[-58.454984207834606,-34.60540195951653],[-58.455526414814415,-34.605260936288666],[-58.455805182805314,-34.60518862905957],[-58.45656508622253,-34.6049914873628],[-58.45808181449781,-34.604598035153366],[-58.45847564360012,-34.604497063269704],[-58.45847751980515,-34.604496581984606],[-58.458936500387324,-34.60437891052652],[-58.45827927760539,-34.60391218758795],[-58.45816464561099,-34.60383436486436],[-58.457919752208056,-34.60304391989552],[-58.45753428340895,-34.60179972878879],[-58.45725312900867,-34.60089230652348],[-58.45721506885978,-34.60076871150936],[-58.45698688145962,-34.60002742057244],[-58.456901057690985,-34.59973698858051],[-58.45658390225398,-34.59871244883445],[-58.456566788551115,-34.598662869642524],[-58.45623823399996,-34.597595439389124],[-58.45605947352765,-34.59765690955797],[-58.45601124279276,-34.5976723147075],[-58.45592235752644,-34.59770070418574],[-58.455485973134834,-34.597840116317954],[-58.45479671677111,-34.59735809024457],[-58.45381828341016,-34.59667385254284],[-58.45376940445988,-34.596639622604954],[-58.453657170712354,-34.596561091730344],[-58.45282206601879,-34.59599404129737],[-58.45260926858388,-34.595849513897825],[-58.45208575212018,-34.595481150819374],[-58.451888539793295,-34.595342398099305],[-58.45170657084241,-34.59521491429682],[-58.450958963583034,-34.594665960753],[-58.450633204843356,-34.59442675903553],[-58.450602703613,-34.594404361805765],[-58.438644313985044,-34.588727153330225],[-58.43858578211013,-34.588697323281174],[-58.43853889691959,-34.588673428741366],[-58.43853841959034,-34.58867318165427],[-58.43853690863584,-34.58867409088471],[-58.43850039170945,-34.58869607371202],[-58.43825254584401,-34.58886236469667],[-58.43822513538705,-34.58888076344439],[-58.438054098573446,-34.58899556510869],[-58.437127092706724,-34.589617493049225],[-58.43617665075951,-34.5902551844947],[-58.43603943679221,-34.59034726772683],[-58.43531358652676,-34.59082732257302],[-58.4343660157657,-34.591454084199725],[-58.43413544570014,-34.59160649702565],[-58.43354228583283,-34.59200131892559],[-58.43344841199512,-34.59206380341887],[-58.433428536482026,-34.592077026947386],[-58.43236154574699,-34.59278706576656],[-58.431222361060016,-34.59354509413686],[-58.43074507709327,-34.59386270326436],[-58.43028520406779,-34.59416872832367],[-58.43021423197946,-34.59421300324105],[-58.430062459572284,-34.594307683558554],[-58.429351798650025,-34.59475073487385],[-58.42933302349945,-34.59476221017555],[-58.42917206724592,-34.59486061600765],[-58.428091967138194,-34.59552032038134],[-58.427026927258915,-34.59617086384167],[-58.42699185296127,-34.59619226401014],[-58.42695332660271,-34.596215770667236],[-58.42695151131967,-34.59621654084318],[-58.42624329429836,-34.59651711284868],[-58.42602719498809,-34.59661930265],[-58.42484614314645,-34.597067111935914],[-58.42453820412655,-34.597201468823854],[-58.42354244525393,-34.5976359201193],[-58.42353409146059,-34.59764161168495],[-58.42337046439579,-34.59775309579909]]]}}